{"type":"Feature","properties":{"tags":{"ISO3166-1":"AD","ISO3166-1:alpha2":"AD","ISO3166-1:alpha3":"AND","ISO3166-1:numeric":"020","admin_level":"2","alt_name:af":"Prinsdom van die Valleie van Andorra","alt_name:ar":"\u0625\u0645\u0627\u0631\u0629 \u0648\u062f\u064a\u0627\u0646 \u0623\u0646\u062f\u0648\u0631\u0627","alt_name:ckb":"\u0626\u06d5\u0646\u062f\u06c6\u0631\u0627","alt_name:cs":"Andorsk\u00e9 kn\u00ed\u017eectv\u00ed","alt_name:de":"F\u00fcrstentum der T\u00e4ler von Andorra","alt_name:el":"\u0391\u03bd\u03b4\u03cc\u03c1\u03b1","alt_name:en":"Principality of the Valleys of Andorra","alt_name:gd":"Prionnsalachd Glinntean Andorra","alt_name:hi":"\u092a\u094d\u0930\u093f\u0902\u0938\u093f\u092a\u093e\u0932\u093f\u091f\u0940 \u0911\u092b\u093c \u0935\u0948\u0932\u0940 \u0911\u092b\u093c \u0905\u0902\u0921\u094b\u0930\u093e","alt_name:hu":"Andorrai Fejedelems\u00e9g","alt_name:kab":"Tageldunt n i\u0263z\u1e5bawen n Andorra","alt_name:kn":"\u0c85\u0c82\u0ca1\u0ccb\u0cb0 \u0cb0\u0cbe\u0c9c\u0ccd\u0caf","alt_name:mt":"Prin\u010bipalit\u00e0 tal-Widien tal-Andorra","alt_name:pnb":"\u0627\u0646\u0688\u0648\u0631\u0627","alt_name:ps":"\u062f \u0622\u0646\u062f\u0648\u0631\u0627 \u0647\u06cc\u0648\u0627\u062f \u0634\u0647\u0632\u0627\u062f\u0647 \u0634\u0627\u0647\u064a","alt_name:pt":"Principado dos Vales de Andorra","alt_name:ro":"Principatul V\u0103ilor Andorrei","alt_name:su":"Kapang\u00e9ranan Lebak Andorra","alt_name:tl":"Prinsipalidad ng Andorra","alt_name:vi":"C\u00f4ng qu\u1ed1c Andorra","alt_name:war":"Prinsipado han mga Siong han Andorra","alt_name:yo":"Il\u1eb9\u0300-\u1eccm\u1ecdba \u00e0w\u1ecdn \u00c0fon\u00edfoj\u00ec il\u1eb9\u0300 Andorra","boundary":"administrative","default_language":"ca","flag":"http:\/\/upload.wikimedia.org\/wikipedia\/commons\/1\/19\/Flag_of_Andorra.svg","int_name":"Principat d'Andorra","land_area":"administrative","name":"Principat d'Andorra","name:ab":"\u0410\u043d\u0434\u043e\u0440\u0430","name:ace":"Andorra","name:ady":"\u0410\u043d\u0434\u043e\u0440\u0440\u044d","name:af":"Andorra","name:ak":"Andora","name:als":"Andorra","name:am":"\u12a0\u1295\u12f6\u122b","name:an":"Andorra","name:ang":"Andorra","name:ar":"\u0623\u0646\u062f\u0648\u0631\u0627","name:arc":"\u0710\u0722\u0715\u0718\u072a\u0710","name:ary":"\u0623\u0646\u062f\u0648\u0631\u0627","name:arz":"\u0627\u0646\u062f\u0648\u0631\u0627","name:ast":"Andorra","name:av":"\u0410\u043d\u0434\u043e\u0301\u0440\u0440\u0430","name:avk":"Andorra","name:awa":"\u0905\u0902\u0921\u094b\u0930\u093e","name:az":"Andorra","name:azb":"\u0622\u0646\u062f\u0648\u0631\u0627","name:ba":"\u0410\u043d\u0434\u043e\u0301\u0440\u0440\u0430","name:ban":"Andorra","name:bar":"Andorra","name:bat-smg":"Anduora","name:bcl":"Andora","name:be":"\u0410\u043d\u0434\u043e\u0301\u0440\u0430","name:be-tarask":"\u0410\u043d\u0434\u043e\u0440\u0430","name:bg":"\u0410\u043d\u0434\u043e\u0440\u0430","name:bh":"\u0905\u0902\u0921\u094b\u0930\u093e","name:bi":"Andorra","name:bm":"And\u0254r","name:bn":"\u0985\u09cd\u09af\u09be\u09a8\u09cd\u09a1\u09cb\u09b0\u09be","name:bo":"\u0f68\u0f53\u0f0b\u0f4c\u0f7c\u0f62\u0f0b\u0f62\u0f0d","name:bpy":"\u098f\u09a8\u09cd\u09a1\u09cb\u09b0\u09be","name:br":"Andorra","name:bs":"Andora","name:bxr":"\u0410\u043d\u0434\u043e\u0440\u0440\u0430","name:ca":"Principat d'Andorra","name:cbk-zam":"Andorra","name:cdo":"\u0102ng-d\u00f4\u0324-\u012b","name:ce":"\u0410\u043d\u0434\u043e\u0301\u0440\u0440\u0430","name:ceb":"Andorra","name:ch":"Andorra","name:chr":"\u13a0\u13c2\u13d9\u13b3","name:ckb":"\u0626\u06d5\u0646\u062f\u06c6\u0631\u0627","name:co":"Andorra","name:crh":"Andorra","name:cs":"Andorra","name:csb":"Andorra","name:cu":"\u0410\u043d\u0434\u043e\u0301\u0440\u0430","name:cv":"\u0410\u043d\u0434\u043e\u0440\u0440\u0430","name:cy":"Andorra","name:da":"Andorra","name:de":"Andorra","name:diq":"Andorra","name:dsb":"Andorra","name:dty":"\u090f\u0923\u094d\u0921\u094b\u0930\u093e","name:dv":"\u0787\u07ac\u0782\u07b0\u0791\u07af\u0783\u07a7","name:dz":"\u0f68\u0f71\u0f53\u0f0b\u0f51\u0f7c\u0f0b\u0f62","name:ee":"Andorra","name:el":"\u0391\u03bd\u03b4\u03cc\u03c1\u03c1\u03b1","name:eml":"And\u00f2ra","name:en":"Andorra","name:eo":"Andoro","name:es":"Principado de Andorra","name:et":"Andorra","name:eu":"Andorra","name:ext":"Andorra","name:fa":"\u0622\u0646\u062f\u0648\u0631\u0627","name:ff":"Anndoora","name:fi":"Andorra","name:fo":"Andorra","name:fr":"Principaut\u00e9 d'Andorre","name:frp":"Andorra","name:frr":"Andora","name:fur":"Andore","name:fy":"Andorra","name:ga":"And\u00f3ra","name:gag":"Andorra","name:gcr":"And\u00f2r","name:gd":"Andorra","name:gl":"Andorra","name:gn":"Andorra","name:gom":"\u0905\u0901\u0921\u094b\u0930\u093e","name:got":"\ud800\udf30\ud800\udf3d\ud800\udf33\ud800\udf30\ud800\udf3f\ud800\udf42\ud800\udf30","name:gsw":"Andorra","name:gu":"\u0a8f\u0aa8\u0acd\u0aa1\u0acb\u0ab0\u0abe","name:gv":"Andorra","name:ha":"Andorra","name:hak":"Andorra","name:haw":"\u02bbAnakola","name:he":"\u05d0\u05b7\u05e0\u05b0\u05d3\u05bc\u05d5\u05b9\u05e8\u05b8\u05d4","name:hi":"\u0905\u0923\u094d\u0921\u094b\u0930\u093e","name:hif":"Andorra","name:hr":"Andora","name:hsb":"Andorra","name:ht":"Andora","name:hu":"Andorra","name:hy":"\u0531\u0576\u0564\u0578\u0580\u0580\u0561","name:ia":"Andorra","name:id":"Andorra","name:ie":"Andorra","name:ig":"Andorra","name:ilo":"Andorra","name:io":"Andora","name:is":"Andorra","name:it":"Andorra","name:iu":"\u140a\u14d0\u1451\u1550\u154b","name:ja":"\u30a2\u30f3\u30c9\u30e9","name:jam":"Anduora","name:jbo":"andoras","name:jv":"Andorra","name:ka":"\u10d0\u10dc\u10d3\u10dd\u10e0\u10d0","name:kaa":"Andorra","name:kab":"Andorra","name:kbd":"\u0410\u043d\u0434\u043e\u0440\u0440\u044d","name:kbp":"Andor\u0269","name:kg":"Andora","name:ki":"Andora","name:kk":"\u0410\u043d\u0434\u043e\u0440\u0440\u0430","name:kl":"Andorra","name:km":"\u17a2\u1784\u17cb\u178a\u17bc\u179a\u17c9\u17b6","name:kn":"\u0c85\u0c82\u0ca1\u0ccb\u0cb0","name:ko":"\uc548\ub3c4\ub77c","name:koi":"\u0410\u043d\u0434\u043e\u0440\u0440\u0430","name:krc":"\u0410\u043d\u0434\u043e\u0440\u0440\u0430","name:ks":"\u0627\u066e\u06ea\u0646\u0691\u0648\u0631\u0627","name:ksh":"Andorra","name:ku":"Andorra","name:kv":"\u0410\u043d\u0434\u043e\u0440\u0440\u0430","name:kw":"Andorra","name:ky":"\u0410\u043d\u0434\u043e\u0440\u0440\u0430","name:la":"Andorra","name:lad":"Andorra","name:lb":"Andorra","name:lez":"\u0410\u043d\u0434\u043e\u0440\u0440\u0430","name:lfn":"Andora","name:lg":"Andora","name:li":"Andorra","name:lij":"Andora","name:lld":"Andora","name:lmo":"Andora","name:ln":"Andora","name:lo":"\u0ead\u0eb1\u0e87\u0e94\u0ead\u0e81","name:lrc":"\u0622\u0646\u062f\u0648\u0631\u0627","name:lt":"Andora","name:ltg":"Andora","name:lv":"Andora","name:lzh":"\u5b89\u9053\u723e","name:mai":"\u0905\u0902\u0921\u094b\u0930\u093e","name:map-bms":"Andorra","name:mdf":"\u0410\u043d\u0434\u043e\u0440\u0430","name:mg":"Andora","name:mhr":"\u0410\u043d\u0434\u043e\u0440\u0440\u043e","name:mi":"Andorra","name:min":"Andorra","name:mk":"\u0410\u043d\u0434\u043e\u0440\u0430","name:ml":"\u0d05\u0d7b\u0d21\u0d4b\u0d31","name:mn":"\u0410\u043d\u0434\u043e\u0440\u0440\u0430","name:mr":"\u0906\u0902\u0926\u094b\u0930\u093e","name:mrj":"\u0410\u043d\u0434\u043e\u0440\u0440\u0430","name:ms":"Andorra","name:mt":"Andorra","name:mwl":"Andorra","name:my":"\u1021\u1004\u103a\u1012\u102d\u102f\u101b\u102c\u1014\u102d\u102f\u1004\u103a\u1004\u1036","name:myv":"\u0410\u043d\u0434\u043e\u0440\u0440\u0430","name:mzn":"\u0622\u0646\u062f\u0648\u0631\u0627","name:na":"Andorra","name:nah":"Andorra","name:nan":"Andorra","name:nap":"Andorra","name:nds":"Andorra","name:nds-nl":"Andorra","name:ne":"\u090f\u0923\u094d\u0921\u094b\u0930\u093e","name:new":"\u090f\u0923\u094d\u0921\u094b\u0930\u093e","name:nl":"Andorra","name:nn":"Andorra","name:no":"Andorra","name:nov":"Andora","name:nrm":"Aundorre","name:nso":"Andorra","name:nv":"And\u00f3wa","name:oc":"And\u00f2rra","name:olo":"Andorra","name:om":"Andooraa","name:or":"\u0b06\u0b23\u0b4d\u0b21\u0b4b\u0b30\u0b3e","name:os":"\u0410\u043d\u0434\u043e\u0440\u0440\u00e6","name:pa":"\u0a05\u0a70\u0a21\u0a4b\u0a30\u0a3e","name:pag":"Andorra","name:pam":"Andorra","name:pap":"Andorra","name:pcd":"Andore","name:pdc":"Andorra","name:pi":"\u0905\u0902\u0921\u094b\u0930\u093e","name:pih":"Endora","name:pl":"Andora","name:pms":"Andorra","name:pnb":"\u0627\u0646\u062f\u0648\u0631\u06c1","name:pnt":"\u0391\u03bd\u03b4\u03cc\u03c1\u03c1\u03b1","name:ps":"\u0627\u0646\u062f\u0648\u0631\u0627","name:pt":"Andorra","name:qu":"Andurra","name:rm":"Andorra","name:rmy":"Andorra","name:rn":"Andora","name:ro":"Andorra","name:roa-rup":"Andorra","name:roa-tara":"Andorre","name:ru":"\u0410\u043d\u0434\u043e\u0440\u0440\u0430","name:rue":"\u0410\u043d\u0434\u043e\u0440\u0430","name:rw":"Andora","name:sa":"\u0905\u0923\u094d\u0921\u094b\u0930\u093e","name:sah":"\u0410\u043d\u0434\u043e\u0440\u0440\u0430","name:sc":"Andorra","name:scn":"Andorra","name:sco":"Andorrae","name:sd":"\u0627\u0646\u068a\u0648\u0631\u0627","name:se":"Andorra","name:sg":"And\u00f4ro","name:sh":"Andora","name:shn":"\u1019\u102d\u1030\u1004\u103a\u1038\u1022\u1085\u107c\u103a\u1087\u1010\u1030\u101d\u103a\u1087\u101b\u1083\u1087","name:si":"\u0d87\u0db1\u0dca\u0da9\u0ddd\u0dbb\u0dcf","name:sk":"Andorra","name:sl":"Andora","name:sm":"Andora","name:smn":"Andorra","name:sms":"Andorr","name:sn":"Andorra","name:so":"Andorra","name:sq":"Andorra","name:sr":"\u0410\u043d\u0434\u043e\u0440\u0430","name:srn":"Andorra","name:ss":"iYandola","name:stq":"Andorra","name:su":"Andorra","name:sv":"Andorra","name:sw":"Andorra","name:szl":"Andora","name:szy":"Andorra","name:ta":"\u0b85\u0ba3\u0bcd\u0b9f\u0bcb\u0bb0\u0bbe","name:te":"\u0c05\u0c02\u0c21\u0c4a\u0c30\u0c4d\u0c30\u0c3e","name:tet":"Andorra","name:tg":"\u0410\u043d\u0434\u043e\u0440\u0440\u0430","name:th":"\u0e2d\u0e31\u0e19\u0e14\u0e2d\u0e23\u0e4c\u0e23\u0e32","name:ti":"\u12a0\u1295\u12f6\u122b","name:tk":"Andorra","name:tl":"Andorra","name:to":"\u02bbEnitola","name:tok":"ma Antola","name:tpi":"Andora","name:tr":"Andorra","name:ts":"Andorra","name:tt":"\u0410\u043d\u0434\u043e\u0440\u0440\u0430","name:tum":"Andorra","name:tw":"Andorra","name:tzl":"Anduora","name:udm":"\u0410\u043d\u0434\u043e\u0301\u0440\u0440\u0430","name:ug":"\u0626\u0627\u0646\u062f\u0648\u0631\u0631\u0627","name:uk":"\u0410\u043d\u0434\u043e\u0301\u0440\u0440\u0430","name:ur":"\u0627\u0646\u0688\u0648\u0631\u0627","name:uz":"Andorra","name:vec":"Andora","name:vep":"Andorr","name:vi":"Andorra","name:vls":"Andorra","name:vo":"Landor\u00e4n","name:vro":"Andorra","name:war":"Andorra","name:wo":"Andoor","name:wuu":"\u5b89\u9053\u5c14","name:xal":"\u0410\u043d\u0434\u043e\u0440\u043c\u0443\u0434\u0438\u043d \u041d\u0443\u0442\u0433","name:xmf":"\u10d0\u10dc\u10d3\u10dd\u10e0\u10d0","name:yi":"\u05d0\u05b7\u05e0\u05d3\u05d0\u05b8\u05e8\u05e2","name:yo":"\u00c0nd\u00f3r\u00e0","name:yue":"\u5b89\u9053\u723e","name:za":"Andorra","name:zea":"Andorra","name:zh":"\u5b89\u9053\u5c14 \/ \u5b89\u9053\u723e","name:zh-Hans":"\u5b89\u9053\u5c14","name:zh-Hant":"\u5b89\u9053\u723e","name:zh_pinyin":"\u0100nd\u00e0o\u011br","name:zu":"I-Andora","official_name":"Principat d'Andorra","official_name:af":"Prinsdom van Andorra","official_name:als":"F\u00fcrstentum Andorra","official_name:am":"\u12e8\u12a0\u1295\u12f6\u122b \u130d\u12db\u1275","official_name:an":"Prencipato d'Andorra","official_name:ar":"\u0625\u0645\u0627\u0631\u0629 \u0623\u0646\u062f\u0648\u0631\u0627","official_name:arc":"\u072a\u071d\u072b\u0722\u0718\u072c\u0710 \u0715\u0710\u0722\u0715\u0718\u072a\u0710","official_name:ary":"\u0645\u062f\u064a\u0631\u064a\u0629 \u0623\u0646\u062f\u0648\u0631\u0627","official_name:arz":"\u0625\u0645\u0627\u0631\u0629 \u0623\u0646\u062f\u0648\u0631\u0627","official_name:ast":"Principat d'Andorra","official_name:awa":"\u092a\u094d\u0930\u093f\u0902\u0938\u093f\u092a\u093e\u0932\u093f\u091f\u0940 \u0911\u092b\u093c \u0905\u0902\u0921\u094b\u0930\u093e","official_name:az":"Andorra Knyazl\u0131\u011f\u0131","official_name:azb":"\u0622\u0646\u062f\u0648\u0631\u0627 \u067e\u06cc\u0631\u0646\u0633\u200c\u0644\u06cc\u06af\u06cc","official_name:ba":"\u0410\u043d\u0434\u043e\u0440\u0440\u0430 \u041a\u0435\u043d\u04d9\u0437\u043b\u0435\u0433\u0435","official_name:bar":"Fiaschtntum Andorra","official_name:bat-smg":"Andoras kon\u0117g\u0101k\u0161t\u012bst\u0117","official_name:be":"\u041a\u043d\u044f\u0301\u0441\u0442\u0432\u0430 \u0410\u043d\u0434\u043e\u0301\u0440\u0430","official_name:be-tarask":"\u041a\u043d\u044f\u0441\u0442\u0432\u0430 \u0410\u043d\u0434\u043e\u0440\u0430","official_name:bg":"\u041a\u043d\u044f\u0436\u0435\u0441\u0442\u0432\u043e \u0410\u043d\u0434\u043e\u0440\u0430","official_name:bn":"\u0985\u09cd\u09af\u09be\u09a8\u09cd\u09a1\u09cb\u09b0\u09be \u09b0\u09be\u099c\u09cd\u09af","official_name:bpy":"\u09a8\u09c8\u09a4\u09bf\u0995 \u098f\u09a8\u09cd\u09a1\u09cb\u09b0\u09be","official_name:br":"Pri\u00f1selezh Andorra","official_name:bs":"Kne\u017eevina Andora","official_name:bxr":"\u0410\u043d\u0434\u043e\u0440\u0440\u044b\u043d \u0413\u04af\u043d\u0442\u044d \u0423\u043b\u0430\u0441","official_name:ca":"Principat d'Andorra","official_name:cdo":"Andorra G\u016dng-gu\u00f3k","official_name:ce":"\u041c\u0430\u043d\u0430\u0440\u0445\u0438 \u0410\u043d\u0434\u043e\u0440\u0440\u0430","official_name:chr":"\u13c4\u13ac\u13eb\u13f3\u13d2\u13a2 \u13be\u13bf \u13a0\u13c2\u13d9\u13b3","official_name:ckb":"\u0645\u06cc\u0631\u0646\u0634\u06cc\u0646\u06cc \u0626\u06d5\u0646\u062f\u06c6\u0631\u0627","official_name:co":"Principatu d'Andorra","official_name:crh":"Andorra Prinsligi","official_name:cs":"Andorrsk\u00e9 kn\u00ed\u017eectv\u00ed","official_name:cu":"\u041a\u044a\u043d\u0467\u0301\u0436\u044c\u0441\u0442\u0432\u043e \u0410\u043d\u0434\u043e\u0301\u0440\u0430","official_name:cv":"\u0410\u043d\u0434\u043e\u0440\u0440\u0430 \u043a\u043d\u044f\u0436\u0435\u0441\u0442\u0432\u0438","official_name:cy":"Tywysogaeth Andorra","official_name:da":"Fyrstend\u00f8mmet Andorra","official_name:de":"F\u00fcrstentum Andorra","official_name:dsb":"Wjerchojstwo Andorry","official_name:el":"\u03a0\u03c1\u03b9\u03b3\u03ba\u03b7\u03c0\u03ac\u03c4\u03bf \u03c4\u03b7\u03c2 \u0391\u03bd\u03b4\u03cc\u03c1\u03c1\u03b1\u03c2","official_name:eml":"Princip\u00e4 d'And\u00f2ra","official_name:en":"Principality of Andorra","official_name:eo":"Andora Princlando","official_name:es":"Principado de Andorra","official_name:et":"Andorra V\u00fcrstiriik","official_name:eu":"Andorrako Printzerria","official_name:ext":"Prencipau d'Andorra","official_name:fa":"\u0634\u0627\u0647\u0632\u0627\u062f\u0647\u200c\u0646\u0634\u06cc\u0646 \u0622\u0646\u062f\u0648\u0631\u0631\u0627","official_name:fi":"Andorran ruhtinaskunta","official_name:fo":"Prinsad\u00f8mi\u00f0 Andorra","official_name:fr":"Principaut\u00e9 d'Andorre","official_name:frp":"Princip\u00f4t\u00e2t d\u2019Andorra","official_name:frr":"F\u00f6\u00f6rstendoom faan Andora","official_name:fur":"Princip\u00e2t di Andorra","official_name:ga":"Phrionsacht And\u00f3ra","official_name:gcr":"Prensipot\u00e9 d'Andorre","official_name:gd":"Prionnsalachd Andorra","official_name:gl":"Principado de Andorra","official_name:gn":"Tet\u00e3 Andorra","official_name:got":"\ud800\udf40\ud800\udf42\ud800\udf39\ud800\udf3d\ud800\udf43\ud800\udf39\ud800\udf40\ud800\udf30\ud800\udf44 \ud800\udf33 \ud800\udf30\ud800\udf3d\ud800\udf33\ud800\udf49\ud800\udf42\ud800\udf42\ud800\udf30\ud800\udf30","official_name:gu":"\u0aaa\u0acd\u0ab0\u0abf\u0aa8\u0acd\u0ab8\u0abf\u0aaa\u0abe\u0ab2\u0abf\u0a9f\u0ac0 \u0a93\u0aab \u0a8f\u0aa8\u0acd\u0aa1\u0acb\u0ab0\u0abe","official_name:gv":"Prinsaght Andorra","official_name:hak":"Andorra K\u00fbng-koet","official_name:he":"\u05e0\u05b0\u05e1\u05b4\u05d9\u05db\u05d5\u05bc\u05ea \u05d0\u05b7\u05e0\u05b0\u05d3\u05bc\u05d5\u05b9\u05e8\u05b8\u05d4","official_name:hi":"\u092a\u094d\u0930\u093f\u0902\u0938\u093f\u092a\u093e\u0932\u093f\u091f\u0940 \u0911\u092b\u093c \u0905\u0902\u0921\u094b\u0930\u093e","official_name:hr":"Kne\u017eevina Andora","official_name:hsb":"Wjerchowstwo Andorra","official_name:hu":"Andorrai Hercegs\u00e9g","official_name:ia":"Principato de Andorra","official_name:id":"Kepangeranan Andorra","official_name:ilo":"Principalidad ti Andorra","official_name:io":"princio di Andora","official_name:is":"Furstad\u00e6mi\u00f0 Andorra","official_name:it":"Principato di Andorra","official_name:ja":"\u30a2\u30f3\u30c9\u30e9\u516c\u56fd","official_name:jam":"Prinspaliti a Anduora","official_name:ka":"\u10d0\u10dc\u10d3\u10dd\u10e0\u10d8\u10e1 \u10e1\u10d0\u10db\u10d7\u10d0\u10d5\u10e0\u10dd","official_name:kab":"Tagelunt n Andorra","official_name:kk":"\u0410\u043d\u0434\u043e\u0440\u0440\u0430 \u043a\u043d\u044f\u0437\u0434\u0456\u0433\u0456","official_name:km":"\u1780\u17d2\u179f\u178f\u17d2\u179a\u1794\u17d2\u179a\u1791\u17c1\u179f\u17a2\u1784\u17cb\u178a\u17bc\u179a\u17c9\u17b6","official_name:kn":"\u0caa\u0ccd\u0cb0\u0cbf\u0ca8\u0ccd\u0cb8\u0cbf\u0caa\u0cbe\u0c9f\u0ccd \u0ca6\u0ccd'\u0c85\u0c82\u0ca1\u0ccb\u0cb0","official_name:ko":"\uc548\ub3c4\ub77c \uacf5\uad6d","official_name:koi":"\u041f\u0440\u0438\u043d\u0446\u0438\u043f\u0430\u0442 \u0410\u043d\u0434\u043e\u0440\u0440\u0430","official_name:krc":"\u0410\u043d\u0434\u043e\u0440\u0440\u0430 \u0411\u0438\u0439\u043b\u0438\u043a","official_name:ksh":"F\u00f6rstedom Andorra","official_name:ku":"M\u00eeritiya Andorray\u00ea","official_name:kv":"\u0410\u043d\u0434\u043e\u0440\u0440\u0430 \u04e7\u043a\u0441\u044b\u0443\u0432","official_name:kw":"Prynseth Andorra","official_name:ky":"\u0410\u043d\u0434\u043e\u0440\u0440\u0430 \u041a\u043d\u044f\u0437\u0434\u044b\u0433\u044b","official_name:la":"Principatus Andorrae","official_name:lad":"Prinsipado de Andorra","official_name:lb":"F\u00fcrstentum Andorra","official_name:lfn":"Prinsia de Andora","official_name:li":"Prinsdom Andorra","official_name:lij":"Prin\u00e7ipato de Andora","official_name:lmo":"Principaa d'Andora","official_name:ln":"Mani ya Andora","official_name:lo":"\u0ea5\u0eb2\u0e8a\u0eb0\u0ea5\u0eb1\u0e94\u0ead\u0eb1\u0e87\u0e94\u0ead\u0e81","official_name:lrc":"\u06a4\u0644\u0627\u062a \u0622\u0646\u062f\u0648\u0631\u0627","official_name:lt":"Andoros Kunigaik\u0161tyst\u0117","official_name:lv":"Andoras Firstiste","official_name:lzh":"\u5b89\u9053\u723e\u89aa\u738b\u570b","official_name:min":"Kapangeranan Andorra","official_name:mk":"\u041a\u043d\u0435\u0436\u0435\u0441\u0442\u0432\u043e \u0410\u043d\u0434\u043e\u0440\u0430","official_name:ml":"\u0d2a\u0d4d\u0d30\u0d3f\u0d7b\u0d38\u0d3f\u0d2a\u0d4d\u0d2a\u0d3e\u0d32\u0d3f\u0d31\u0d4d\u0d31\u0d3f \u0d13\u0d2b\u0d4d \u0d05\u0d7b\u0d21\u0d4b\u0d31","official_name:mn":"\u0410\u043d\u0434\u043e\u0440\u0440\u044b\u043d \u0413\u04af\u043d\u0442 \u0423\u043b\u0441","official_name:mr":"\u0906\u0902\u0926\u094b\u0930\u093e\u091a\u0947 \u0930\u093e\u091c\u094d\u092f","official_name:ms":"Prinsipaliti Andorra","official_name:mt":"Prin\u010bipalit\u00e0 tal-Andorra","official_name:mwl":"prencipado de Andorra","official_name:my":"\u1021\u1004\u103a\u1012\u102d\u102f\u101b\u102c\u1010\u1031\u102c\u1004\u103a\u1000\u103c\u102c\u1038\u1019\u1004\u103a\u1038\u101e\u102c\u1038\u1014\u102d\u102f\u1004\u103a\u1004\u1036","official_name:myv":"\u0410\u043d\u0434\u043e\u0440\u0440\u0430 \u041c\u0430\u0441\u0442\u043e\u0440","official_name:nan":"Andorra Kong-kok","official_name:nap":"Principato 'e Andorra","official_name:nds":"F\u00fcrstendom Andorra","official_name:nds-nl":"Vorstendom Andorra","official_name:new":"\u090f\u0923\u094d\u0921\u094b\u0930\u093e\u092f\u093e \u092a\u094d\u0930\u093f\u0928\u094d\u0938\u093f\u092a\u094d\u092f\u093e\u0932\u093f\u091f\u0940","official_name:nl":"Vorstendom Andorra","official_name:nn":"Fyrsted\u00f8met Andorra","official_name:no":"Fyrsted\u00f8mmet Andorra","official_name:nov":"el Consell de les Valls d'Andorra","official_name:oc":"Principat d'And\u00f2rra","official_name:olo":"Andorran Ruhtinaskundu","official_name:pa":"\u0a05\u0a70\u0a21\u0a4b\u0a30\u0a3e \u0a26\u0a40 \u0a30\u0a3f\u0a06\u0a38\u0a24","official_name:pam":"Principalidad ning Andorra","official_name:pcd":"Principaut\u00e9 d\u2019Andore","official_name:pl":"Ksi\u0119stwo Andory","official_name:pms":"Prinsip\u00e0 d'Andorra","official_name:pnt":"\u03a0\u03c1\u03b9\u03b3\u03ba\u03b7\u03c0\u03ac\u03c4\u03bf \u03c4\u03b7 \u0391\u03bd\u03b4\u03cc\u03c1\u03c1\u03b1\u03c2","official_name:ps":"\u062d\u0627\u06a9\u0645 \u0622\u0646\u062f\u0648\u0631\u0627 \u0634\u0647\u0632\u0627\u062f\u0647","official_name:pt":"Principado de Andorra","official_name:qu":"Andurra Awki Suyu","official_name:rm":"Principadi da l\u2019Andorra","official_name:ro":"Principatul Andorrei","official_name:roa-rup":"Printsipatlu Andorra","official_name:roa-tara":"Prengep\u00e1te d'Andorre","official_name:ru":"\u041a\u043d\u044f\u0436\u0435\u0441\u0442\u0432\u043e \u0410\u043d\u0434\u043e\u0440\u0440\u0430","official_name:rue":"\u041a\u043d\u044f\u0437\u0457\u0432\u0441\u0442\u0432\u043e \u0410\u043d\u0434\u043e\u0440\u0430","official_name:sah":"\u0410\u043d\u0434\u043e\u0440\u0440\u0430 \u041a\u0438\u043d\u044d\u044dh\u0438\u043b\u0438\u0433\u044d","official_name:scn":"Principatu di Andorra","official_name:sco":"Preencipality o Andorrae","official_name:sd":"\u067e\u0631\u0646\u0633\u067e\u0644\u067d\u064a \u0622\u0641 \u0627\u064a\u0646\u068a\u0648\u0631\u0627","official_name:se":"Andorra prinsip\u00e1hta","official_name:sg":"Limondo t\u00ee And\u00f4ro","official_name:sh":"Principat Andora","official_name:shn":"\u1019\u102d\u1030\u1004\u103a\u1038\u1078\u101d\u103a\u1088\u1078\u1062\u1086\u1038\u1075\u1084\u1088\u101c\u103d\u1086 \u1022\u1085\u107c\u103a\u1087\u1010\u1030\u101d\u103a\u1087\u101b\u1083\u1087","official_name:sk":"Andorrsk\u00e9 knie\u017eatstvo","official_name:sl":"Principat Andore","official_name:smn":"Andorra furst\u00e2kodde","official_name:so":"Dowlada Andorra","official_name:sq":"Principata e Andorr\u00ebs","official_name:sr":"\u041a\u043d\u0435\u0436\u0435\u0432\u0438\u043d\u0430 \u0410\u043d\u0434\u043e\u0440\u0430","official_name:srn":"Andorrakondre","official_name:su":"Kapang\u00e9ranan Andorra","official_name:sv":"Furstend\u00f6met Andorra","official_name:sw":"Utemi wa Andorra","official_name:szl":"K\u015bynstwo Andory","official_name:ta":"\u0b85\u0ba8\u0bcd\u0ba4\u0bcb\u0bb0\u0bbe \u0baa\u0bbf\u0bb0\u0bbf\u0ba9\u0bcd\u0b9a\u0bbf\u0baa\u0bbe\u0bb2\u0bbf\u0b9f\u0bbf","official_name:te":"\u0c2a\u0c4d\u0c30\u0c3f\u0c28\u0c4d\u0c38\u0c3f\u0c2a\u0c3e\u0c32\u0c3f\u0c1f\u0c40 \u0c06\u0c2b\u0c4d \u0c05\u0c02\u0c21\u0c4a\u0c30\u0c4d\u0c30\u0c3e","official_name:tg":"\u13c4\u13ac\u13eb\u13f3\u13d2\u13a2 \u13be\u13bf \u13a0\u13c2\u13d9\u13b3","official_name:th":"\u0e23\u0e32\u0e0a\u0e23\u0e31\u0e10\u0e2d\u0e31\u0e19\u0e14\u0e2d\u0e23\u0e4c\u0e23\u0e32","official_name:tk":"Andorra kn\u00fdazlygy","official_name:tl":"Prinsipalya ng Andora","official_name:tr":"Andorra Prensli\u011fi","official_name:tt":"\u0410\u043d\u0434\u043e\u0440\u0440\u0430 \u043a\u0435\u043d\u04d9\u0437\u043b\u0435\u0433\u0435","official_name:udm":"\u041a\u043d\u044f\u0436\u0435\u0441\u0442\u0432\u043e \u0410\u043d\u0434\u043e\u0301\u0440\u0440\u0430","official_name:ug":"\u0626\u0627\u0646\u062f\u0648\u0631\u0631\u0627 \u0643\u06d0\u0646\u06d5\u0632\u0644\u0649\u0643\u0649","official_name:uk":"\u041a\u043d\u044f\u0437\u0456\u0432\u0441\u0442\u0432\u043e \u0410\u043d\u0434\u043e\u0440\u0440\u0430","official_name:ur":"\u0627\u0645\u0627\u0631\u0627\u062a\u0650 \u0627\u0646\u0688\u0648\u0631\u0627","official_name:uz":"Andorra Qirolligi","official_name:vec":"Principato de Andora","official_name:vep":"Andorran Ruhtinazkund","official_name:vi":"Th\u00e2n v\u01b0\u01a1ng qu\u1ed1c Andorra","official_name:vls":"Prinsdom Andorra","official_name:vro":"Andorra V\u00fcrstiriik","official_name:war":"Prinsipado han Andorra","official_name:wo":"Pirinsip\u00f3ote bu Andoor","official_name:wuu":"\u5b89\u9053\u5c14\u516c\u56fd","official_name:yi":"\u05d3\u05d9 \u05e4\u05e8\u05d9\u05e0\u05e6\u05d9\u05e4\u05d0\u05b7\u05dc\u05d9\u05d8\u05e2\u05d8 \u05e4\u05d5\u05df \u05d0\u05b7\u05e0\u05d3\u05d0\u05e8\u05e2","official_name:yo":"Il\u1eb9\u0300-\u1eccm\u1ecdba Andorra","official_name:zh":"\u5b89\u9053\u5c14\u516c\u56fd \/ \u5b89\u9053\u723e\u89aa\u738b\u570b","official_name:zh-Hans":"\u5b89\u9053\u5c14\u516c\u56fd","official_name:zh-Hant":"\u5b89\u9053\u723e\u89aa\u738b\u570b","source:name:oc":"ieo-bdtopoc","timezone":"Europe\/Andorra","type":"boundary","wikidata":"Q228","wikipedia":"ca:Andorra"},"timestamp":1716078538,"representative_point":{"type":"Point","coordinates":[1.5896947472666971,42.5424339]}},"geometry":{"type":"Polygon","coordinates":[[[1.4419909,42.6037228],[1.4524043,42.4369795],[1.725891,42.5026989],[1.73608,42.6178377],[1.4419909,42.6037228]]]}}