{"type":"Feature","properties":{"tags":{"ISO3166-1":"AF","ISO3166-1:alpha2":"AF","ISO3166-1:alpha3":"AFG","ISO3166-1:numeric":"004","admin_level":"2","alt_name:af":"Afganistan","alt_name:ce":"\u041e\u0432\u0445\u04c0\u0430\u043d","alt_name:eo":"Afganujo;Afganistano","alt_name:gd":"Afghanast\u00e0n","alt_name:io":"Afgania","alt_name:it":"Afganistan","alt_name:kaa":"Aw\u01f5an\u0131stan","alt_name:la":"Afghanistania","alt_name:li":"Afganistan","alt_name:lo":"\u0ead\u0eb2\u0e9f\u0eb0\u0e81\u0eb2\u0e99\u0eb4\u0e94\u0eaa\u0eb0\u0e96\u0eb2\u0e99","alt_name:mn":"\u0410\u0444\u0433\u0430\u043d \u0443\u043b\u0441","alt_name:mzn":"\u0627\u0641\u063a\u0627\u0646\u0633\u062a\u0648\u0646","alt_name:qu":"Aphqanisuyu","alt_name:sh":"Avganistan","alt_name:so":"Afqaanistan","alt_name:te":"\u0c05\u0c2b\u0c4d\u0c18\u0c28\u0c3f\u0c38\u0c4d\u0c24\u0c3e\u0c28\u0c4d","alt_name:tt":"\u0410\u0443\u0433\u0430\u043d\u0441\u0442\u0430\u043d","alt_name:vec":"Afghanistan","alt_name:vi":"\u00c1p-ga-n\u00edt-xt\u0103ng","alt_name:war":"Afghanistan","boundary":"administrative","coat_of_arms":"File:Arms of the Islamic Emirate of Afghanistan.svg","default_language":"ps","flag":"http:\/\/upload.wikimedia.org\/wikipedia\/commons\/9\/9a\/Flag_of_Afghanistan.svg","name":"\u0627\u0641\u063a\u0627\u0646\u0633\u062a\u0627\u0646","name:UN:ar":"\u0623\u0641\u063a\u0627\u0646\u0633\u062a\u0627\u0646","name:UN:en":"Afghanistan","name:UN:es":"Afganist\u00e1n (el)","name:UN:fr":"Afghanistan (l')","name:UN:ru":"\u0410\u0444\u0433\u0430\u043d\u0438\u0441\u0442\u0430\u043d","name:UN:zh":"\u963f\u5bcc\u6c57","name:ab":"\u0410\u0444\u04f7\u0430\u043d\u0438\u0441\u04ad\u0430\u043d","name:ace":"Afghanistan","name:ady":"\u0410\u0444\u0433\u0430\u043d\u0438\u0441\u0442\u0430\u043d","name:af":"Afghanistan","name:ak":"Afganistan","name:als":"Afghanischtan","name:am":"\u12a0\u134d\u130b\u1292\u1235\u1273\u1295","name:ami":"Afghanistan","name:an":"Afganist\u00e1n","name:ang":"Afghanistan","name:anp":"\u0905\u092b\u0917\u093e\u0928\u093f\u0938\u094d\u0924\u093e\u0928","name:ar":"\u0623\u0641\u063a\u0627\u0646\u0633\u062a\u0627\u0646","name:arc":"\u0710\u0726\u0713\u0710\u0722\u0723\u071b\u0710\u0722","name:ary":"\u0623\u0641\u063a\u0627\u0646\u0633\u062a\u0627\u0646","name:arz":"\u0627\u0641\u063a\u0627\u0646\u0633\u062a\u0627\u0646","name:as":"\u0986\u09ab\u0997\u09be\u09a8\u09bf\u09b8\u09cd\u09a4\u09be\u09a8","name:ast":"Afganist\u00e1n","name:av":"\u0410\u0444\u0433\u044a\u0430\u043d\u0438\u0441\u0442\u0430\u0301\u043d","name:avk":"Afgana","name:awa":"\u0905\u092b\u0917\u093e\u0928\u093f\u0938\u094d\u0924\u093e\u0928","name:az":"\u018ffqan\u0131stan","name:azb":"\u0627\u0641\u063a\u0627\u0646\u06cc\u0633\u062a\u0627\u0646","name:ba":"\u0410\u0444\u0493\u0430\u043d\u0441\u0442\u0430\u043d","name:ban":"Afganistan","name:bar":"Afghanistan","name:bat-smg":"Afgan\u0117stans","name:bbc":"Apganistan","name:bcl":"Apganistan","name:be":"\u0410\u0444\u0433\u0430\u043d\u0456\u0441\u0442\u0430\u043d","name:be-tarask":"\u0410\u045e\u0433\u0430\u043d\u0456\u0441\u0442\u0430\u043d","name:bg":"\u0410\u0444\u0433\u0430\u043d\u0438\u0441\u0442\u0430\u043d","name:bh":"\u0905\u092b\u093c\u0917\u093c\u093e\u0928\u093f\u0938\u094d\u0924\u093e\u0928","name:bi":"Afganistan","name:bm":"Afiganista\u014b","name:bn":"\u0986\u09ab\u0997\u09be\u09a8\u09bf\u09b8\u09cd\u09a4\u09be\u09a8","name:bo":"\u0f68\u0f0b\u0f67\u0fa5\u0f74\u0f60\u0f74\u0f0b\u0f62\u0f92\u0f53\u0f0b\u0f66\u0f72\u0f0b\u0f50\u0f53\u0f0d","name:bpy":"\u0986\u09ab\u0997\u09be\u09a8\u09bf\u09b8\u09cd\u09a4\u09be\u09a8","name:br":"Afghanistan","name:bs":"Afganistan","name:bug":"\u1a15\u1a04\u1a01\u1a0a\u1a17\u1a14\u1a08\u1a0a","name:bxr":"\u0410\u0444\u0433\u0430\u043d\u0438\u0441\u0442\u0430\u043d","name:ca":"Afganistan","name:cbk-zam":"Afghanistan","name:cdo":"Afghanistan","name:ce":"\u0410\u0444\u0433I\u0430\u043d\u0438\u0441\u0442\u0430\u043d","name:ceb":"Apganistan","name:ch":"Afghanistan","name:chr":"\u13a0\u13eb\u13a8\u13c2\u13cd\u13d6\u13c2","name:chy":"Afghanistan","name:ckb":"\u0626\u06d5\u0641\u063a\u0627\u0646\u0633\u062a\u0627\u0646","name:co":"Afghanistan","name:crh":"Af\u011fanistan","name:cs":"Afgh\u00e1nist\u00e1n","name:csb":"Afganist\u00f3n","name:cu":"\u0410\u0444\u0433\u0430\u043d\u0438\u0441\u0442\u0430\u043d\u044a","name:cv":"\u0410\u0444\u0433\u0430\u043d\u0438\u0441\u0442\u0430\u043d","name:cy":"Affganistan","name:da":"Afghanistan","name:de":"Afghanistan","name:diq":"Ef\u011fan\u0131stan","name:dsb":"Afghanistan","name:dty":"\u0905\u092b\u0917\u093e\u0928\u093f\u0938\u094d\u0924\u093e\u0928","name:dv":"\u0787\u07a6\u078a\u07b0\u07a3\u07a7\u0782\u07a8\u0790\u07b0\u078c\u07a7\u0782\u07b0","name:dz":"\u0f68\u0f55\u0f0b\u0f42\u0f0b\u0f53\u0f72\u0f66\u0f72\u0f0b\u0f4f\u0f71\u0f53\u0f0b","name:ee":"Afghanistan nutome","name:el":"\u0391\u03c6\u03b3\u03b1\u03bd\u03b9\u03c3\u03c4\u03ac\u03bd","name:en":"Afghanistan","name:eo":"Afganio","name:es":"Afganist\u00e1n","name:et":"Afganistan","name:eu":"Afganistan","name:ext":"Afganist\u00e1n","name:fa":"\u0627\u0641\u063a\u0627\u0646\u0633\u062a\u0627\u0646","name:ff":"Afganistaan","name:fi":"Afganistan","name:fo":"Afghanistan","name:fr":"Afghanistan","name:frp":"Afganistan","name:frr":"Afghanistan","name:fur":"Afghanistan","name:fy":"Afganistan","name:ga":"An Afganast\u00e1in","name:gag":"Afganistan","name:gcr":"Afganistan","name:gd":"Afganastan","name:gl":"Afganist\u00e1n","name:glk":"\u0623\u0641\u063a\u0627\u0646\u0633\u062a\u0627\u0646","name:gn":"Ahyganit\u00e3","name:gom":"\u0905\u092b\u0917\u093e\u0923\u093f\u0938\u094d\u0924\u093e\u0928","name:gor":"Afganistan","name:got":"\ud800\udf30\ud800\udf46\ud800\udf32\ud800\udf30\ud800\udf3d\ud800\udf39\ud800\udf43\ud800\udf44\ud800\udf30\ud800\udf3d","name:grc":"\u0392\u03b1\u03ba\u03c4\u03c1\u03af\u03b1","name:gu":"\u0a85\u0aab\u0a98\u0abe\u0aa8\u0abf\u0ab8\u0acd\u0aa4\u0abe\u0aa8","name:gv":"Yn Afghanistaan","name:ha":"Afghanistan","name:hak":"\u00c2-fu-hon","name:haw":"\u2018Apekanikana","name:he":"\u05d0\u05e4\u05d2\u05e0\u05d9\u05e1\u05d8\u05df","name:hi":"\u0905\u092b\u093c\u094d\u0917\u093e\u0928\u093f\u0938\u094d\u0924\u093e\u0928","name:hif":"Afghanistan","name:hr":"Afganistan","name:hsb":"Afghanistan","name:ht":"Afganistan","name:hu":"Afganiszt\u00e1n","name:hy":"\u0531\u0586\u0572\u0561\u0576\u057d\u057f\u0561\u0576","name:hyw":"\u0531\u0586\u0572\u0561\u0576\u056b\u057d\u057f\u0561\u0576","name:ia":"Afghanistan","name:id":"Afganistan","name:ie":"Afghanistan","name:ig":"Afghanistan","name:ilo":"Apganist\u00e1n","name:inh":"\u0410\u0444\u0433\u0430\u043d\u0438\u0441\u0442\u0430\u043d\u0435","name:io":"Afganistan","name:is":"Afganistan","name:it":"Afghanistan","name:iu":"\u140a\u1449\u1490\u14c2\u1505\u1455\u14d0","name:ja":"\u30a2\u30d5\u30ac\u30cb\u30b9\u30bf\u30f3","name:jam":"Afganistan","name:jbo":"afyganisTAN","name:jv":"Afganistan","name:ka":"\u10d0\u10d5\u10e6\u10d0\u10dc\u10d4\u10d7\u10d8","name:kaa":"Afg'anstan","name:kab":"Af\u0263anistan","name:kbd":"\u0410\u0444\u0433\u0430\u043d\u0438\u0441\u0442\u044d\u043d","name:kbp":"Afganistani","name:kcg":"A\u0331fganistan","name:kg":"Afghanistan","name:ki":"Afghanistan","name:kk":"\u0410\u0443\u0493\u0430\u043d\u0441\u0442\u0430\u043d","name:kk-Arab":"\u0627\u06cb\u0639\u0627\u0646\u0633\u062a\u0627\u0646","name:kl":"Afghanistan","name:km":"\u179f\u17b6\u1792\u17b6\u179a\u178e\u179a\u178a\u17d2\u178b\u17a5\u179f\u17d2\u179b\u17b6\u1798\u17a2\u17b6\u17a0\u17d2\u179c\u17a0\u17d2\u1780\u17b6\u1793\u17b8\u179f\u17d2\u1790\u17b6\u1793","name:kn":"\u0c85\u0cab\u0ccd\u0c98\u0cbe\u0ca8\u0cbf\u0cb8\u0ccd\u0ca4\u0cbe\u0ca8","name:ko":"\uc544\ud504\uac00\ub2c8\uc2a4\ud0c4","name:krc":"\u0410\u0444\u0433\u0430\u043d\u0438\u0441\u0442\u0430\u043d","name:ks":"\u0627\u064e\u0641\u063a\u0627\u0646\u064e\u0633\u062a\u0627\u0646","name:ksh":"Afghanistan","name:ku":"Afxanistan","name:kv":"\u0410\u0444\u0433\u0430\u043d\u0438\u0441\u0442\u0430\u043d","name:kw":"Afghanistan","name:ky":"\u041e\u043e\u0433\u0430\u043d\u0441\u0442\u0430\u043d","name:la":"Afgania","name:lad":"Afganistan","name:lb":"Afghanistan","name:lez":"\u0410\u0444\u0433\u0430\u043d\u0438\u0441\u0442\u0430\u043d","name:lfn":"Afganistan","name:lg":"Afaganisitani","name:li":"Afghanistan","name:lij":"Afghanistan","name:lld":"Afghanistan","name:lmo":"Afghanistan","name:ln":"Afganist\u00e1ni","name:lo":"\u0ead\u0eb1\u0e9a\u0e81\u0eb2\u0e99\u0eb4\u0eaa\u0eb0\u0e96\u0eb2\u0e99","name:lrc":"\u0623\u0641\u063a\u0627\u0646\u0633\u062a\u0627\u0646","name:lt":"Afganistanas","name:lv":"Afganist\u0101na","name:lzh":"\u963f\u5bcc\u6c57","name:mad":"Afghanistan","name:mai":"\u0905\u092b\u0917\u093e\u0928\u093f\u0938\u094d\u0924\u093e\u0928","name:map-bms":"Afganistan","name:mdf":"\u0410\u0444\u0433\u0430\u043d\u0438\u0441\u0442\u0430\u043d","name:mg":"Afganistana","name:mhr":"\u0410\u0444\u0433\u0430\u043d\u0438\u0441\u0442\u0430\u043d","name:mi":"\u0100whekenet\u0101na","name:min":"Afganistan","name:mk":"\u0410\u0432\u0433\u0430\u043d\u0438\u0441\u0442\u0430\u043d","name:ml":"\u0d05\u0d2b\u0d4d\u0d17\u0d3e\u0d28\u0d3f\u0d38\u0d4d\u0d24\u0d3e\u0d7b","name:mn":"\u0410\u0444\u0433\u0430\u043d\u0438\u0441\u0442\u0430\u043d","name:mni":"\uabd1\uabd0\uabd2\uabe5\uabc5\uabe4\uabc1\uabed\uabc7\uabe5\uabdf","name:mo":"\u0410\u0444\u0433\u0430\u043d\u0438\u0441\u0442\u0430\u043d","name:mr":"\u0905\u092b\u0917\u093e\u0923\u093f\u0938\u094d\u0924\u093e\u0928","name:ms":"Afghanistan","name:mt":"Afganistan","name:mwl":"Afeganistan","name:my":"\u1021\u102c\u1016\u1002\u1014\u103a\u1014\u1005\u1039\u1005\u1010\u1014\u103a\u1014\u102d\u102f\u1004\u103a\u1004\u1036","name:myv":"\u0410\u0444\u0433\u0430\u043d\u0438\u0441\u0442\u0430\u043d \u041c\u0430\u0441\u0442\u043e\u0440","name:mzn":"\u0627\u0641\u063a\u0627\u0646\u0633\u062a\u0627\u0646","name:na":"Apeganitan","name:nah":"Afganistan","name:nan":"Afghanistan","name:nap":"Afghanistan","name:nds":"Afghanistan","name:nds-nl":"Afghanistan","name:ne":"\u0905\u092b\u0917\u093e\u0928\u093f\u0938\u094d\u0924\u093e\u0928","name:new":"\u0905\u092b\u0917\u093e\u0928\u093f\u0938\u094d\u0924\u093e\u0928","name:nl":"Afghanistan","name:nn":"Afghanistan","name:no":"Afghanistan","name:nov":"Afganistan","name:oc":"Afganistan","name:olo":"Afganistuanu","name:om":"Afgaanistaan","name:or":"\u0b06\u0b2b\u0b17\u0b3e\u0b28\u0b3f\u0b38\u0b4d\u0b24\u0b3e\u0b28","name:os":"\u0410\u0444\u0433\u044a\u0430\u043d\u0438\u0441\u0442\u0430\u043d","name:ota":"\u0627\u0641\u063a\u0627\u0646\u0633\u062a\u0627\u0646","name:pa":"\u0a05\u0a2b\u0a3c\u0a17\u0a3c\u0a3e\u0a28\u0a3f\u0a38\u0a24\u0a3e\u0a28","name:pag":"Afghanistan","name:pam":"Afganistan","name:pap":"Afganist\u00e1n","name:pcd":"Afghanistan","name:pdc":"Afganischtaan","name:pi":"\u0905\u092b\u0917\u093e\u0928\u0938\u094d\u0925\u093e\u0928","name:pih":"Afganistaan","name:pl":"Afganistan","name:pms":"Afg\u00e0nistan","name:pnb":"\u0627\u0641\u063a\u0627\u0646\u0633\u062a\u0627\u0646","name:ps":"\u0627\u0641\u063a\u0627\u0646\u0633\u062a\u0627\u0646","name:pt":"Afeganist\u00e3o","name:qu":"Afgansuyu","name:rm":"Afganistan","name:rn":"Afuganisitani","name:ro":"Afganistan","name:roa-rup":"Afganistan","name:roa-tara":"Afghanistan","name:ru":"\u0410\u0444\u0433\u0430\u043d\u0438\u0441\u0442\u0430\u043d","name:rue":"\u0410\u0444\u0491\u0430\u043d\u0456\u0441\u0442\u0430\u043d","name:rw":"Afuganisitani","name:sa":"\u0905\u092b\u0917\u093e\u0928\u0938\u094d\u0925\u093e\u0928","name:sah":"\u0410\u0444\u0433\u0430\u043d\u0438\u0441\u0442\u0430\u0430\u043d","name:sat":"\u1c5f\u1c6f\u1c77\u1c5c\u1c5f\u1c71\u1c64\u1c65\u1c5b\u1c5f\u1c71","name:sc":"Afganist\u00e0n","name:scn":"Afganist\u00e0n","name:sco":"Afghanistan","name:sd":"\u0627\u0641\u063a\u0627\u0646\u0633\u062a\u0627\u0646","name:se":"Afganist\u00e1na","name:sg":"Fagan\u00efta, Afgan\u00efst\u00e4an","name:sh":"Afganistan","name:shi":"Af\u0263anistan","name:shn":"\u1019\u102d\u1030\u1004\u103a\u1038\u1022\u1083\u1087\u107e\u1075\u1062\u107c\u103a\u1087\u107c\u102e\u1087\u101e\u1010\u1062\u107c\u103a\u1087","name:si":"\u0d87\u0dc6\u0dca\u0d9c\u0db1\u0dd2\u0dc3\u0dca\u0dae\u0dcf\u0db1\u0dba","name:sk":"Afganistan","name:skr":"\u0627\u0641\u063a\u0627\u0646\u0633\u062a\u0627\u0646","name:sl":"Afganistan","name:sm":"Afakanisitana","name:smn":"Afganistan","name:sms":"Afganistaan","name:sn":"Afghanistan","name:so":"Afgaanistan","name:sq":"Afganistani","name:sr":"\u0410\u0432\u0433\u0430\u043d\u0438\u0441\u0442\u0430\u043d","name:srn":"Afganistan","name:ss":"I-Afugani","name:stq":"Afghanistan","name:su":"Apganistan","name:sv":"Afghanistan","name:sw":"Afghanistan","name:syc":"\u0710\u0726\u0713\u0710\u0722\u0723\u071b\u0710\u0722","name:szl":"Afganist\u014dn","name:szy":"Afghanistan","name:ta":"\u0b86\u0baa\u0bcd\u0b95\u0bbe\u0ba9\u0bbf\u0ba4\u0bcd\u0ba4\u0bbe\u0ba9\u0bcd","name:tay":"Afghanistan","name:te":"\u0c06\u0c2b\u0c4d\u0c18\u0c28\u0c3f\u0c38\u0c4d\u0c24\u0c3e\u0c28\u0c4d","name:tet":"Afeganistaun","name:tg":"\u0410\u0444\u0493\u043e\u043d\u0438\u0441\u0442\u043e\u043d","name:th":"\u0e1b\u0e23\u0e30\u0e40\u0e17\u0e28\u0e2d\u0e31\u0e1f\u0e01\u0e32\u0e19\u0e34\u0e2a\u0e16\u0e32\u0e19","name:ti":"\u12a0\u134d\u130b\u1292\u1235\u1273\u1295","name:tk":"Owganystan","name:tl":"Apganistan","name:tly":"\u018ff\u01e7anistan","name:to":"\u02bbAfukanisitani","name:tok":"ma Akanisan","name:tpi":"Afghanistan","name:tr":"Afganistan","name:trv":"Afghanistan","name:ts":"Afghanistan","name:tt":"\u04d8\u0444\u0433\u0430\u043d\u0441\u0442\u0430\u043d","name:tum":"Afghanistan","name:udm":"\u0410\u0444\u0433\u0430\u043d\u0438\u0441\u0442\u0430\u043d","name:ug":"\u0626\u0627\u0641\u063a\u0627\u0646\u0649\u0633\u062a\u0627\u0646","name:uk":"\u0410\u0444\u0433\u0430\u043d\u0456\u0441\u0442\u0430\u043d","name:ur":"\u0627\u0641\u063a\u0627\u0646\u0633\u062a\u0627\u0646","name:uz":"Afg\u02bboniston","name:vec":"Afganistan","name:vep":"Afganistan","name:vi":"Afghanistan","name:vls":"Afghanistan","name:vo":"Lafganist\u00e4n","name:vro":"Afganistan","name:war":"Afganistan","name:wo":"Afganistaan","name:wuu":"\u963f\u5bcc\u6c57","name:xal":"\u0410\u043f\u0433\u0430\u043d\u043c\u0443\u0434\u0438\u043d","name:xmf":"\u10d0\u10d5\u10e6\u10d0\u10dc\u10d4\u10d7\u10d8","name:yi":"\u05d0\u05e4\u05d2\u05d0\u05e0\u05d9\u05e1\u05d8\u05d0\u05df","name:yo":"Afghan\u00edst\u00e0n","name:yue":"\u963f\u5bcc\u6c57","name:za":"Afghanistan","name:zea":"Afghanistan","name:zgh":"\u2d30\u2d3c\u2d56\u2d30\u2d4f\u2d49\u2d59\u2d5c\u2d30\u2d4f","name:zh":"\u963f\u5bcc\u6c57","name:zh-Hans":"\u963f\u5bcc\u6c57","name:zh-Hant":"\u963f\u5bcc\u6c57","name:zh-Latn-pinyin":"\u0100f\u00f9h\u00e0n","name:zu":"I-Afganistani","official_name":"\u062f \u0627\u0641\u063a\u0627\u0646\u0633\u062a\u0627\u0646 \u0627\u0633\u0644\u0627\u0645\u064a \u062c\u0645\u0647\u0648\u0631\u064a\u062a","official_name:ab":"\u0410\u0438\u0441\u043b\u0430\u043c\u0442\u04d9 \u0435\u043c\u0438\u0440\u0430\u0442 \u0410\u0444\u04f7\u0430\u043d\u0438\u0441\u04ad\u0430\u043d","official_name:ace":"Republik Islam Afghanistan","official_name:ady":"\u0418\u0441\u043b\u044a\u0430\u043c \u0420\u0435\u0441\u043f\u0443\u0431\u043b\u0438\u043a\u044d\u0443 \u0410\u0444\u0433\u0430\u043d\u0438\u0441\u0442\u0430\u043d","official_name:af":"Islamitiese Republiek van Afghanistan","official_name:als":"Islamischi Republik Afghanistan","official_name:am":"\u12a0\u134d\u130b\u1292\u1235\u1273\u1295 \u12a5\u1235\u120b\u121b\u12ca \u122a\u1350\u1265\u120a\u12ad","official_name:an":"Republica Islamica d'Afganist\u00e1n","official_name:anp":"\u0905\u092b\u0917\u093e\u0928\u093f\u0938\u094d\u0924\u093e\u0928 \u0907\u0938\u094d\u0932\u093e\u092e\u0940 \u0905\u092e\u0940\u0930\u093e\u0924","official_name:ar":"\u062c\u0645\u0647\u0648\u0631\u064a\u0629 \u0623\u0641\u063a\u0627\u0646\u0633\u062a\u0627\u0646 \u0627\u0644\u0625\u0633\u0644\u0627\u0645\u064a\u0629","official_name:arc":"\u0729\u0718\u071b\u0722\u071d\u0718\u072c\u0710 \u0710\u0723\u0720\u0710\u0721\u071d\u072c\u0710 \u0715\u0710\u0726\u0713\u0710\u0722\u0723\u071b\u0710\u0722","official_name:arz":"\u062c\u0645\u0647\u0648\u0631\u064a\u0629 \u0627\u0641\u063a\u0627\u0646\u064a\u0633\u062a\u0627\u0646 \u0627\u0644\u0627\u0633\u0644\u0627\u0645\u064a\u0647","official_name:as":"\u0987\u099b\u09b2\u09be\u09ae\u09c0 \u09aa\u09cd\u09f0\u099c\u09be\u09a4\u09a8\u09cd\u09a4\u09cd\u09f0\u09c0 \u0986\u09ab\u0997\u09be\u09a8\u09bf\u09b8\u09cd\u09a4\u09be\u09a8","official_name:ast":"Est\u00e1u Isl\u00e1micu del Afganist\u00e1n","official_name:av":"\u0410\u0444\u0433\u044a\u0430\u043d\u0438\u0441\u0442\u0430\u043d\u0430\u043b\u044a\u0443\u043b \u0418\u0441\u043b\u0430\u043c\u0438\u044f\u0431 \u0418\u043c\u0430\u0440\u0430\u0442","official_name:awa":"\u0905\u092b\u093c\u094d\u0917\u093c\u093e\u0928\u093f\u0938\u094d\u0924\u093e\u0928 \u0907\u0938\u094d\u0932\u093e\u092e\u0940 \u0917\u0923\u0930\u093e\u091c\u094d\u092f","official_name:az":"\u018ffqan\u0131stan \u0130slam Respublikas\u0131","official_name:azb":"\u0627\u0641\u063a\u0627\u0646\u06cc\u0633\u062a\u0627\u0646 \u0627\u06cc\u0633\u0644\u0627\u0645 \u062c\u0648\u0645\u0647\u0648\u0631\u06cc\u062a\u06cc","official_name:ba":"\u0410\u0444\u0493\u0430\u043d\u0441\u0442\u0430\u043d \u0418\u0441\u043b\u0430\u043c \u0420\u0435\u0441\u043f\u0443\u0431\u043b\u0438\u043a\u0430\u04bb\u044b","official_name:ban":"R\u00e9publik Islam Afganistan","official_name:bar":"Islamische Republik Afghanistan","official_name:bat-smg":"Afgan\u0117stana \u0116slam\u0101 Respublika","official_name:bbc":"Emirat Silom Apghanistan","official_name:bcl":"Islamikong Republika kan Apganistan","official_name:be":"\u0406\u0441\u043b\u0430\u043c\u0441\u043a\u0430\u044f \u0420\u044d\u0441\u043f\u0443\u0431\u043b\u0456\u043a\u0430 \u0410\u0444\u0433\u0430\u043d\u0456\u0441\u0442\u0430\u043d","official_name:be-tarask":"\u0406\u0441\u043b\u0430\u0301\u043c\u0441\u043a\u0430\u044f \u0420\u044d\u0441\u043f\u0443\u0301\u0431\u043b\u0456\u043a\u0430 \u0410\u045e\u0433\u0430\u043d\u0456\u0441\u0442\u0430\u0301\u043d","official_name:bg":"\u0418\u0441\u043b\u044f\u043c\u0441\u043a\u0430 \u0440\u0435\u043f\u0443\u0431\u043b\u0438\u043a\u0430 \u0410\u0444\u0433\u0430\u043d\u0438\u0441\u0442\u0430\u043d","official_name:bh":"\u0907\u0938\u094d\u0932\u093e\u092e\u093f\u0915 \u0932\u094b\u0917\u0924\u0902\u0924\u094d\u0930 \u0905\u092b\u0917\u093e\u0928\u093f\u0938\u094d\u0924\u093e\u0928","official_name:bn":"\u0986\u09ab\u0997\u09be\u09a8\u09bf\u09b8\u09cd\u09a4\u09be\u09a8 \u0987\u09b8\u09b2\u09be\u09ae\u09c0 \u09aa\u09cd\u09b0\u099c\u09be\u09a4\u09a8\u09cd\u09a4\u09cd\u09b0","official_name:bpy":"\u0987\u09b8\u09b2\u09be\u09ae\u09bf\u0995 \u09aa\u09cd\u09b0\u099c\u09be\u09a4\u09a8\u09cd\u09a4\u09cd\u09b0\u09bf \u0986\u09ab\u0997\u09be\u09a8\u09bf\u09b8\u09cd\u09a4\u09be\u09a8","official_name:br":"Republik Islamek Afghanistan","official_name:bs":"Islamska Republika Afganistan","official_name:bxr":"\u041b\u0430\u043b\u044b\u043d \u0411\u04af\u0433\u044d\u0434\u044d \u041d\u0430\u0439\u0440\u0430\u043c\u0434\u0430\u0445\u0430 \u0410\u0444\u0433\u0430\u043d \u0423\u043b\u0430\u0441","official_name:ca":"Emirat Isl\u00e0mic de l'Afganistan","official_name:cbk-zam":"Estado Islimico del Afganistan","official_name:cdo":"Afghanistan \u012c-s\u1e73\u0306-l\u00e0ng G\u00ea\u0324\u1e73ng-hu\u00f2-gu\u00f3k","official_name:ce":"\u0418\u0441\u043b\u0430\u043c\u0430\u043d \u0420\u0435\u0441\u043f\u0443\u0431\u043b\u0438\u043a\u0430 \u041e\u0432\u0445\u04c0\u0430\u043d","official_name:ceb":"Islamikong Republika sa Apganistan","official_name:chr":"\u13a2\u13cd\u13b3\u13bb\u13a9 \u13cd\u13a6\u13da\u13a9 \u13be\u13bf \u13a0\u13eb\u13a8\u13c2\u13cd\u13d6\u13c2","official_name:chy":"Islamic Republic of Afghanistan","official_name:ckb":"\u06a9\u06c6\u0645\u0627\u0631\u06cc \u0626\u06cc\u0633\u0644\u0627\u0645\u06cc\u06cc \u0626\u06d5\u0641\u063a\u0627\u0646\u0633\u062a\u0627\u0646","official_name:crh":"Af\u011fanistan \u0130sl\u00e2m Cumhuriyeti","official_name:cs":"Afgh\u00e1nsk\u00e1 isl\u00e1msk\u00e1 republika","official_name:cv":"\u0418\u0441\u043b\u0430\u043c \u043f\u0430\u0442\u0448\u0430\u043b\u0103\u0445\u0115 \u0410\u0444\u0433\u0430\u043d\u0438\u0441\u0442\u0430\u043d","official_name:cy":"Gweriniaeth Islamaidd Affganistan","official_name:da":"Islamiske Republik Afghanistan","official_name:de":"Islamische Republik Afghanistan","official_name:diq":"Cumhuriyet\u00ea Ef\u011fan\u0131stano \u0130slami","official_name:dsb":"Islamska republika Afghanistan","official_name:dty":"\u0907\u0938\u094d\u0932\u093e\u092e\u093f\u0915 \u0917\u0923\u0924\u0928\u094d\u0924\u094d\u0930 \u0905\u092b\u0917\u093e\u0928\u093f\u0938\u094d\u0924\u093e\u0928","official_name:dv":"\u0787\u07a8\u0790\u07b0\u078d\u07a7\u0789\u07a8\u0786\u07b0 \u0783\u07a8\u0795\u07a6\u0784\u07b0\u078d\u07a8\u0786\u07b0 \u0787\u07ae\u078a\u07b0 \u0787\u07a6\u078a\u07b0\u07a3\u07a7\u0782\u07a8\u0790\u07b0\u078c\u07a7\u0782\u07b0","official_name:el":"\u0399\u03c3\u03bb\u03b1\u03bc\u03b9\u03ba\u03ae \u0394\u03b7\u03bc\u03bf\u03ba\u03c1\u03b1\u03c4\u03af\u03b1 \u03c4\u03bf\u03c5 \u0391\u03c6\u03b3\u03b1\u03bd\u03b9\u03c3\u03c4\u03ac\u03bd","official_name:en":"Islamic Republic of Afghanistan","official_name:eo":"Islama Respubliko Afganio","official_name:es":"Rep\u00fablica Isl\u00e1mica de Afganist\u00e1n","official_name:et":"Afganistani Islamivabariik","official_name:eu":"Afganistango Estatu Islamiarra","official_name:ext":"Rep\u00fabrica Isl\u00e1mica d'Afganist\u00e1n","official_name:fa":"\u062c\u0645\u0647\u0648\u0631\u06cc \u0627\u0633\u0644\u0627\u0645\u06cc \u0627\u0641\u063a\u0627\u0646\u0633\u062a\u0627\u0646","official_name:ff":"Dawlaaji Jul\u0253e \u0257un Afganistan","official_name:fi":"Afganistanin islamilainen tasavalta","official_name:fo":"Ta\u00f0 Islamska L\u00fd\u00f0veldi\u00f0 Afghanistan","official_name:fr":"R\u00e9publique islamique d'Afghanistan","official_name:frp":"R\u00e8publica islamica d\u2019Afganistan","official_name:frr":"Islamisk Republik faan Afghanistan","official_name:fy":"Islamityske Republyk Afganistan","official_name:ga":"Poblacht Ioslamach na Afganast\u00e1in","official_name:gag":"\u0130slam Respublikas\u0131 Afganistan","official_name:gcr":"R\u00e9piblik islamik d'Afganistan","official_name:gd":"Poblachd Ioslamach Afghanast\u00e0n","official_name:gl":"Rep\u00fablica Isl\u00e1mica de Afganist\u00e1n","official_name:gn":"Tet\u00e3 Isl\u00e3rehegua Ahyganit\u00e3","official_name:gor":"Republik Islam Afganistan","official_name:gu":"\u0a87\u0ab8\u0acd\u0ab2\u0abe\u0aae\u0abf\u0a95 \u0ab0\u0abf\u0aaa\u0aac\u0acd\u0ab2\u0abf\u0a95 \u0a93\u0aab \u0a85\u0aab\u0a98\u0abe\u0aa8\u0abf\u0ab8\u0acd\u0aa4\u0abe\u0aa8","official_name:gv":"Pobblaght Islamagh ny h-Afghanistaan","official_name:hak":"Afghanistan Y\u00ee-s\u1e73\u0302-l\u00e0n Khiung-f\u00f2-koet","official_name:he":"\u05d4\u05e8\u05e4\u05d5\u05d1\u05dc\u05d9\u05e7\u05d4 \u05d4\u05d0\u05e1\u05dc\u05d0\u05de\u05d9\u05ea \u05e9\u05dc \u05d0\u05e4\u05d2\u05e0\u05d9\u05e1\u05d8\u05df","official_name:hi":"\u0905\u092b\u093c\u094d\u0917\u093c\u093e\u0928\u093f\u0938\u094d\u0924\u093e\u0928 \u0907\u0938\u094d\u0932\u093e\u092e\u093f\u0915 \u0917\u0923\u0930\u093e\u091c\u094d\u092f","official_name:hr":"Islamska Republika Afganistan","official_name:hsb":"Islamski stat Afghanistan","official_name:ht":"Da Afghanistan Islami Dawlat","official_name:hu":"Afganiszt\u00e1ni Iszl\u00e1m K\u00f6zt\u00e1rsas\u00e1g","official_name:hy":"\u0531\u0586\u0572\u0561\u0576\u057d\u057f\u0561\u0576\u056b \u053b\u057d\u056c\u0561\u0574\u0561\u056f\u0561\u0576 \u0540\u0561\u0576\u0580\u0561\u057a\u0565\u057f\u0578\u0582\u0569\u0575\u0578\u0582\u0576","official_name:ia":"Republica Islamic del Afghanistan","official_name:id":"Republik Islam Afganistan","official_name:ie":"Republica Islamic de Afganistan","official_name:ig":"Islamic Emirate nke Afghanistan","official_name:ilo":"Islamiko a Republibka iti Apganistan","official_name:inh":"\u0411\u0443\u0441\u0443\u043b\u0431\u0430 \u0420\u0435\u0441\u043f\u0443\u0301\u0431\u043b\u0438\u043a\u0430 \u0410\u0444\u0433\u0430\u043d\u0438\u0441\u0442\u0430\u0301\u043d\u0435","official_name:io":"Mohamedana Emirio Afganistan","official_name:is":"\u00cdslamska l\u00fd\u00f0veldi\u00f0 Afganistan","official_name:it":"Repubblica Islamica dell'Afghanistan","official_name:ja":"\u30a2\u30d5\u30ac\u30cb\u30b9\u30bf\u30f3\u30fb\u30a4\u30b9\u30e9\u30e0\u5171\u548c\u56fd","official_name:jam":"Izlamik Ripoblik a Afganistan","official_name:jbo":"afyganisTAN.zei muslo gubyseltru","official_name:jv":"\u00c8mirat Islam Afghanistan","official_name:ka":"\u10d0\u10d5\u10e6\u10d0\u10dc\u10d4\u10d7\u10d8\u10e1 \u10d8\u10e1\u10da\u10d0\u10db\u10e3\u10e0\u10d8 \u10e0\u10d4\u10e1\u10de\u10e3\u10d1\u10da\u10d8\u10d9\u10d0","official_name:kbd":"\u0410\u0444\u0433\u0430\u043d\u0438\u0441\u0442\u044d\u043d \u041c\u044b\u0441\u043b\u0438\u043c\u044d\u043d \u0420\u0435\u0441\u043f\u0443\u0431\u043b\u0438\u043a\u044d","official_name:kk":"\u0410\u0443\u0493\u0430\u043d\u0441\u0442\u0430\u043d \u0418\u0441\u043b\u0430\u043c \u0420\u0435\u0441\u043f\u0443\u0431\u043b\u0438\u043a\u0430\u0441\u044b","official_name:km":"\u179f\u17b6\u1792\u17b6\u179a\u178e\u179a\u178a\u17d2\u178b\u17a5\u179f\u17d2\u179b\u17b6\u1798\u17a2\u17b6\u17a0\u17d2\u179c\u17a0\u17d2\u1782\u17b6\u1793\u17b8\u179f\u17d2\u1790\u17b6\u1793","official_name:kn":"\u0c85\u0cab\u0ccd\u0c98\u0cbe\u0ca8\u0cbf\u0cb8\u0ccd\u0ca4\u0cbe\u0ca8 \u0c87\u0cb8\u0ccd\u0cb2\u0cbe\u0cae\u0cc0\u0caf \u0c97\u0ca3\u0cb0\u0cbe\u0c9c\u0ccd\u0caf","official_name:ko":"\uc544\ud504\uac00\ub2c8\uc2a4\ud0c4 \uc774\uc2ac\ub78c \uacf5\ud654\uad6d","official_name:krc":"\u0410\u0444\u0433\u0430\u043d\u0438\u0441\u0442\u0430\u043d \u0418\u0441\u043b\u0430\u043c \u0420\u0435\u0441\u043f\u0443\u0431\u043b\u0438\u043a\u0430","official_name:ksh":"Islamische Republik Afghanistan","official_name:ku":"Komara \u00ceslam\u00ee ya Efxanistan\u00ea","official_name:ky":"\u0410\u0444\u0433\u0430\u043d\u0441\u0442\u0430\u043d \u0418\u0441\u043b\u0430\u043c \u04e9\u043b\u043a\u04e9\u0441\u04af","official_name:la":"Res Publica Islamica Afganiae","official_name:lad":"Emirato Islamiko de Afganistan","official_name:lb":"Islamescht Emirat Afghanistan","official_name:lez":"\u0418\u0441\u043b\u0430\u043c\u0434\u0438\u043d \u0420\u0435\u0441\u043f\u0443\u0301\u0431\u043b\u0438\u043a\u0430 \u0410\u0444\u0433\u044a\u0430\u043d\u0438\u0441\u0442\u0430\u0301\u043d","official_name:lfn":"Republica muslim de Afganistan","official_name:li":"Islamitisch Emiraat Afghanistan","official_name:lld":"Republica Islamica de l'Afghanistan","official_name:lo":"\u0eaa\u0eb2\u0e97\u0eb2\u0ea5\u0eb0\u0e99\u0eb0\u0ea5\u0eb1\u0e94\u0ead\u0eb4\u0e94\u0eaa\u0eb0\u0ea5\u0eb2\u0ea1\u0ead\u0eb1\u0e9f\u0e81\u0eb2\u0e99\u0eb4\u0eaa\u0eb0\u0e96\u0eb2\u0e99","official_name:lt":"Afganist\u00e3no Isl\u00e3mo Resp\u00f9blika","official_name:lv":"Afganist\u0101nas Isl\u0101ma Republika","official_name:lzh":"\u963f\u5bcc\u6c57\u4f0a\u65af\u862d\u5171\u548c\u570b","official_name:mad":"Keamiran Islam Afghanistan","official_name:mai":"\u0905\u092b\u0917\u093e\u0928\u093f\u0938\u094d\u0924\u093e\u0928 \u0907\u0938\u094d\u0932\u093e\u092e\u093f\u0915 \u0917\u0923\u0924\u0928\u094d\u0924\u094d\u0930","official_name:mdf":"\u0418\u0441\u043b\u0430\u043c\u043e\u043d\u044c \u0420\u0435\u0441\u043f\u0443\u0431\u043b\u0438\u043a \u0410\u0444\u0433\u0430\u043d\u0438\u0441\u0442\u0430\u043d","official_name:mg":"Repoblika islamikan' Afganistana","official_name:mhr":"\u0410\u0444\u0433\u0430\u043d\u0438\u0441\u0442\u0430\u0301\u043d \u0418\u0441\u043b\u0430\u043c \u0420\u0435\u0441\u043f\u0443\u0301\u0431\u043b\u0438\u043a","official_name:mi":"Ihirama o Repupirita o \u0100whekenet\u0101na","official_name:min":"Republik Islam Afganistan","official_name:mk":"\u0418\u0441\u043b\u0430\u043c\u0441\u043a\u0430 \u0420\u0435\u043f\u0443\u0431\u043b\u0438\u043a\u0430 \u0410\u0432\u0433\u0430\u043d\u0438\u0441\u0442\u0430\u043d","official_name:ml":"\u0d07\u0d38\u0d4d\u0d32\u0d3e\u0d2e\u0d3f\u0d15\u0d4d\u200c \u0d31\u0d3f\u0d2a\u0d2c\u0d4d\u0d32\u0d3f\u0d15\u0d4d\u200c \u0d13\u0d2b\u0d4d\u200c \u0d05\u0d2b\u0d4d\u0d17\u0d3e\u0d28\u0d3f\u0d38\u0d4d\u0d24\u0d3e\u0d7b","official_name:mn":"\u0418\u0441\u043b\u0430\u043c\u044b\u043d \u0411\u04af\u0433\u0434 \u041d\u0430\u0439\u0440\u0430\u043c\u0434\u0430\u0445 \u0410\u0444\u0433\u0430\u043d \u0423\u043b\u0441","official_name:mr":"\u0905\u092b\u0917\u093e\u0923\u093f\u0938\u094d\u0924\u093e\u0928\u091a\u0947 \u0907\u0938\u094d\u0932\u093e\u092e\u0940 \u092a\u094d\u0930\u091c\u093e\u0938\u0924\u094d\u0924\u093e\u0915","official_name:ms":"Republik Islam Afghanistan","official_name:mt":"Repubblika I\u017clamika tal-Afganistan","official_name:mwl":"Rep\u00fablica Eisl\u00e1mica de l Afeganistan","official_name:my":"\u1021\u102c\u1016\u1002\u1014\u103a\u1014\u1005\u1039\u1005\u1010\u1014\u103a \u1021\u1005\u1039\u1005\u101c\u102c\u1019\u103a \u101e\u1019\u1039\u1019\u1010\u1014\u102d\u102f\u1004\u103a\u1004\u1036","official_name:myv":"\u0418\u0441\u043b\u0430\u043c\u043e\u043d\u044c \u0420\u0435\u0441\u043f\u0443\u0431\u043b\u0438\u043a\u0430\u0441\u044c \u0410\u0444\u0433\u0430\u043d\u0438\u0441\u0442\u0430\u043d","official_name:nah":"Islantl\u0101catlahtohc\u0101y\u014dtl Afganistan","official_name:nan":"Afghanistan Islam Ki\u014dng-h\u00f4-kok","official_name:nap":"Repubbreca Islameca 'ell'Afghanistan","official_name:nds":"Islaamsche Republik Afghanistan","official_name:nds-nl":"islamietiese republiek Afghanistan","official_name:ne":"\u0907\u0938\u094d\u0932\u093e\u092e\u093f\u0915 \u0917\u0923\u0924\u0928\u094d\u0924\u094d\u0930 \u0905\u092b\u0917\u093e\u0928\u093f\u0938\u094d\u0924\u093e\u0928","official_name:new":"\u0907\u0938\u094d\u0932\u093e\u092e\u0940 \u0917\u0923\u0924\u0928\u094d\u0924\u094d\u0930 \u0905\u092b\u0917\u093e\u0928\u093f\u0938\u094d\u0924\u093e\u0928","official_name:nl":"Islamitische Republiek Afghanistan","official_name:nn":"Den islamske republikken Afghanistan","official_name:no":"Den islamske republikken Afghanistan","official_name:oc":"Republica islamica d'Afganistan","official_name:olo":"Afganistuanan islamilaine tazavaldu","official_name:or":"\u0b06\u0b2b\u0b17\u0b3e\u0b28\u0b3f\u0b38\u0b4d\u0b24\u0b3e\u0b28 \u0b07\u0b38\u0b32\u0b3e\u0b2e\u0b3f\u0b15 \u0b17\u0b23\u0b24\u0b28\u0b4d\u0b24\u0b4d\u0b30","official_name:os":"\u0410\u0444\u0433\u044a\u0430\u043d\u0438\u0441\u0442\u0430\u043d\u044b \u043f\u044b\u0441\u044b\u043b\u043c\u043e\u043d \u0440\u0435\u0441\u043f\u0443\u0431\u043b\u0438\u043a\u00e6","official_name:pa":"\u0a05\u0a2b\u0a3c\u0a17\u0a3c\u0a3e\u0a28\u0a3f\u0a38\u0a24\u0a3e\u0a28 \u0a07\u0a38\u0a32\u0a3e\u0a2e\u0a40 \u0a17\u0a23\u0a30\u0a3e\u0a1c","official_name:pam":"Islamicung Republica ning Afghanistan","official_name:pap":"Rep\u00fablica Isl\u00e1mica de Afganist\u00e1n","official_name:pl":"Islamska Republika Afganistanu","official_name:pms":"Rep\u00f9blica Isl\u00e0mica d'Afg\u00e0nistan","official_name:pnb":"\u0627\u0633\u0644\u0627\u0645\u06cc \u0644\u0648\u06a9\u0631\u0627\u062c \u0627\u0641\u063a\u0627\u0646\u0633\u062a\u0627\u0646","official_name:ps":"\u062f \u0627\u0641\u063a\u0627\u0646\u0633\u062a\u0627\u0646 \u0627\u0633\u0644\u0627\u0645\u064a \u062c\u0645\u0647\u0648\u0631\u064a\u062a","official_name:pt":"Rep\u00fablica Isl\u00e2mica do Afeganist\u00e3o","official_name:qu":"Muslim Ripuwlika Afgansuyu","official_name:rm":"Rep\u00fablica Isl\u00e1mica de Afganist\u00e1n","official_name:ro":"Republica Islamic\u0103 Afghanistan","official_name:roa-tara":"Repubbleche Islameche de ll'Afghanistan","official_name:ru":"\u0418\u0441\u043b\u0430\u0301\u043c\u0441\u043a\u0430\u044f \u0420\u0435\u0441\u043f\u0443\u0301\u0431\u043b\u0438\u043a\u0430 \u0410\u0444\u0433\u0430\u043d\u0438\u0441\u0442\u0430\u0301\u043d","official_name:rue":"\u0406\u0441\u043b\u0430\u043c\u0441\u043a\u044b\u0439 \u0415\u043c\u0456\u0440\u0430\u0442 \u0410\u0444\u0491\u0430\u043d\u0456\u0441\u0442\u0430\u043d","official_name:rw":"Repebulika y\u2019Ubuyisilamu ya Afuganisitani","official_name:sah":"\u0410\u0444\u0433\u0430\u043d\u0438\u0441\u0442\u0430\u0430\u043d \u0418\u0441\u043b\u0430\u043c \u04e8\u0440\u04e9\u0441\u043f\u04af\u04af\u0431\u04af\u043b\u04af\u043a\u044d\u0442\u044d","official_name:sc":"Rep\u00f9blica Isl\u00e0mica de s'Afganist\u00e0n","official_name:scn":"Rip\u00f9bblica Islamica di Afghanistan","official_name:sco":"Islamic Republic o Afghanistan","official_name:sd":"\u0627\u0633\u0644\u0627\u0645\u064a \u062c\u0645\u06be\u0648\u0631\u064a\u06c1 \u0627\u0641\u063a\u0627\u0646\u0633\u062a\u0627\u0646","official_name:se":"Afganistana islamla\u0161 d\u00e1ssev\u00e1ldi","official_name:sh":"Islamska Republika Avganistan","official_name:shi":"Lima\u1e5ba Tanslmt n Af\u0263anistan","official_name:shn":"\u1019\u102d\u1030\u1004\u103a\u1038\u1078\u103d\u1019\u103a\u1015\u103d\u1004\u103a\u1078\u102d\u102f\u1004\u103a\u1088 \u1022\u102d\u1010\u103a\u1087\u101e\u101c\u1062\u1019\u103a\u1087 \u1022\u1083\u1087\u107e\u1075\u1062\u107c\u103a\u1087\u107c\u102e\u1087\u101e\u1010\u1062\u107c\u103a\u1087","official_name:si":"\u0d87\u0dc6\u0dca\u0d9c\u0db1\u0dd2\u0dc3\u0dca\u0dae\u0dcf\u0db1 \u0d89\u0dc3\u0dca\u0dbd\u0dcf\u0db8\u0dd2\u0d9a \u0da2\u0db1\u0dbb\u0da2\u0dba","official_name:sk":"Afgansk\u00e1 islamsk\u00e1 republika","official_name:skr":"\u0627\u0633\u0644\u0627\u0645\u06cc \u0627\u0645\u0627\u0631\u062a \u0627\u0641\u063a\u0627\u0646\u0633\u062a\u0627\u0646","official_name:sl":"Islamska republika Afganistan","official_name:smn":"Afganistan islaml\u00e2\u0161 t\u00e4siv\u00e4ldi","official_name:sn":"Uamire we Chiyisalama we Afughanistani","official_name:so":"Jamuuriyadda islaamiga Afqaanistan","official_name:sq":"Republika Islamike e Afganistanit","official_name:sr":"\u0418\u0441\u043b\u0430\u043c\u0441\u043a\u0430 \u0420\u0435\u043f\u0443\u0431\u043b\u0438\u043a\u0430 \u0410\u0432\u0433\u0430\u043d\u0438\u0441\u0442\u0430\u043d","official_name:ss":"R\u00e9publique islamique d\u2019Afghanistan","official_name:stq":"Dowlat-e Eslami-ye Afghanestan","official_name:su":"R\u00e9publik Islam Apganistan","official_name:sv":"Islamiska republiken Afghanistan","official_name:sw":"Jamhuri ya Kiislamu ya Afghanistan","official_name:szl":"Islamsk\u014f Rebublika Afganistanu","official_name:ta":"\u0b85\u0baa\u0bcd\u0b95\u0bbe\u0ba9\u0bbf\u0ba4\u0bcd\u0ba4\u0bbe\u0ba9\u0bcd \u0b87\u0b9a\u0bc1\u0bb2\u0bbe\u0bae\u0bbf\u0baf\u0b95\u0bcd \u0b95\u0bc1\u0b9f\u0bbf\u0baf\u0bb0\u0b9a\u0bc1","official_name:te":"\u0c07\u0c38\u0c4d\u0c32\u0c3e\u0c2e\u0c3f\u0c15\u0c4d \u0c30\u0c3f\u0c2a\u0c2c\u0c4d\u0c32\u0c3f\u0c15\u0c4d \u0c06\u0c2b\u0c4d \u0c06\u0c2b\u0c4d\u0c18\u0c28\u0c3f\u0c38\u0c4d\u0c24\u0c3e\u0c28\u0c4d","official_name:tg":"\u04b6\u0443\u043c\u04b3\u0443\u0440\u0438\u0438 \u0418\u0441\u043b\u043e\u043c\u0438\u0438 \u0410\u0444\u0493\u043e\u043d\u0438\u0441\u0442\u043e\u043d","official_name:th":"\u0e2a\u0e32\u0e18\u0e32\u0e23\u0e13\u0e23\u0e31\u0e10\u0e2d\u0e34\u0e2a\u0e25\u0e32\u0e21\u0e2d\u0e31\u0e1f\u0e01\u0e32\u0e19\u0e34\u0e2a\u0e16\u0e32\u0e19","official_name:ti":"\u12a5\u1235\u120b\u121b\u12ca \u12a2\u121b\u122b \u12a3\u134d\u130b\u1292\u1235\u1273\u1295","official_name:tk":"Owganystan Yslam Respublikasy","official_name:tl":"Republikang Islamiko ng Afghanistan","official_name:tr":"Afganistan \u0130slam Cumhuriyeti","official_name:tt":"\u04d8\u0444\u0433\u0430\u043d\u0441\u0442\u0430\u043d \u0418\u0441\u043b\u0430\u043c \u0496\u04e9\u043c\u04bb\u04af\u0440\u0438\u044f\u0442\u0435","official_name:udm":"\u0418\u0441\u043b\u0430\u0301\u043c \u041a\u0443\u043d \u0410\u0444\u0433\u0430\u043d\u0438\u0441\u0442\u0430\u0301\u043d","official_name:ug":"\u0626\u0627\u0641\u063a\u0627\u0646\u0649\u0633\u062a\u0627\u0646 \u0626\u0649\u0633\u0644\u0627\u0645 \u062c\u06c7\u0645\u06be\u06c7\u0631\u0649\u064a\u0649\u062a\u0649","official_name:uk":"\u0406\u0441\u043b\u0430\u0301\u043c\u0441\u044c\u043a\u0430 \u0420\u0435\u0441\u043f\u0443\u0301\u0431\u043b\u0456\u043a\u0430 \u0410\u0444\u0433\u0430\u043d\u0456\u0441\u0442\u0430\u0301\u043d","official_name:ur":"\u0627\u0633\u0644\u0627\u0645\u06cc \u062c\u0645\u06c1\u0648\u0631\u06cc\u06c1 \u0627\u0641\u063a\u0627\u0646\u0633\u062a\u0627\u0646","official_name:uz":"Afg\u02bboniston Islom Respublikasi","official_name:vec":"Republica Islamica de \u0142'Afghanistan","official_name:vep":"Afganistanan Islamine Tazovaldkund","official_name:vi":"C\u1ed9ng h\u00f2a H\u1ed3i gi\u00e1o Afghanistan","official_name:vls":"Islamitische Republiek Afghanistan","official_name:vro":"Afganistani Islamivabariik","official_name:war":"Republika Islamika han Afganistan","official_name:wo":"Etaa Islaamik u Taraansiso\u014b bu Afganistaan","official_name:xal":"\u0421\u0430\u0440\u0442\u0430 \u0410\u043f\u0433\u0430\u043d\u043c\u0443\u0434\u0438\u043d \u041e\u0440\u043d","official_name:xmf":"\u10d0\u10d5\u10e6\u10d0\u10dc\u10d4\u10d7\u10d8\u10e8 \u10d8\u10e1\u10da\u10d0\u10db\u10e3\u10e0\u10d8 \u10e0\u10d4\u10e1\u10de\u10e3\u10d1\u10da\u10d8\u10d9\u10d0","official_name:yi":"\u05d0\u05d9\u05e1\u05dc\u05d0\u05de\u05d9\u05e9\u05e2 \u05e8\u05e2\u05e4\u05d5\u05d1\u05dc\u05d9\u05e7 \u05e4\u05d5\u05df \u05d0\u05b7\u05e4\u05bf\u05d2\u05d0\u05b7\u05e0\u05d9\u05e1\u05d8\u05d0\u05b7\u05df","official_name:yo":"Or\u00edl\u1eb9\u0300-\u00e8d\u00e8 Ol\u00f3m\u00ecnira On\u00edm\u00e0le il\u1eb9\u0300 Afghan\u00edst\u00e0n","official_name:yue":"\u963f\u5bcc\u6c57\u4f0a\u65af\u862d\u5171\u548c\u570b","official_name:zea":"Islamitische Rippubliek van Afghanistan","official_name:zgh":"\u2d5c\u2d30\u2d33\u2d37\u2d53\u2d37\u2d30 \u2d4f \u2d30\u2d3c\u2d56\u2d30\u2d4f\u2d49\u2d59\u2d5c\u2d30\u2d4f \u2d5c\u2d30\u2d4f\u2d59\u2d4d\u2d4e\u2d5c","official_name:zh":"\u963f\u5bcc\u6c57\u4f0a\u65af\u5170\u5171\u548c\u56fd \/ \u963f\u5bcc\u6c57\u4f0a\u65af\u862d\u5171\u548c\u570b","official_name:zh-Hans":"\u963f\u5bcc\u6c57\u4f0a\u65af\u5170\u5171\u548c\u56fd","official_name:zh-Hant":"\u963f\u5bcc\u6c57\u4f0a\u65af\u862d\u5171\u548c\u570b","old_name:vi":"A Ph\u00fa H\u00e3n","timezone":"Asia\/Kabul","type":"boundary","wikidata":"Q889","wikipedia":"ps:\u0627\u0641\u063a\u0627\u0646\u0633\u062a\u0627\u0646","wikipedia:ar":"\u0623\u0641\u063a\u0627\u0646\u0633\u062a\u0627\u0646","wikipedia:fa":"\u0627\u0641\u063a\u0627\u0646\u0633\u062a\u0627\u0646","wikipedia:ur":"\u0627\u0641\u063a\u0627\u0646\u0633\u062a\u0627\u0646"},"timestamp":1716078538,"representative_point":{"type":"Point","coordinates":[65.20422416804496,33.934205]}},"geometry":{"type":"Polygon","coordinates":[[[61.2740947,35.604842],[61.000798,34.642976],[60.739083,34.518086],[60.918373,34.304756],[60.686496,34.310708],[60.5210952,34.1009576],[60.6262032,33.5821543],[60.9459035,33.5134944],[60.5833775,33.1299045],[60.882921,32.197736],[60.856057,31.4865192],[61.7066673,31.375896],[61.8390347,31.036451],[60.872855,29.8585456],[62.4710419,29.3895874],[63.5766749,29.4871059],[64.1165918,29.3772926],[64.5429395,29.5879373],[65.0650709,29.5294301],[66.251613,29.849207],[66.3734743,29.9710934],[66.228933,30.068711],[66.3872967,30.9236564],[66.730989,31.209123],[67.77283,31.32204],[67.56778,31.52322],[68.17103,31.83532],[68.5443583,31.712842],[68.4326008,31.7635607],[68.57552,31.83424],[68.90778,31.59664],[69.3311585,31.9253451],[69.2378,32.45767],[69.4502355,32.6529558],[69.4961404,33.0211989],[70.32695,33.33094],[69.9033669,34.0398184],[70.4954,33.93973],[71.08251,34.06342],[71.1761,34.36333],[71.011087,34.534109],[71.68136,35.20939],[71.54325,35.30994],[71.65731,35.44251],[71.551035,35.726826],[71.195027,36.039614],[71.63732,36.477014],[71.80663,36.39927],[72.246562,36.752436],[72.652539,36.851927],[74.04712,36.826253],[74.564626,37.030852],[74.500896,37.239261],[74.889862,37.23409],[74.4660747,37.4267233],[73.6534364,37.2369425],[73.7758934,37.4400938],[73.3066472,37.4636108],[72.6625196,37.0176869],[71.6752772,36.6712385],[71.4289536,37.0716062],[71.5909716,37.9233851],[71.2561118,37.9237278],[71.373378,38.2568181],[70.9883523,38.4910682],[70.6784513,38.4091437],[70.1710551,37.9302409],[70.3034017,37.6987202],[70.1726911,37.5316653],[69.511131,37.5793062],[69.3225831,37.1177728],[68.887778,37.338611],[68.0224755,36.9257073],[67.7809011,37.1816004],[66.5514896,37.354385],[65.7059348,37.5394547],[65.5558563,37.2406638],[64.7552597,37.1126435],[64.579957,36.351645],[64.068541,35.997294],[63.1207783,35.8619122],[63.2507408,35.6864209],[63.094889,35.618425],[63.099102,35.417985],[62.627865,35.20793],[62.47756,35.278924],[62.305539,35.129093],[62.06428,35.43442],[61.2740947,35.604842]]]}}