{"type":"Feature","properties":{"tags":{"ISO3166-1":"AI","ISO3166-1:alpha2":"AI","ISO3166-1:alpha3":"AIA","ISO3166-1:numeric":"660","admin_level":"2","alt_name:mk":"\u0410\u043d\u0433\u0438\u043b\u0430","boundary":"administrative","default_language":"en","flag":"http:\/\/upload.wikimedia.org\/wikipedia\/commons\/b\/b4\/Flag_of_Anguilla.svg","name":"Anguilla","name:af":"Anguilla","name:als":"Anguilla","name:an":"Anguila","name:ang":"Anguilla","name:ar":"\u0623\u0646\u062c\u0648\u064a\u0644\u0627","name:ast":"Anguila","name:az":"Angilya","name:ba":"\u0410\u043d\u0433\u0438\u043b\u044c\u044f","name:be":"\u0410\u043d\u0433\u0456\u043b\u044c\u044f","name:be-tarask":"\u0410\u043d\u0433\u0456\u043b\u044c\u044f","name:bg":"\u0410\u043d\u0433\u0443\u0438\u043b\u0430","name:br":"Anguilla","name:bs":"Angvila","name:ca":"Anguilla","name:ckb":"\u0626\u06d5\u0646\u06af\u0648\u06cc\u0644\u0627","name:cs":"Anguilla","name:cy":"Anguilla","name:da":"Anguilla","name:de":"Anguilla","name:dsb":"Anguilla","name:dv":"\u0787\u07a6\u0782\u07b0\u078e\u07a9\u078d\u07a7","name:el":"\u0391\u03bd\u03b3\u03ba\u03bf\u03c5\u03af\u03bb\u03b1","name:en":"Anguilla","name:eo":"Angvilo","name:es":"Anguila","name:et":"Anguilla","name:eu":"Aingira","name:fa":"\u0622\u0646\u06af\u0648\u06cc\u0644\u0627","name:fi":"Anguilla","name:fr":"Anguilla","name:frr":"Anguilla","name:gl":"Anguila","name:he":"\u05d0\u05e0\u05d2\u05d5\u05d5\u05d9\u05dc\u05d4","name:hi":"\u0905\u0902\u0917\u0941\u0907\u0932\u093e","name:hr":"Angvila","name:hu":"Anguilla","name:hy":"\u0531\u0576\u0563\u056b\u056c\u056b\u0561","name:id":"Anguilla","name:ilo":"Anguilla","name:io":"Anguila","name:is":"Angvilla","name:it":"Anguilla","name:ja":"\u30a2\u30f3\u30ae\u30e9","name:jv":"Anguilla","name:ka":"\u10d0\u10dc\u10d2\u10d8\u10da\u10d8\u10d0","name:ko":"\uc575\uadc8\ub77c","name:kw":"Angwilla","name:lb":"Anguilla","name:li":"Anguilla","name:lij":"Anguilla","name:lmo":"Anguilla","name:lt":"Angilija","name:lv":"Angilja","name:mk":"\u0410\u043d\u0433\u0432\u0438\u043b\u0430","name:mr":"\u0905\u0901\u0917\u094d\u0935\u093f\u0932\u093e","name:ms":"Anguilla","name:nan":"Anguilla","name:nds":"Anguilla","name:ne":"\u090f\u0928\u094d\u0917\u0941\u0932\u093e","name:nl":"Anguilla","name:nn":"Anguilla","name:no":"Anguilla","name:nov":"Angila","name:nrm":"Anguilla","name:oc":"Anguilla","name:pa":"\u0a10\u0a02\u0a17\u0a41\u0a08\u0a32\u0a3e","name:pl":"Anguilla","name:pms":"Anguilla","name:pnb":"\u0627\u06cc\u0646\u06af\u0648\u06cc\u0644\u0627","name:pt":"Anguilla","name:ro":"Anguilla","name:ru":"\u0410\u043d\u0433\u0438\u043b\u044c\u044f","name:rue":"\u0410\u043d\u0491\u0443\u0456\u043b\u0430","name:rw":"Angwiya","name:sh":"Angvila","name:simple":"Anguilla","name:sk":"Anguilla","name:sl":"Angvila","name:sq":"Anguilla","name:sr":"\u0410\u043d\u0433\u0432\u0438\u043b\u0430","name:su":"Anguilla","name:sv":"Anguilla","name:sw":"Anguilla","name:ta":"\u0b85\u0b99\u0bcd\u0b95\u0bbf\u0baf\u0bc1\u0bb2\u0bbe","name:th":"\u0e41\u0e2d\u0e07\u0e01\u0e27\u0e34\u0e25\u0e25\u0e32","name:tl":"Anggilya","name:tr":"Anguilla","name:ug":"\u0626\u0627\u0646\u06af\u06cb\u0649\u0644\u0644\u0627","name:uk":"\u0410\u043d\u0433\u0456\u043b\u044c\u044f","name:ur":"\u0627\u06cc\u0646\u06af\u0648\u06cc\u0644\u0627","name:uz":"Angilya","name:vi":"Anguilla","name:war":"Anguilla","name:wo":"Angila","name:yo":"\u00c0ng\u00fa\u00edll\u00e0","name:yue":"\u5b89\u572d\u62c9","name:zh":"\u5b89\u572d\u62c9 \/ \u5b89\u5409\u62c9","name:zh-HK":"\u5b89\u572d\u62c9","name:zh-Hans":"\u5b89\u572d\u62c9","name:zh-Hant":"\u5b89\u572d\u62c9 \/ \u5b89\u5409\u62c9","name:zh-TW":"\u5b89\u5409\u62c9","timezone":"America\/Anguilla","type":"boundary","wikidata":"Q25228","wikipedia":"en:Anguilla"},"timestamp":1716078538,"representative_point":{"type":"Point","coordinates":[-63.17537364960546,18.436507650000003]}},"geometry":{"type":"Polygon","coordinates":[[[-62.7673927,18.1628625],[-62.7901606,18.4482165],[-63.2421995,18.4870075],[-63.2593009,18.7219304],[-63.4674048,18.7905631],[-63.6350824,18.5417639],[-63.3605643,18.0615454],[-62.7673927,18.1628625]]]}}