{"type":"Feature","properties":{"tags":{"ISO3166-1":"AM","ISO3166-1:alpha2":"AM","ISO3166-1:alpha3":"ARM","ISO3166-1:numeric":"051","admin_level":"2","alt_name:ady":"\u0415\u0440\u043c\u044d\u043b\u044b\u0435","alt_name:av":"\u042d\u0440\u043c\u0435\u043d\u0438\u0441\u0442\u0430\u043d","alt_name:ckb":"\u0626\u06d5\u0631\u0645\u06d5\u0646\u06cc\u0627\u061b\u0626\u06d5\u0631\u0645\u06cc\u0646\u06cc\u0627","alt_name:eo":"Armenujo","alt_name:gd":"Arminia","alt_name:gn":"Ayme\u00f1a","alt_name:jv":"Hayastan","alt_name:kk":"\u04d8\u0440\u043c\u0435\u043d\u0441\u0442\u0430\u043d;\u04d8\u0440\u043c\u0435\u043d\u0438\u044f","alt_name:kn":"\u0cb9\u0caf\u0cb8\u0ccd\u0ca4\u0cbe\u0ca8\u0cbf \u0cb9\u0ca8\u0ccd\u0cb0\u0caa\u0cc6\u0ca4\u0cc1\u0ca4\u0ccd\u0caf\u0cc1\u0ca8\u0ccd","alt_name:ku":"Flestan","alt_name:lad":"Ermenistan","alt_name:lij":"\u00c6rminnia","alt_name:lo":"\u0e9b\u0eb0\u0ec0\u0e97\u0e94\u0eae\u0eb2\u0ea2\u0eb2\u0eaa\u0eb0\u0e95\u0eb2\u0e99","alt_name:os":"\u0421\u043e\u043c\u0438\u0445","alt_name:pt":"Arm\u00eania","alt_name:rue":"\u0410\u0440\u043c\u0435\u043d\u044c\u0441\u043a\u043e","alt_name:sh":"Armenija","alt_name:te":"\u0c06\u0c30\u0c4d\u0c2e\u0c40\u0c28\u0c3f\u0c2f\u0c3e","alt_name:th":"\u0e2d\u0e32\u0e23\u0e4c\u0e40\u0e21\u0e40\u0e19\u0e35\u0e22","alt_name:vi":"Acmeni","boundary":"administrative","default_language":"hy","flag":"http:\/\/upload.wikimedia.org\/wikipedia\/commons\/2\/2f\/Flag_of_Armenia.svg","int_name":"Armenia","int_ref":"AM","land_area":"administrative","name":"\u0540\u0561\u0575\u0561\u057d\u057f\u0561\u0576","name:ab":"\u0415\u0440\u043c\u0430\u043d\u0442\u04d9\u044b\u043b\u0430","name:ace":"Armenia","name:ady":"\u0410\u0440\u043c\u0435\u043d\u0438\u0435","name:af":"Armeni\u00eb","name:ak":"Armenia","name:als":"Armenie","name:am":"\u12a0\u122d\u1218\u1292\u12eb","name:an":"Armenia","name:ang":"Armenia","name:ar":"\u0623\u0631\u0645\u064a\u0646\u064a\u0627","name:arc":"\u0710\u072a\u0721\u0722\u071d\u0710","name:arz":"\u0623\u0631\u0645\u064a\u0646\u064a\u0627","name:as":"\u0986\u09f0\u09cd\u09ae\u09c7\u09a8\u09bf\u09af\u09bc\u09be","name:ast":"Armenia","name:av":"\u0426I\u0430\u043c\u0443\u0445\u044a","name:az":"Erm\u0259nistan","name:azb":"\u0627\u0626\u0631\u0645\u0646\u06cc\u0633\u062a\u0627\u0646","name:ba":"\u04d8\u0440\u043c\u04d9\u043d\u0441\u0442\u0430\u043d","name:bar":"Armenien","name:bat-smg":"Armien\u0117j\u0117","name:bcl":"Armenya","name:be":"\u0410\u0440\u043c\u0435\u0301\u043d\u0456\u044f","name:be-tarask":"\u0410\u0440\u043c\u044d\u0301\u043d\u0456\u044f","name:bg":"\u0410\u0440\u043c\u0435\u043d\u0438\u044f","name:bh":"\u0906\u0930\u094d\u092e\u0940\u0928\u093f\u092f\u093e","name:bi":"Armenia","name:bm":"Arimeni","name:bn":"\u0986\u09b0\u09cd\u09ae\u09c7\u09a8\u09bf\u09af\u09bc\u09be","name:bo":"\u0f68\u0f62\u0f0b\u0f58\u0f7a\u0f0b\u0f53\u0f72\u0f0b\u0f61\u0f0d","name:bpy":"\u0986\u09b0\u09cd\u09ae\u09c7\u09a8\u09bf\u09af\u09bc\u09be","name:br":"Armenia","name:bs":"Ermenija","name:bxr":"\u0410\u0440\u043c\u0435\u043d\u0438","name:ca":"Arm\u00e8nia","name:cbk-zam":"Armenia","name:cdo":"\u0100-m\u012b-n\u00e0\u0324-\u0101","name:ce":"\u042d\u0440\u043c\u0430\u043b\u043e\u0439\u0447\u043e\u044c","name:ceb":"Armenya","name:ch":"Armenia","name:chr":"\u13a0\u13ba\u13c2\u13f1","name:ckb":"\u0626\u06d5\u0631\u0645\u06d5\u0646\u0633\u062a\u0627\u0646","name:co":"Armenia","name:crh":"Ermenistan","name:cs":"Arm\u00e9nie","name:csb":"Armenij\u00f4","name:cu":"\u0410\u0440\u043c\u0454\u043d\u0456\u0301\ua657","name:cv":"\u042d\u0440\u043c\u0435\u043d\u0438","name:cy":"Armenia","name:da":"Armenien","name:de":"Armenien","name:diq":"Ermen\u0131stan","name:dsb":"Arme\u0144ska","name:dty":"\u0906\u0930\u094d\u092e\u0940\u0928\u093f\u092f\u093e","name:dv":"\u0787\u07a6\u0783\u07aa\u0789\u07a9\u0782\u07a8\u0787\u07a7","name:dz":"\u0f68\u0f62\u0f0b\u0f58\u0f72\u0f0b\u0f53\u0f72\u0f0b\u0f61","name:ee":"Armenia","name:el":"\u0391\u03c1\u03bc\u03b5\u03bd\u03af\u03b1","name:eml":"Arm\u00e8gna","name:en":"Armenia","name:eo":"Armenio","name:es":"Armenia","name:et":"Armeenia","name:eu":"Armenia","name:ext":"Arm\u00e9nia","name:fa":"\u0627\u0631\u0645\u0646\u0633\u062a\u0627\u0646","name:ff":"Armaaniya","name:fi":"Armenia","name:fo":"Armenia","name:fr":"Arm\u00e9nie","name:frp":"Arm\u00e8nie","name:frr":"Armeenien","name:fur":"Armenie","name:fy":"Armeenje","name:ga":"An Airm\u00e9in","name:gag":"Armeniya","name:gd":"Airmeinia","name:gl":"Armenia","name:glk":"Arm\u04e9n\u04e9ston","name:gn":"Aymenia","name:gom":"\u0905\u0930\u094d\u092e\u0947\u0928\u093f\u092f\u093e","name:gu":"\u0a86\u0ab0\u0acd\u0aae\u0ac7\u0aa8\u0abf\u0aaf\u0abe","name:gv":"Armeain","name:ha":"Armeniya","name:hak":"\u00c2-m\u00ee-n\u00ec-\u00e2","name:haw":"\u2018\u0100m\u0113nia","name:he":"\u05d0\u05b7\u05e8\u05b0\u05de\u05b6\u05e0\u05b0\u05d9\u05b8\u05d4","name:hi":"\u0906\u0930\u094d\u092e\u0940\u0928\u093f\u092f\u093e","name:hif":"Armenia","name:hr":"Armenija","name:hsb":"Armenska","name:ht":"Ameni","name:hu":"\u00d6rm\u00e9nyorsz\u00e1g","name:hy":"\u0540\u0561\u0575\u0561\u057d\u057f\u0561\u0576","name:ia":"Armenia","name:id":"Armenia","name:ie":"Armenia","name:ilo":"Armenia","name:io":"Armenia","name:is":"Armen\u00eda","name:it":"Armenia","name:ja":"\u30a2\u30eb\u30e1\u30cb\u30a2","name:jam":"Aamiinia","name:jbo":"xaiastan","name:jv":"Arm\u00e8nia","name:ka":"\u10e1\u10dd\u10db\u10ee\u10d4\u10d7\u10d8","name:kaa":"Armeniya","name:kab":"Arminya","name:kbp":"Armenii","name:kg":"Armenia","name:ki":"Armenia","name:kk":"\u0410\u0440\u043c\u0435\u043d\u0438\u044f","name:kl":"Armenia","name:km":"\u17a2\u17b6\u1798\u17c1\u1793\u17b8","name:kn":"\u0c86\u0cb0\u0ccd\u0cae\u0cc7\u0ca8\u0cbf\u0caf","name:ko":"\uc544\ub974\uba54\ub2c8\uc544","name:krc":"\u042d\u0440\u043c\u0435\u043d\u0438\u044f","name:ks":"\u0627\u064e\u0631\u0645\u0627\u0646\u0650\u06cc\u0627","name:ksh":"Arrmeenije","name:ku":"Ermenistan","name:kv":"\u0410\u0440\u043c\u0435\u043d\u0438\u044f","name:kw":"Armeni","name:ky":"\u0410\u0440\u043c\u0435\u043d\u0438\u044f","name:la":"Armenia","name:lad":"Armenia","name:lb":"Armenien","name:lez":"\u042d\u0440\u043c\u0435\u043d\u0438\u0441\u0442\u0430\u043d","name:lg":"Arameniya","name:li":"Armeni\u00eb","name:lij":"Armenia","name:lmo":"Armenia","name:ln":"Armeni","name:lo":"\u0e9b\u0eb0\u0ec0\u0e97\u0e94\u0ead\u0eb2\u0e81\u0ec0\u0ea1\u0e99\u0eb5","name:lrc":"\u0623\u0631\u0645\u0646\u0633\u062a\u0627\u0646","name:lt":"Arm\u0117nija","name:ltg":"Armeneja","name:lv":"Arm\u0113nija","name:lzh":"\u4e9e\u7f8e\u5c3c\u4e9e","name:mai":"\u0905\u0930\u094d\u092e\u0947\u0928\u093f\u092f\u093e","name:mdf":"\u0410\u0440\u043c\u0435\u043d\u0438\u0435","name:mg":"Armenia","name:mhr":"\u0410\u0440\u043c\u0435\u0301\u043d\u0438\u0439","name:mi":"\u0100menia","name:min":"Armenia","name:mk":"\u0415\u0440\u043c\u0435\u043d\u0438\u0458\u0430","name:ml":"\u0d05\u0d7c\u0d2e\u0d47\u0d28\u0d3f\u0d2f","name:mn":"\u0410\u0440\u043c\u0435\u043d","name:mo":"\u0410\u0440\u043c\u0435\u043d\u0438\u044f","name:mr":"\u0906\u0930\u094d\u092e\u0947\u0928\u093f\u092f\u093e","name:mrj":"\u0410\u0440\u043c\u0435\u0301\u043d\u0438","name:ms":"Armenia","name:mt":"Armenja","name:mwl":"Arm\u00e9nia","name:my":"\u1021\u102c\u1019\u1031\u1038\u1014\u102e\u1038\u101a\u102c\u1038\u1014\u102d\u102f\u1004\u103a\u1004\u1036","name:myv":"\u0410\u0440\u043c\u0435\u043d\u0438\u044f \u041c\u0430\u0441\u0442\u043e\u0440","name:mzn":"\u0627\u0631\u0645\u0646\u0633\u062a\u0648\u0646","name:na":"Arminiya","name:nah":"Armenia","name:nan":"Hayastan","name:nap":"Armenia","name:nds":"Armenien","name:nds-nl":"Armeni\u00eb","name:ne":"\u0906\u0930\u094d\u092e\u0947\u0928\u093f\u092f\u093e","name:new":"\u0906\u0930\u094d\u092e\u0947\u0928\u093f\u092f\u093e","name:nl":"Armeni\u00eb","name:nn":"Armenia","name:no":"Armenia","name:nov":"Armenia","name:nv":"Aoom\u00e9\u00e9nii Bik\u00e9yah","name:oc":"Armenia","name:olo":"Armenii","name:om":"Armeeniyaa","name:or":"\u0b06\u0b30\u0b4d\u0b2e\u0b47\u0b28\u0b3f\u0b06","name:os":"\u0421\u043e\u043c\u0438\u0445\u044b\u0441\u0442\u043e\u043d","name:pa":"\u0a05\u0a30\u0a2e\u0a40\u0a28\u0a40\u0a06","name:pag":"Hayastan","name:pam":"Armenia","name:pap":"Armenia","name:pcd":"Arm\u00e9nie","name:pdc":"Armeni","name:pi":"\u0906\u0930\u094d\u092e\u0940\u0928\u093f\u092f\u093e","name:pih":"Aarmanya","name:pl":"Armenia","name:pms":"Armenia","name:pnb":"\u0622\u0631\u0645\u06cc\u0646\u06cc\u0627","name:pnt":"\u0391\u03c1\u03bc\u03b5\u03bd\u03af\u03b1","name:ps":"\u0627\u0631\u0645\u0646\u0633\u062a\u0627\u0646","name:pt":"Arm\u00e9nia","name:qu":"Arminya","name:rm":"Armenia","name:rn":"Arumeniya","name:ro":"Armenia","name:roa-rup":"Ermenia","name:ru":"\u0410\u0440\u043c\u0435\u043d\u0438\u044f","name:rue":"\u0410\u0440\u043c\u0435\u043d\u0456\u044f","name:rw":"Arumeniya","name:sa":"\u0906\u0930\u094d\u092e\u0940\u0928\u093f\u092f\u093e","name:sah":"\u042d\u0440\u043c\u044d\u044d\u043d \u0421\u0438\u0440\u044d","name:sc":"Arm\u00e8nia","name:scn":"Armenia","name:sco":"Armenie","name:sd":"\u0622\u0631\u0645\u064a\u0646\u064a\u0627","name:se":"Armenia","name:sg":"Armen\u00efi","name:sh":"Jermenija","name:si":"\u0d86\u0dbb\u0dca\u0db8\u0dda\u0db1\u0dd2\u0dba\u0dcf\u0dc0","name:sk":"Arm\u00e9nsko","name:sl":"Armenija","name:sm":"Amenia","name:smn":"Armenia","name:sms":"Armenia","name:sn":"Armenia","name:so":"Armania","name:sq":"Armenia","name:sr":"\u0408\u0435\u0440\u043c\u0435\u043d\u0438\u0458\u0430","name:ss":"iArimeniya","name:stq":"Armenien","name:su":"Arm\u00e9nia","name:sv":"Armenien","name:sw":"Armenia","name:szl":"Armynij\u014f","name:ta":"\u0b86\u0bb0\u0bcd\u0bae\u0bc0\u0ba9\u0bbf\u0baf\u0bbe","name:te":"\u0c06\u0c30\u0c4d\u0c2e\u0c47\u0c28\u0c3f\u0c2f\u0c3e","name:tet":"Arm\u00e9nia","name:tg":"\u0410\u0440\u043c\u0430\u043d\u0438\u0441\u0442\u043e\u043d","name:th":"\u0e2d\u0e32\u0e23\u0e4c\u0e21\u0e35\u0e40\u0e19\u0e35\u0e22","name:ti":"\u12a0\u122d\u121c\u1292\u12eb","name:tk":"Ermenistan","name:tl":"Armenya","name:to":"\u02bb\u0100minia","name:tok":"ma Aja","name:tpi":"Armenia","name:tr":"Ermenistan","name:ts":"Armenia","name:tt":"\u04d8\u0440\u043c\u04d9\u043d\u0441\u0442\u0430\u043d","name:tum":"Armenia","name:tw":"Aminia","name:ty":"\u0100menia","name:tzl":"Haiastan","name:udm":"\u0410\u0440\u043c\u0435\u043d\u0438\u044f","name:ug":"\u0626\u06d5\u0631\u0645\u06d0\u0646\u0649\u064a\u06d5","name:uk":"\u0412\u0456\u0440\u043c\u0435\u0301\u043d\u0456\u044f","name:ur":"\u0622\u0631\u0645\u06cc\u0646\u06cc\u0627","name:uz":"Armaniston","name:vec":"Armenia","name:vep":"Armenii","name:vi":"Armenia","name:vls":"Armeni\u00eb","name:vo":"Larmeniy\u00e4n","name:vro":"Armeeni\u00e4","name:war":"Armenya","name:wo":"Armeeni","name:wuu":"\u4e9a\u7f8e\u5c3c\u4e9a","name:xal":"\u0425\u0435\u043c\u0448\u0443\u0434\u0438\u043d \u041e\u0440\u043d","name:xmf":"\u10e1\u10dd\u10db\u10ee\u10d4\u10d7\u10d8","name:yi":"\u05d0\u05b7\u05e8\u05de\u05e2\u05e0\u05d9\u05e2","name:yo":"Arm\u00e9n\u00ed\u00e0","name:yue":"\u4e9e\u7f8e\u5c3c\u4e9e","name:za":"Armenia","name:zea":"Armeni\u00eb","name:zh":"\u4e9a\u7f8e\u5c3c\u4e9a","name:zh-Hans":"\u4e9a\u7f8e\u5c3c\u4e9a","name:zh-Hant":"\u4e9e\u7f8e\u5c3c\u4e9e","name:zh_pinyin":"Y\u00e0m\u011bin\u00edy\u00e0","name:zu":"i-Armenia","official_name":"\u0540\u0561\u0575\u0561\u057d\u057f\u0561\u0576\u056b \u0540\u0561\u0576\u0580\u0561\u057a\u0565\u057f\u0578\u0582\u0569\u0575\u0578\u0582\u0576","official_name:ab":"\u0415\u0440\u043c\u0430\u043d\u0442\u04d9\u044b\u043b\u0430 \u0410\u04b3\u04d9\u044b\u043d\u04ad\u049b\u0430\u0440\u0440\u0430","official_name:ady":"\u0420\u0435\u0441\u043f\u0443\u0431\u043b\u0438\u043a\u044d\u0443 \u0410\u0440\u043c\u0435\u043d\u0438\u0435","official_name:af":"Republiek van Armeni\u00eb","official_name:als":"Republik Armenie","official_name:am":"\u12e8\u12a0\u122d\u121c\u1295\u12eb \u122a\u1350\u1265\u120a\u12ad","official_name:an":"Republica d'Armenia","official_name:ar":"\u062c\u0645\u0647\u0648\u0631\u064a\u0629 \u0623\u0631\u0645\u064a\u0646\u064a\u0627","official_name:arc":"\u0729\u0718\u071b\u0722\u071d\u0718\u072c\u0710 \u0715\u0710\u072a\u0721\u0722\u071d\u0710","official_name:arz":"\u062c\u0645\u0647\u0648\u0631\u064a\u0629 \u0623\u0631\u0645\u064a\u0646\u064a\u0627","official_name:ast":"Rep\u00fablica d'Armenia","official_name:az":"Erm\u0259nistan Respublikas\u0131","official_name:azb":"\u0627\u0626\u0631\u0645\u0646\u06cc\u0633\u062a\u0627\u0646 \u062c\u0648\u0645\u0647\u0648\u0631\u06cc\u062a\u06cc","official_name:ba":"\u04d8\u0440\u043c\u04d9\u043d\u0441\u0442\u0430\u043d \u0420\u0435\u0441\u043f\u0443\u0431\u043b\u0438\u043a\u0430\u04bb\u044b","official_name:bar":"Republik Armenien","official_name:bcl":"Republika nin Armenia","official_name:be":"\u0420\u044d\u0441\u043f\u0443\u0301\u0431\u043b\u0456\u043a\u0430 \u0410\u0440\u043c\u0435\u0301\u043d\u0456\u044f","official_name:be-tarask":"\u0420\u044d\u0441\u043f\u0443\u0301\u0431\u043b\u0456\u043a\u0430 \u0410\u0440\u043c\u044d\u0301\u043d\u0456\u044f","official_name:bg":"\u0420\u0435\u043f\u0443\u0431\u043b\u0438\u043a\u0430 \u0410\u0440\u043c\u0435\u043d\u0438\u044f","official_name:bh":"\u0906\u0930\u094d\u092e\u0940\u0928\u093f\u092f\u093e \u0930\u093f\u092a\u092c\u094d\u0932\u093f\u0915","official_name:bn":"\u09aa\u09cd\u09b0\u099c\u09be\u09a4\u09a8\u09cd\u09a4\u09cd\u09b0\u09c0 \u0986\u09b0\u09cd\u09ae\u09c7\u09a8\u09bf\u09af\u09bc\u09be","official_name:bpy":"\u09aa\u09cd\u09b0\u099c\u09be\u09a4\u09a8\u09cd\u09a4\u09cd\u09b0\u09bf \u0986\u09b0\u09cd\u09ae\u09c7\u09a8\u09bf\u09af\u09bc\u09be","official_name:br":"Republik Armenia","official_name:bs":"Republika Ermenija","official_name:bxr":"\u0411\u04af\u0433\u044d\u0434\u044d \u041d\u0430\u0439\u0440\u0430\u043c\u0434\u0430\u0445\u0430 \u0410\u0440\u043c\u0435\u043d\u0438 \u0423\u043b\u0430\u0441","official_name:ca":"Rep\u00fablica d'Arm\u00e8nia","official_name:chr":"\u13cd\u13a6\u13da\u13a9 \u13be\u13bf \u13a0\u13b5\u13bb\u13c2\u13a0","official_name:ckb":"\u06a9\u06c6\u0645\u0627\u0631\u06cc \u0626\u06d5\u0631\u0645\u06d5\u0646\u0633\u062a\u0627\u0646","official_name:co":"Republica di Armenia","official_name:crh":"Ermenistan Cumhuriyeti","official_name:cs":"Arm\u00e9nsk\u00e1 republika","official_name:cu":"\u0410\u0440\u043c\u0454\u043d\u0456\u0301\ua657 \u0414\u0438\u043c\u043e\u043a\u0440\u0430\u0442\u0456\u0301\ua657","official_name:cy":"Gweriniaeth Armenia","official_name:da":"Republikken Armenien","official_name:de":"Republik Armenien","official_name:diq":"Cumhuriyet\u00ea Ermen\u0131stani","official_name:dsb":"Republika Arme\u0144ska","official_name:dty":"\u0906\u0930\u094d\u092e\u0940\u0928\u093f\u092f\u093e \u0917\u0923\u0930\u093e\u091c\u094d\u092f","official_name:el":"\u0394\u03b7\u03bc\u03bf\u03ba\u03c1\u03b1\u03c4\u03af\u03b1 \u03c4\u03b7\u03c2 \u0391\u03c1\u03bc\u03b5\u03bd\u03af\u03b1\u03c2","official_name:eml":"Rep\u00f9blica 'd Arm\u00e8gna","official_name:en":"Republic of Armenia","official_name:eo":"Respubliko Armenio","official_name:es":"Rep\u00fablica de Armenia","official_name:et":"Armeenia Vabariik","official_name:eu":"Armeniako Errepublika","official_name:fa":"\u062c\u0645\u0647\u0648\u0631\u06cc \u0627\u0631\u0645\u0646\u0633\u062a\u0627\u0646","official_name:ff":"Republik bu Armaaniya","official_name:fi":"Armenian tasavalta","official_name:fo":"L\u00fd\u00f0veldi\u00f0 Armenia","official_name:fr":"R\u00e9publique d'Arm\u00e9nie","official_name:frr":"Republiik Armeenien","official_name:ga":"Poblacht na hAirm\u00e9ine","official_name:gag":"Ermeniya Respublikas\u0131","official_name:gd":"Poblachd Airmeinia","official_name:gl":"Rep\u00fablica de Armenia","official_name:gn":"Tet\u00e3 Armenia","official_name:gu":"\u0a86\u0ab0\u0acd\u0aae\u0ac7\u0aa8\u0abf\u0aaf\u0abe \u0a97\u0aa3\u0ab0\u0abe\u0a9c\u0acd\u0aaf","official_name:gv":"Pobblaght ny h-Armeain","official_name:haw":"Lepupalika o \u02bb\u0100m\u0113nia","official_name:he":"\u05e8\u05b6\u05e4\u05bc\u05d5\u05bc\u05d1\u05b0\u05bc\u05dc\u05b4\u05d9\u05e7\u05b7\u05ea \u05d0\u05b7\u05e8\u05b0\u05de\u05b6\u05e0\u05b0\u05d9\u05b8\u05d4","official_name:hi":"\u0906\u0930\u094d\u092e\u0940\u0928\u093f\u092f\u093e \u0917\u0923\u0930\u093e\u091c\u094d\u092f","official_name:hr":"Republika Armenija","official_name:hsb":"Armenska republika","official_name:hu":"\u00d6rm\u00e9ny K\u00f6zt\u00e1rsas\u00e1g","official_name:hy":"\u0540\u0561\u0575\u0561\u057d\u057f\u0561\u0576\u056b \u0540\u0561\u0576\u0580\u0561\u057a\u0565\u057f\u0578\u0582\u0569\u0575\u0578\u0582\u0576","official_name:ia":"Republica de Armenia","official_name:id":"Republik Armenia","official_name:ilo":"Republika ti Armenia","official_name:io":"Republiko Armenia","official_name:is":"L\u00fd\u00f0veldi\u00f0 Armen\u00eda","official_name:it":"Repubblica di Armenia","official_name:ja":"\u30a2\u30eb\u30e1\u30cb\u30a2\u5171\u548c\u56fd","official_name:jam":"Ripoblik a Aamiinia","official_name:ka":"\u10e1\u10dd\u10db\u10ee\u10d4\u10d7\u10d8\u10e1 \u10e0\u10d4\u10e1\u10de\u10e3\u10d1\u10da\u10d8\u10d9\u10d0","official_name:kab":"Tagduda n Arminya","official_name:kk":"\u0410\u0440\u043c\u0435\u043d\u0438\u044f \u0420\u0435\u0441\u043f\u0443\u0431\u043b\u0438\u043a\u0430\u0441\u044b","official_name:km":"\u179f\u17b6\u1792\u17b6\u179a\u178e\u179a\u178a\u17d2\u178b\u17a2\u17b6\u1798\u17c1\u1793\u17b8","official_name:kn":"\u0c86\u0cb0\u0ccd\u0cae\u0cc7\u0ca8\u0cbf\u0caf \u0c97\u0ca3\u0cb0\u0cbe\u0c9c\u0ccd\u0caf","official_name:ko":"\uc544\ub974\uba54\ub2c8\uc544 \uacf5\ud654\uad6d","official_name:krc":"\u042d\u0440\u043c\u0435\u043d\u0438\u044f \u0420\u0435\u0441\u043f\u0443\u0431\u043b\u0438\u043a\u0430","official_name:ku":"Komara Ermenistan\u00ea","official_name:kv":"\u0410\u0440\u043c\u0435\u043d\u0438\u044f \u0420\u0435\u0441\u043f\u0443\u0431\u043b\u0438\u043a\u0430","official_name:kw":"Repoblek Armeni","official_name:ky":"\u0410\u0440\u043c\u0435\u043d\u0438\u044f \u0420\u0435\u0441\u043f\u0443\u0431\u043b\u0438\u043a\u0430\u0441\u044b","official_name:la":"Res publica Armenia","official_name:lad":"Repuvlika de Armenia","official_name:lb":"Republik Armenien","official_name:lez":"\u0420\u0435\u0441\u043f\u0443\u0431\u043b\u0438\u043a\u0430 \u042d\u0440\u043c\u0435\u043d\u0438\u0441\u0442\u0430\u043d","official_name:li":"Rippebliek Armeni\u00eb","official_name:lrc":"\u06a9\u06c8\u0645\u0631\u0623 \u06a4\u0648\u0644\u0627\u062a \u0623\u0631\u0645\u0646\u0633\u062a\u0627\u0646","official_name:lt":"Arm\u0117nijos Respublika","official_name:lv":"Arm\u0113nijas Republika","official_name:lzh":"\u4e9e\u7f8e\u5c3c\u4e9e\u5171\u548c\u570b","official_name:mai":"\u0905\u0930\u094d\u092e\u0947\u0928\u093f\u092f\u093e \u0917\u0923\u0924\u0928\u094d\u0924\u094d\u0930","official_name:mdf":"\u0410\u0440\u043c\u0435\u043d\u0438\u0435\u043d\u044c \u0440\u0435\u0441\u043f\u0443\u0431\u043b\u0438\u043a\u0430\u0441\u044c","official_name:mhr":"\u0410\u0440\u043c\u0435\u0301\u043d\u0438\u0439 \u0420\u0435\u0441\u043f\u0443\u0301\u0431\u043b\u0438\u043a","official_name:mk":"\u0420\u0435\u043f\u0443\u0431\u043b\u0438\u043a\u0430 \u0415\u0440\u043c\u0435\u043d\u0438\u0458\u0430","official_name:ml":"\u0d31\u0d3f\u0d2a\u0d2c\u0d4d\u0d32\u0d3f\u0d15\u0d4d\u0d15\u0d4d\u200c \u0d13\u0d2b\u0d4d\u200c \u0d05\u0d7c\u0d2e\u0d47\u0d28\u0d3f\u0d2f","official_name:mn":"\u0411\u04af\u0433\u0434 \u041d\u0430\u0439\u0440\u0430\u043c\u0434\u0430\u0445 \u0410\u0440\u043c\u0435\u043d \u0423\u043b\u0441","official_name:mr":"\u0906\u0930\u094d\u092e\u0947\u0928\u093f\u092f\u093e\u091a\u0947 \u092a\u094d\u0930\u091c\u093e\u0938\u0924\u094d\u0924\u093e\u0915","official_name:mrj":"\u0410\u0440\u043c\u0435\u0301\u043d\u0438 \u0420\u0435\u0441\u043f\u0443\u0301\u0431\u043b\u0438\u043a\u0430","official_name:ms":"Republik Armenia","official_name:mt":"Repubblika tal-Armenja","official_name:my":"\u1021\u102c\u1019\u1031\u1038\u1014\u102e\u1038\u101a\u102c\u1038 \u101e\u1019\u1039\u1019\u1010\u1014\u102d\u102f\u1004\u103a\u1004\u1036","official_name:myv":"\u0410\u0440\u043c\u0435\u043d\u0438\u044f\u043d\u044c \u0420\u0435\u0441\u043f\u0443\u0431\u043b\u0438\u043a\u0430","official_name:nah":"Tl\u0101catlahtohc\u0101y\u014dtl Armenia","official_name:nan":"Armenia Ki\u014dng-h\u00f4-kok","official_name:nap":"Repubbreca 'e Armenia","official_name:nds":"Republik Armenien","official_name:nds-nl":"Reppubliek Armeni\u00eb","official_name:ne":"\u0906\u0930\u094d\u092e\u0940\u0928\u093f\u092f\u093e \u0917\u0923\u0930\u093e\u091c\u094d\u092f","official_name:new":"\u0906\u0930\u094d\u092e\u0947\u0928\u093f\u092f\u093e \u0917\u0923\u0930\u093e\u091c\u094d\u092f","official_name:nl":"Republiek Armeni\u00eb","official_name:nn":"Republikk Armenia","official_name:no":"Republikken Armenia","official_name:oc":"Republica d'Armenia","official_name:olo":"Armenien tazavaldu","official_name:om":"Rippabliikii Armeeniyaa","official_name:os":"\u0420\u0435\u0441\u043f\u0443\u0431\u043b\u0438\u043a\u00e6 \u0421\u043e\u043c\u0438\u0445","official_name:pam":"Republika ning Armenia","official_name:pap":"Republika di Armenia","official_name:pcd":"R\u00e9publique d'Arm\u00e9nie","official_name:pl":"Republika Armenii","official_name:ps":"\u0627\u0631\u0645\u0646\u0633\u062a\u0627\u0646 \u062c\u0645\u0647\u0648\u0631\u064a\u062a","official_name:pt":"Rep\u00fablica da Arm\u00eania","official_name:qu":"Arminya Ripuwlika","official_name:ro":"Republica Armenia","official_name:roa-rup":"Republia Ermenia","official_name:ru":"\u0420\u0435\u0441\u043f\u0443\u0431\u043b\u0438\u043a\u0430 \u0410\u0440\u043c\u0435\u043d\u0438\u044f","official_name:rue":"\u0410\u0440\u043c\u0435\u043d\u044c\u0441\u043a\u0430 \u0440\u0435\u043f\u0443\u0431\u043b\u0456\u043a\u0430","official_name:sah":"\u042d\u0440\u043c\u044d\u044d\u043d \u0421\u0438\u0440\u0438\u043d \u0420\u0435\u0441\u043f\u0443\u0431\u043b\u0438\u043a\u0430\u0442\u0430","official_name:sco":"Republic o Armenie","official_name:se":"Armenia d\u00e1ssev\u00e1ldi","official_name:sh":"Republika Jermenija","official_name:si":"\u0d86\u0dbb\u0dca\u0db8\u0dda\u0db1\u0dd2\u0dba\u0dcf\u0db1\u0dd4 \u0da2\u0db1\u0dbb\u0da2\u0dba","official_name:sk":"Arm\u00e9nska republika","official_name:sl":"Republika Armenija","official_name:sm":"Lepulika o Amenia","official_name:sq":"Republika e Armenis\u00eb","official_name:sr":"\u0420\u0435\u043f\u0443\u0431\u043b\u0438\u043a\u0430 \u0408\u0435\u0440\u043c\u0435\u043d\u0438\u0458\u0430","official_name:stq":"Republik Armenien","official_name:su":"R\u00e9publik Arm\u00e9nia","official_name:sv":"Republiken Armenien","official_name:sw":"Jamhuri ya Armenia","official_name:ta":"\u0b86\u0bb0\u0bcd\u0bae\u0bc0\u0ba9\u0bbf\u0baf\u0b95\u0bcd \u0b95\u0bc1\u0b9f\u0bbf\u0baf\u0bb0\u0b9a\u0bc1","official_name:te":"\u0c30\u0c3f\u0c2a\u0c2c\u0c4d\u0c32\u0c3f\u0c15\u0c4d \u0c06\u0c2b\u0c4d \u0c06\u0c30\u0c4d\u0c2e\u0c47\u0c28\u0c3f\u0c2f\u0c3e","official_name:th":"\u0e2a\u0e32\u0e18\u0e32\u0e23\u0e13\u0e23\u0e31\u0e10\u0e2d\u0e32\u0e23\u0e4c\u0e21\u0e35\u0e40\u0e19\u0e35\u0e22","official_name:tk":"Ermenistan Respublikasy","official_name:tl":"Republika ng Armenia","official_name:tr":"Ermenistan Cumhuriyeti","official_name:tt":"\u04d8\u0440\u043c\u04d9\u043d\u0441\u0442\u0430\u043d \u0496\u04e9\u043c\u04bb\u04af\u0440\u0438\u044f\u0442\u0435","official_name:udm":"\u0410\u0440\u043c\u044f\u043d \u042d\u043b\u044c\u043a\u0443\u043d","official_name:ug":"\u0626\u0627\u0631\u0645\u06d0\u0646\u0649\u064a\u06d5 \u062c\u06c7\u0645\u0649\u06c7\u0631\u0649\u064a\u0649\u062a\u0649","official_name:uk":"\u0420\u0435\u0441\u043f\u0443\u0301\u0431\u043b\u0456\u043a\u0430 \u0412\u0456\u0440\u043c\u0435\u0301\u043d\u0456\u044f","official_name:ur":"\u062c\u0645\u06c1\u0648\u0631\u06cc\u06c1 \u0622\u0631\u0645\u06cc\u0646\u06cc\u0627","official_name:uz":"Armaniston Respublikasi","official_name:vec":"Republica de Armenia","official_name:vep":"Armenijan Tazovaldkund","official_name:vi":"C\u1ed9ng ho\u00e0 Armenia","official_name:vls":"Republiek Armeni\u00eb","official_name:vro":"Armeeni\u00e4 Vabariik","official_name:wo":"Republik bu Armeeni","official_name:wuu":"\u4e9a\u7f8e\u5c3c\u4e9a\u5171\u548c\u56fd","official_name:yi":"\u05e8\u05e2\u05e4\u05d5\u05d1\u05dc\u05d9\u05e7 \u05e4\u05d5\u05df \u05d0\u05e8\u05de\u05e2\u05e0\u05d9\u05e2","official_name:yo":"Republic of Armenia","official_name:yue":"\u4e9e\u7f8e\u5c3c\u4e9e\u5171\u548c\u570b","official_name:zea":"Republiek Armeni\u00eb","official_name:zh":"\u4e9a\u7f8e\u5c3c\u4e9a\u5171\u548c\u56fd \/ \u4e9e\u7f8e\u5c3c\u4e9e\u5171\u548c\u570b","official_name:zh-Hans":"\u4e9a\u7f8e\u5c3c\u4e9a\u5171\u548c\u56fd","official_name:zh-Hant":"\u4e9e\u7f8e\u5c3c\u4e9e\u5171\u548c\u570b","timezone":"Asia\/Yerevan","type":"boundary","wikidata":"Q399","wikipedia":"hy:\u0540\u0561\u0575\u0561\u057d\u057f\u0561\u0576"},"timestamp":1716078538,"representative_point":{"type":"Point","coordinates":[44.84627151763601,40.07098525]}},"geometry":{"type":"Polygon","coordinates":[[[43.474145,41.123038],[43.7483121,40.7308892],[43.542128,40.4768947],[43.6574449,40.1117792],[44.3518267,40.0272172],[44.764048,39.7144569],[45.0611385,39.7943811],[45.4734456,39.4904551],[45.7810411,39.5844948],[46.1406764,38.8445178],[46.5339832,38.867172],[46.4316546,39.1876961],[46.6333087,39.2309119],[46.38016,39.43536],[46.5801269,39.5535616],[46.1776631,39.5792643],[45.6112097,39.9740968],[45.8804812,40.020846],[45.9595159,40.2757358],[45.4528335,40.4996071],[45.3769671,40.7057083],[45.6018475,40.8824514],[45.0593531,41.0512967],[45.2049541,41.1502393],[45.0138352,41.2964966],[43.474145,41.123038]]]}}