{"type":"Feature","properties":{"tags":{"ISO3166-1":"AU","ISO3166-1:alpha2":"AU","ISO3166-1:alpha3":"AUS","ISO3166-1:numeric":"036","admin_level":"2","alt_name:af":"Gemenebes van Australi\u00eb","alt_name:arc":"\u0710\u0718\u0723\u072c\u072a\u0720\u071d\u0710","alt_name:ca":"Mancomunitat d'Austr\u00e0lia","alt_name:chr":"\u13a1\u13b3\u13d7\u13dc","alt_name:gn":"Auter\u00e1lia","alt_name:hak":"Au-ch\u00fb","alt_name:kab":"Ost\u1e5balya","alt_name:mi":"Whenua Moemoe\u0101","alt_name:nv":"Bich\u02bc\u00e1h Yiisdiis\u00ed Bik\u00e9yah","alt_name:rw":"Australiya","alt_name:sk":"Austr\u00e1lske spolo\u010denstvo","alt_name:sv":"Samv\u00e4ldet Australien","alt_name:ta":"\u0b85\u0bb5\u0bc1\u0bb8\u0bcd\u0ba4\u0bbf\u0bb0\u0bc7\u0bb2\u0bbf\u0baf\u0bbe","alt_name:war":"Australia","alt_name:zu":"I-Australiya","boundary":"administrative","capital_city":"Canberra","currency":"AUD","default_language":"en","driving_side":"left","flag":"http:\/\/upload.wikimedia.org\/wikipedia\/commons\/b\/b9\/Flag_of_Australia.svg","int_name":"Australia","name":"Australia","name:ab":"\u0410\u0432\u0441\u0442\u0440\u0430\u043b\u0438\u0430","name:ace":"Australia","name:ady":"\u0410\u0443\u0441\u0442\u0440\u0430\u043b\u0438\u0435","name:af":"Australi\u00eb","name:als":"Australie","name:am":"\u12a0\u12cd\u1235\u1275\u122b\u120d\u12eb","name:an":"Australia","name:ang":"Australia","name:ar":"\u0623\u0633\u062a\u0631\u0627\u0644\u064a\u0627","name:arc":"\u0710\u0718\u0723\u071b\u072a\u0720\u071d\u0710","name:arz":"\u0627\u0648\u0633\u062a\u0631\u0627\u0644\u064a\u0627","name:as":"\u0985\u09b7\u09cd\u099f\u09cd\u09f0\u09c7\u09b2\u09bf\u09af\u09bc\u09be","name:ast":"Australia","name:ay":"Australla","name:az":"Avstraliya","name:azb":"\u0627\u0633\u062a\u0631\u0627\u0644\u06cc\u0627","name:ba":"\u0410\u0432\u0441\u0442\u0440\u0430\u043b\u0438\u044f","name:bar":"Australien","name:bat-smg":"Austral\u0117j\u0117","name:bcl":"Australya","name:be":"\u0410\u045e\u0441\u0442\u0440\u0430\u0301\u043b\u0456\u044f","name:be-tarask":"\u0410\u045e\u0441\u0442\u0440\u0430\u0301\u043b\u0456\u044f","name:bg":"\u0410\u0432\u0441\u0442\u0440\u0430\u043b\u0438\u044f","name:bh":"\u0911\u0938\u094d\u091f\u094d\u0930\u0947\u0932\u093f\u092f\u093e","name:bi":"Ostrelia","name:bjn":"Australia","name:bm":"Ostralia","name:bn":"\u0985\u09b8\u09cd\u099f\u09cd\u09b0\u09c7\u09b2\u09bf\u09af\u09bc\u09be","name:bo":"\u0f68\u0f7c\u0f0b\u0f66\u0f7a\u0f0b\u0f50\u0f7a\u0f0b\u0f63\u0f72\u0f0b\u0f61\u0f0d","name:bpy":"\u0985\u09b8\u09cd\u099f\u09cd\u09b0\u09c7\u09b2\u09bf\u09af\u09bc\u09be","name:br":"Aostralia","name:bs":"Australija","name:bxr":"\u0410\u0432\u0441\u0442\u0440\u0430\u043b\u0438","name:ca":"Austr\u00e0lia","name:cbk-zam":"Australia","name:cdo":"\u00d3\u0324-ci\u016d","name:ce":"\u0410\u0432\u0441\u0442\u0440\u0430\u0301\u043b\u0438","name:ceb":"Awstralya","name:chr":"\u13d2\u13b3\u13d7\u13dd","name:ckb":"\u0626\u0648\u0633\u062a\u0631\u0627\u0644\u06cc\u0627","name:co":"Australia","name:crh":"Avstraliya","name:cs":"Austr\u00e1lie","name:cu":"\u0410\u0475\u0441\u0442\u0440\u0430\u043b\u0457\ua657","name:cv":"\u0410\u0432\u0441\u0442\u0440\u0430\u043b\u0438","name:cy":"Awstralia","name:da":"Australien","name:de":"Australien","name:diq":"Aw\u0131stralya","name:dsb":"Awstralska","name:dty":"\u0905\u0938\u094d\u091f\u094d\u0930\u0947\u0932\u093f\u092f\u093e","name:dv":"\u0787\u07ae\u0790\u07b0\u0793\u07a6\u0783\u07aa\u078d\u07a8\u0794\u07a7","name:dz":"\u0f68\u0f66\u0f0b\u0f4a\u0f7a\u0f61\u0f7a\u0f0b\u0f63\u0f72\u0f0b\u0f61","name:ee":"Australia","name:el":"\u0391\u03c5\u03c3\u03c4\u03c1\u03b1\u03bb\u03af\u03b1","name:eml":"Austr\u00e0glia","name:en":"Australia","name:eo":"A\u016dstralio","name:es":"Australia","name:et":"Austraalia","name:eu":"Australia","name:ext":"Austr\u00e1lia","name:fa":"\u0627\u0633\u062a\u0631\u0627\u0644\u06cc\u0627","name:fi":"Australia","name:fo":"Avstralia","name:fr":"Australie","name:frp":"\u00d4stralie","name:frr":"Austraalien","name:fur":"Australie","name:fy":"Austraalje","name:ga":"Astr\u00e1il","name:gag":"Avstraliya","name:gan":"\u6fb3\u5927\u5229\u4e9e","name:gd":"Astr\u00e0ilia","name:gl":"Australia","name:gn":"Autaralia","name:gom":"\u0911\u0938\u094d\u091f\u094d\u0930\u0947\u0932\u093f\u092f\u093e","name:gu":"\u0a91\u0ab8\u0acd\u0a9f\u0acd\u0ab0\u0ac7\u0ab2\u0abf\u0aaf\u0abe","name:gv":"Austrail","name:ha":"Asturaliya","name:hak":"\u00c0u-thai-li-\u00e2","name:haw":"\u2018Aukekulelia","name:he":"\u05d0\u05d5\u05e1\u05d8\u05e8\u05dc\u05d9\u05d4","name:hi":"\u0911\u0938\u094d\u091f\u094d\u0930\u0947\u0932\u093f\u092f\u093e","name:hif":"Australia","name:hr":"Australija","name:hsb":"Awstralska","name:ht":"Ostrali","name:hu":"Ausztr\u00e1lia","name:hy":"\u0531\u057e\u057d\u057f\u0580\u0561\u056c\u056b\u0561","name:ia":"Australia","name:id":"Australia","name:ie":"Australia","name:ig":"Ostraliya","name:ilo":"Australia","name:io":"Australia","name:is":"\u00c1stral\u00eda","name:it":"Australia","name:iu":"\u140a\u1505\u1466\u154c\u14d5\u140a","name:ja":"\u30aa\u30fc\u30b9\u30c8\u30e9\u30ea\u30a2","name:jam":"Aschrielia","name:jbo":"sralygu'e","name:jv":"Ostrali","name:ka":"\u10d0\u10d5\u10e1\u10e2\u10e0\u10d0\u10da\u10d8\u10d0","name:kaa":"Avstraliya","name:kab":"Us\u1e6dralya","name:kbd":"\u0410\u0443\u0441\u0442\u0440\u0430\u043b\u0438\u044d","name:kbp":"Ositraalii","name:kg":"Australia","name:ki":"Australia","name:kk":"\u0410\u0443\u0441\u0442\u0440\u0430\u043b\u0438\u044f","name:kl":"Australia","name:km":"\u17a2\u17bc\u179f\u17d2\u178f\u17d2\u179a\u17b6\u179b\u17b8","name:kn":"\u0c86\u0cb8\u0ccd\u0c9f\u0ccd\u0cb0\u0cc7\u0cb2\u0cbf\u0caf","name:ko":"\uc624\uc2a4\ud2b8\ub808\uc77c\ub9ac\uc544","name:krc":"\u0410\u0432\u0441\u0442\u0440\u0430\u043b\u0438\u044f","name:ksh":"Australie","name:ku":"Awistralya","name:kv":"\u0410\u0432\u0441\u0442\u0440\u0430\u043b\u0438\u044f","name:kw":"Ostrali","name:ky":"\u0410\u0432\u0441\u0442\u0440\u0430\u043b\u0438\u044f","name:la":"Australia","name:lad":"Ostralya","name:lb":"Australien","name:lez":"\u0410\u0432\u0441\u0442\u0440\u0430\u043b\u0438\u044f","name:li":"Australi\u00eb","name:lij":"Australia","name:lmo":"A\u00fcstralia","name:lo":"\u0e9b\u0eb0\u0ec0\u0e97\u0e94\u0ead\u0ebb\u0e94\u0eaa\u0eb0\u0e95\u0eb2\u0ea5\u0eb5","name:lt":"Australija","name:ltg":"Australeja","name:lv":"Austr\u0101lija","name:lzh":"\u6fb3\u5927\u5229\u4e9e","name:mai":"\u0905\u0938\u094d\u091f\u094d\u0930\u0947\u0932\u093f\u092f\u093e","name:mdf":"\u0410\u0432\u0441\u0442\u0440\u0430\u043b\u0438\u0435","name:mg":"Aostralia","name:mhr":"\u0410\u0432\u0441\u0442\u0440\u0430\u043b\u0438\u0439","name:mi":"Ao Moemoe\u0101","name:min":"Australia","name:mk":"\u0410\u0432\u0441\u0442\u0440\u0430\u043b\u0438\u0458\u0430","name:ml":"\u0d13\u0d38\u0d4d\u0d1f\u0d4d\u0d30\u0d47\u0d32\u0d3f\u0d2f","name:mn":"\u0410\u0432\u0441\u0442\u0440\u0430\u043b\u0438","name:mr":"\u0911\u0938\u094d\u091f\u094d\u0930\u0947\u0932\u093f\u092f\u093e","name:mrj":"\u0410\u0432\u0441\u0442\u0440\u0430\u043b\u0438","name:ms":"Australia","name:mt":"Awstralja","name:mwl":"Oustr\u00e1lia","name:my":"\u1029\u1005\u1010\u103c\u1031\u1038\u101c\u103b\u1014\u102d\u102f\u1004\u103a\u1004\u1036","name:mzn":"\u0627\u0633\u062a\u0631\u0627\u0644\u06cc\u0627","name:na":"Otereiriya","name:nah":"Australia","name:nan":"\u00d2-chiu","name:nap":"Australia","name:nds":"Australien","name:nds-nl":"Australi\u00eb","name:ne":"\u0905\u0938\u094d\u091f\u094d\u0930\u0947\u0932\u093f\u092f\u093e","name:new":"\u0905\u0938\u094d\u091f\u094d\u0930\u0947\u0932\u093f\u092f\u093e","name:nl":"Australi\u00eb","name:nn":"Australia","name:no":"Australia","name:nov":"Australia","name:nrm":"Australie","name:nso":"Australia","name:nv":"Nahat\u02bce\u02bciitsoh Bik\u00e9yah","name:oc":"Austr\u00e0lia","name:olo":"Avstrualii","name:om":"Awustireliyaa","name:or":"\u0b05\u0b37\u0b4d\u0b1f\u0b4d\u0b30\u0b47\u0b32\u0b3f\u0b06","name:os":"\u0410\u0432\u0441\u0442\u0440\u0430\u043b\u0438","name:pa":"\u0a06\u0a38\u0a1f\u0a4d\u0a30\u0a47\u0a32\u0a40\u0a06","name:pam":"Australia","name:pap":"Australia","name:pcd":"Australie","name:pdc":"Australie","name:pi":"\u0906\u0938\u094d\u091f\u094d\u0930\u0947\u0932\u093f\u092f\u093e","name:pih":"Ostrielya","name:pl":"Australia","name:pms":"Australia","name:pnb":"\u0622\u0633\u0679\u0631\u06cc\u0644\u06cc\u0627","name:pnt":"\u0391\u03c5\u03c3\u03c4\u03c1\u03b1\u03bb\u03af\u03b1","name:ps":"\u0622\u0633\u067c\u0631\u0627\u0644\u064a\u0627","name:pt":"Austr\u00e1lia","name:qu":"Awstralya","name:rm":"Australia","name:rn":"Australiya","name:ro":"Australia","name:roa-tara":"Australie","name:ru":"\u0410\u0432\u0441\u0442\u0440\u0430\u043b\u0438\u044f","name:rue":"\u0410\u0432\u0441\u0442\u0440\u0430\u043b\u0456\u044f","name:rw":"Ositaraliya","name:sa":"\u0906\u0938\u094d\u091f\u094d\u0930\u0947\u0932\u093f\u092f\u093e","name:sah":"\u0410\u0443\u0441\u0442\u0440\u0430\u043b\u0438\u0430","name:sc":"Austr\u00e0lia","name:scn":"Australia","name:sco":"Australie","name:sd":"\u0622\u0633\u067d\u0631\u064a\u0644\u064a\u0627","name:se":"Australia","name:sg":"Ostral\u00efi","name:sh":"Australija","name:si":"\u0d95\u0dc3\u0dca\u0da7\u0dca\u200d\u0dbb\u0dda\u0dbd\u0dd2\u0dba\u0dcf\u0dc0","name:simple":"Australia","name:sk":"Austr\u00e1lia","name:sl":"Avstralija","name:sm":"Ausetalia","name:smn":"Australia","name:sms":"Australia","name:sn":"Australia","name:so":"Australia","name:sq":"Australia","name:sr":"\u0410\u0443\u0441\u0442\u0440\u0430\u043b\u0438\u0458\u0430","name:stq":"Australien","name:su":"Australia","name:sv":"Australien","name:sw":"Australia","name:szl":"Australij\u014f","name:ta":"\u0b86\u0bb8\u0bcd\u0ba4\u0bbf\u0bb0\u0bc7\u0bb2\u0bbf\u0baf\u0bbe","name:tcy":"\u0c86\u0cb8\u0ccd\u0c9f\u0ccd\u0cb0\u0cc7\u0cb2\u0cbf\u0caf\u0cbe","name:te":"\u0c06\u0c38\u0c4d\u0c1f\u0c4d\u0c30\u0c47\u0c32\u0c3f\u0c2f\u0c3e","name:tet":"Austr\u00e1lia","name:tg":"\u0410\u0432\u0441\u0442\u0440\u0430\u043b\u0438\u044f","name:th":"\u0e2d\u0e2d\u0e2a\u0e40\u0e15\u0e23\u0e40\u0e25\u0e35\u0e22","name:ti":"\u12a3\u12cd\u1235\u1275\u122b\u120a\u12eb","name:tk":"Awstrali\u00fda","name:tl":"Australya","name:tpi":"Ostrelia","name:tr":"Avustralya","name:tt":"\u0410\u0432\u0441\u0442\u0440\u0430\u043b\u0438\u044f","name:tum":"Australia","name:tw":"Australia","name:ty":"Autereraria","name:tyv":"\u0410\u0432\u0441\u0442\u0440\u0430\u043b\u0438\u044f","name:tzl":"Australia","name:ug":"\u0626\u0627\u06cb\u0633\u062a\u0649\u0631\u0627\u0644\u0649\u064a\u06d5","name:uk":"\u0410\u0432\u0441\u0442\u0440\u0430\u0301\u043b\u0456\u044f","name:ur":"\u0622\u0633\u0679\u0631\u06cc\u0644\u06cc\u0627","name:uz":"Avstraliya","name:vec":"Austra\u0142ia","name:vep":"Avstralii","name:vi":"\u00dac","name:vls":"Australi\u00eb","name:vo":"Laustral\u00e4n","name:vro":"Austraalia","name:wa":"Ostraleye","name:war":"Australya","name:wo":"\u00d3straali","name:wuu":"\u6fb3\u5927\u5229\u4e9a","name:xal":"\u0410\u0432\u0441\u0442\u0440\u0430\u043b\u043c\u0443\u0434\u0438\u043d \u041d\u0438\u0438\u0446\u04d9\u043d","name:xmf":"\u10d0\u10d5\u10e1\u10e2\u10e0\u10d0\u10da\u10d8\u10d0","name:yi":"\u05d0\u05d5\u05d9\u05e1\u05d8\u05e8\u05d0\u05b7\u05dc\u05d9\u05e2","name:yo":"Austr\u00e1l\u00ed\u00e0","name:yue":"\u6fb3\u6d32","name:za":"Audaihleihya","name:zea":"Australi\u00eb","name:zh":"\u6fb3\u5927\u5229\u4e9a \/ \u6fb3\u6d32","name:zh-Hans":"\u6fb3\u5927\u5229\u4e9a","name:zh-Hant":"\u6fb3\u6d32","name:zu":"I-Ostreliya","official_name":"Commonwealth of Australia","official_name:ace":"\u0410\u0443\u0441\u0442\u0440\u0430\u043b\u0438\u044d \u0417\u044d\u0433\u0443\u044d\u0442","official_name:af":"Australiese Gemenebes","official_name:als":"Commonwealth von Australien","official_name:am":"\u12e8\u12a0\u12cd\u1235\u1275\u122b\u120d\u12eb \u1209\u12d3\u120b\u12ca \u1218\u1295\u130d\u1235\u1275","official_name:an":"Mancomunidat d'Australia","official_name:ang":"Australie Cynewise","official_name:ar":"\u0643\u0648\u0645\u0646\u0648\u0644\u062b \u0623\u0633\u062a\u0631\u0627\u0644\u064a\u0627","official_name:arc":"\u0717\u0718\u0726\u072a\u071f\u071d\u0710 \u0715\u0710\u0718\u0723\u071b\u072a\u0720\u071d\u0710","official_name:as":"\u0995\u09ae\u09a8\u09f1\u09c7\u09b2\u09cd\u200c\u09a5 \u0985\u09ac \u0985\u09b7\u09cd\u099f\u09cd\u09f0\u09c7\u09b2\u09bf\u09af\u09bc\u09be","official_name:ay":"Mancomunidad de Australia","official_name:az":"Avstraliya \u0130ttifaq\u0131","official_name:azb":"\u0627\u0648\u0633\u062a\u0648\u0631\u0627\u0644\u06cc\u0627 \u0628\u06cc\u0631\u0644\u06cc\u06af\u06cc","official_name:bar":"Commonwealth vu Australien","official_name:bat-smg":"Australij\u0117s Sondrauga","official_name:be":"\u0410\u045e\u0441\u0442\u0440\u0430\u043b\u0456\u0301\u0439\u0441\u043a\u0456 \u0421\u0430\u044e\u0301\u0437","official_name:be-tarask":"\u0410\u045e\u0441\u0442\u0440\u0430\u043b\u0456\u0439\u0441\u043a\u0456 \u0421\u0430\u044e\u0437","official_name:bg":"\u0410\u0432\u0441\u0442\u0440\u0430\u043b\u0438\u0439\u0441\u043a\u0438\u044f\u0442 \u0441\u044a\u044e\u0437","official_name:bh":"\u0911\u0938\u094d\u091f\u094d\u0930\u0947\u0932\u093f\u092f\u093e\u0908 \u0930\u093e\u0937\u094d\u091f\u094d\u0930\u092e\u0902\u0921\u0932","official_name:bi":"Komenwelth blong Ostrelia","official_name:bjn":"Nagara Pasamakmuran Australia","official_name:bn":"\u0995\u09ae\u09a8\u0993\u09af\u09bc\u09c7\u09b2\u09a5 \u0985\u09ac \u0985\u09b8\u09cd\u099f\u09cd\u09b0\u09c7\u09b2\u09bf\u09af\u09bc\u09be","official_name:bpy":"\u0995\u09ae\u09a8\u09f1\u09c7\u09b2\u09a5 \u0985\u09b8\u09cd\u099f\u09cd\u09b0\u09c7\u09b2\u09bf\u09af\u09bc\u09be","official_name:br":"Kenglad Aostralia","official_name:bxr":"\u0410\u0432\u0441\u0442\u0440\u0430\u043b\u0438\u0438\u043d \u0425\u0430\u043c\u0442\u044b\u043d \u041d\u04af\u0445\u044d\u0440\u043b\u044d\u043b","official_name:ca":"Commonwealth d'Austr\u00e0lia","official_name:cdo":"\u00d3\u0324-ci\u016d Li\u00e8ng-b\u0103ng","official_name:ceb":"Komonwelt sa Awstralya","official_name:chr":"\u13c2\u13a6\u13d3\u13a4\u13be\u13e4\u13b5 \u13be\u13bf \u13a1\u13b3\u13d7\u13dc","official_name:ckb":"\u06cc\u06d5\u06a9\u06cc\u06d5\u062a\u06cc\u06cc \u0647\u0627\u0648\u0642\u0627\u0632\u0627\u0646\u062c\u06cc \u0626\u0648\u0633\u062a\u0631\u0627\u0644\u06cc\u0627","official_name:crh":"Avstraliya Birligi","official_name:cs":"Australsk\u00e9 spole\u010denstv\u00ed","official_name:cu":"\u0410\u0475\u0441\u0442\u0440\u0430\u043b\u0456\u0301\u0438\u0441\u043a\ua651\u0438 \u0421\u044a\u0432\u046b\u0301\ua641\u044a","official_name:cv":"\u0410\u0432\u0441\u0442\u0440\u0430\u043b\u0438 \u041f\u0115\u0440\u043b\u0435\u0448\u0115\u0432\u0115","official_name:cy":"Cymanwlad Awstralia","official_name:da":"Forbundsstaten Australien","official_name:de":"Australischer Bund","official_name:dsb":"Zjadno\u015be\u0144stwo Awstralskeje","official_name:dty":"\u0905\u0938\u094d\u091f\u094d\u0930\u0947\u0932\u093f\u092f\u093e\u0932\u0940 \u0930\u093e\u0937\u094d\u091f\u094d\u0930\u092e\u0902\u0921\u0932","official_name:el":"\u039a\u03bf\u03b9\u03bd\u03bf\u03c0\u03bf\u03bb\u03b9\u03c4\u03b5\u03af\u03b1 \u03c4\u03b7\u03c2 \u0391\u03c5\u03c3\u03c4\u03c1\u03b1\u03bb\u03af\u03b1\u03c2","official_name:en":"Commonwealth of Australia","official_name:eo":"Komunejo de A\u016dstralio","official_name:es":"Mancomunidad de Australia","official_name:et":"Austraalia \u00dchendus","official_name:eu":"Australiako Commonwealtha","official_name:ext":"Mancomuni\u00e1 d'Austr\u00e1lia","official_name:fa":"\u06a9\u0634\u0648\u0631 \u0645\u0634\u062a\u0631\u06a9\u200c\u0627\u0644\u0645\u0646\u0627\u0641\u0639 \u0627\u0633\u062a\u0631\u0627\u0644\u06cc\u0627","official_name:fi":"Australian liittovaltio","official_name:fo":"Samveldi\u00f0 Avstralia","official_name:fr":"Commonwealth d'Australie","official_name:frr":"Commonwealth faan Austraalien","official_name:fur":"Commonwealth of Australia","official_name:fy":"Mieneb\u00east Austraalje","official_name:ga":"Comhlathas na hAstr\u00e1ile","official_name:gan":"\u6fb3\u5927\u5229\u4e9e\u806f\u90a6","official_name:gl":"Mancomunidade de Australia","official_name:gn":"Tet\u00e3 Autaralia","official_name:gu":"\u0a95\u0acb\u0aae\u0aa8\u0ab5\u0ac7\u0ab2\u0acd\u0aa5 \u0a93\u0aab \u0a91\u0ab8\u0acd\u0a9f\u0acd\u0ab0\u0ac7\u0ab2\u0abf\u0aaf\u0abe","official_name:gv":"Co-unnaneys ny h-Austrail","official_name:ha":"Commonwealh na Asturaliya","official_name:hak":"Au-thai-li-\u00e2 li\u00e8n-p\u00e2ng","official_name:he":"\u05e7\u05d4\u05d9\u05dc\u05d9\u05d9\u05ea \u05d0\u05d5\u05e1\u05d8\u05e8\u05dc\u05d9\u05d4","official_name:hi":"\u0911\u0938\u094d\u091f\u094d\u0930\u0947\u0932\u093f\u092f\u093e\u0908 \u0930\u093e\u0937\u094d\u091f\u094d\u0930\u092e\u0902\u0921\u0932","official_name:hif":"Commonwealth of Australia","official_name:hu":"Ausztr\u00e1l \u00c1llamsz\u00f6vets\u00e9g","official_name:hy":"\u0531\u057e\u057d\u057f\u0580\u0561\u056c\u0561\u056f\u0561\u0576 \u0544\u056b\u0578\u0582\u0569\u0575\u0578\u0582\u0576","official_name:id":"Persemakmuran Australia","official_name:ie":"Comunalit\u00e9 de Australia","official_name:ilo":"Mankomunidad iti Australia","official_name:is":"Samveldi\u00f0 \u00c1stral\u00eda","official_name:it":"Commonwealth dell'Australia","official_name:ja":"\u30aa\u30fc\u30b9\u30c8\u30e9\u30ea\u30a2\u9023\u90a6","official_name:jam":"Kamanwelt a Aschrielia","official_name:ka":"\u10d0\u10d5\u10e1\u10e2\u10e0\u10d0\u10da\u10d8\u10d8\u10e1 \u10d9\u10d0\u10d5\u10e8\u10d8\u10e0\u10d8","official_name:kk":"\u0410\u0443\u0441\u0442\u0440\u0430\u043b\u0438\u044f \u041e\u0434\u0430\u0493\u044b","official_name:kl":"Kunngeqarfik Australia","official_name:km":"\u1785\u1780\u17d2\u179a\u1797\u1796\u17a2\u17bc\u179f\u17d2\u179a\u17d2\u178f\u17b6\u179b\u17b8","official_name:ko":"\uc624\uc2a4\ud2b8\ub808\uc77c\ub9ac\uc544 \uc5f0\ubc29","official_name:krc":"\u0410\u0432\u0441\u0442\u0440\u0430\u043b\u0438\u044f \u0411\u0438\u0440\u043b\u0438\u043a","official_name:kv":"\u0410\u0432\u0441\u0442\u0440\u0430\u043b\u0438\u044f\u0441\u0430 \u00d6\u0442\u0443\u0432\u044a\u044f\u0431\u0443\u0440","official_name:ky":"\u0410\u0432\u0441\u0442\u0440\u0430\u043b\u0438\u044f\u043b\u044b\u043a \u0411\u0438\u0440\u0438\u043c\u0434\u0438\u043a","official_name:lad":"Mankomunidad de Ostralia","official_name:lb":"Commonwealth of Australia","official_name:lez":"\u0410\u0432\u0441\u0442\u0440\u0430\u043b\u0438\u044f\u0434\u0438\u043d \u0433\u0430\u043b\u043a\u04c0","official_name:lo":"\u0ec0\u0e84\u0eb7\u0ead\u0ea5\u0eb1\u0e94\u0ead\u0ebb\u0e94\u0eaa\u0eb0\u0e95\u0eb0\u0ea3\u0eb2\u0ea5\u0eb5","official_name:lt":"Australijos Sandrauga","official_name:ltg":"Australejis Sadraudzeiba","official_name:lv":"Austr\u0101lijas Savien\u012bba","official_name:lzh":"\u6fb3\u5927\u5229\u4e9e\u806f\u90a6","official_name:mai":"\u0905\u0938\u094d\u091f\u094d\u0930\u0947\u0932\u093f\u092f\u093e\u0932\u0940 \u0930\u093e\u0937\u094d\u091f\u094d\u0930\u092e\u0923\u094d\u0921\u0932","official_name:mg":"Commonwealth an'i Aostralia","official_name:mhr":"\u0410\u0432\u0441\u0442\u0440\u0430\u043b\u0438\u0439 \u0423\u0448\u0435\u043c","official_name:mi":"Whakaminenga o Ahitereiria","official_name:min":"Nagara Persemakmuran Australia","official_name:mk":"\u0414\u0440\u0436\u0430\u0432\u043d\u0430 \u0437\u0430\u0435\u0434\u043d\u0438\u0446\u0430 \u0410\u0432\u0441\u0442\u0440\u0430\u043b\u0438\u0458\u0430","official_name:ml":"\u0d15\u0d4b\u0d2e\u0d7a\u0d35\u0d46\u0d7d\u0d24\u0d4d\u0d24\u0d4d \u0d13\u0d2b\u0d4d \u0d13\u0d38\u0d4d\u0d1f\u0d4d\u0d30\u0d47\u0d32\u0d3f\u0d2f","official_name:mn":"\u04ae\u043d\u0434\u044d\u0441\u0442\u043d\u04af\u04af\u0434\u0438\u0439\u043d \u0445\u043e\u043b\u0431\u043e\u043e\u043d\u044b \u0410\u0432\u0441\u0442\u0440\u0430\u043b\u0438 \u0443\u043b\u0441","official_name:mr":"\u0911\u0938\u094d\u091f\u094d\u0930\u0947\u0932\u093f\u092f\u093e\u091a\u0947 \u0930\u093e\u0937\u094d\u091f\u094d\u0930\u0915\u0941\u0932","official_name:ms":"Komanwel Australia","official_name:mt":"Commonwealth tal-Awstralja","official_name:mwl":"Quemunidade de la Oustr\u00e1lia","official_name:my":"\u1029\u1005\u1010\u103c\u1031\u1038\u101c\u103b \u1013\u1014\u101e\u101f\u102c\u101a\u1014\u102d\u102f\u1004\u103a\u1004\u1036","official_name:mzn":"\u0627\u0633\u062a\u0631\u0627\u0644\u06cc\u0627\u06cc \u0650\u0645\u0634\u062a\u0631\u06a9\u200c\u0627\u0644\u0645\u0646\u0627\u0641\u0639","official_name:nah":"Cem\u0101xc\u0101tlatquiy\u014dtl Australia","official_name:nan":"\u00d2-t\u0101i-l\u012b-a Li\u00e2n-pang","official_name:nap":"Commonwealth 'e ll'Australia","official_name:nds-nl":"Gemenebest van Australi\u00eb","official_name:ne":"\u0905\u0938\u094d\u091f\u094d\u0930\u0947\u0932\u093f\u092f\u093e\u0932\u0940 \u0930\u093e\u0937\u094d\u091f\u094d\u0930\u092e\u0902\u0921\u0932","official_name:nl":"Gemenebest Australi\u00eb","official_name:oc":"Commonwealth d'Austr\u00e0lia","official_name:os":"\u0410\u0432\u0441\u0442\u0440\u0430\u043b\u0438\u0439\u044b \u0426\u00e6\u0434\u0438\u0441","official_name:pa":"\u0a15\u0a4c\u0a2e\u0a28\u0a35\u0a48\u0a32\u0a25 \u0a14\u0a35 \u0a14\u0a38\u0a1f\u0a4d\u0a30\u0a47\u0a32\u0a40\u0a06","official_name:pam":"Commonwealth ning Australia","official_name:pap":"Commonwealth di Australia","official_name:pcd":"Commonwealth d\u2019Australie","official_name:pl":"Zwi\u0105zek Australijski","official_name:pt":"Comunidade da Austr\u00e1lia","official_name:qu":"Awstralya Llaqta Tanta","official_name:rm":"Communitad d'Australia","official_name:ro":"Uniunea Australiei","official_name:roa-tara":"Commonwealth de ll'Australie","official_name:ru":"\u0410\u0432\u0441\u0442\u0440\u0430\u043b\u0438\u0439\u0441\u043a\u0438\u0439 \u0421\u043e\u044e\u0437","official_name:rue":"\u0410\u0432\u0441\u0442\u0440\u0430\u043b\u044c\u0441\u043a\u0456\u0439 \u0421\u043e\u044e\u0437","official_name:sah":"\u0410\u0443\u0441\u0442\u0440\u0430\u043b\u0438\u0430 \u0414\u043e\u0495\u043e\u0440\u0434\u043eh\u0443\u0443\u0442\u0430","official_name:sc":"Commonwealth de Australia","official_name:scn":"Commonwealth of Australia","official_name:sco":"Commonweel o Australie","official_name:sd":"\u0641\u064a\u068a\u0631\u064a\u0634\u0646 \u0622\u0641 \u0622\u0633\u067d\u0631\u064a\u0644\u064a\u0627","official_name:se":"Australia st\u00e1htaidovttastupmi","official_name:sh":"Commonwealth Australija","official_name:si":"\u0d95\u0dc3\u0dca\u0da7\u0dca\u200d\u0dbb\u0dda\u0dbd\u0dd2\u0dba\u0dcf \u0db4\u0ddc\u0daf\u0dd4\u0dbb\u0dcf\u0da2\u0dca\u200d\u0dba\u0db8\u0dab\u0dca\u0da9\u0dbd\u0dd3\u0dba \u0dbb\u0dcf\u0da2\u0dca\u200d\u0dba\u0dba","official_name:sk":"Austr\u00e1lsky zv\u00e4z","official_name:sl":"Avstralska zveza","official_name:sm":"Taupulega o Ausetalia","official_name:sq":"Federata e Australis\u00eb","official_name:sr":"\u041a\u043e\u043c\u043e\u043d\u0432\u0435\u043b\u0442 \u0410\u0443\u0441\u0442\u0440\u0430\u043b\u0438\u0458\u0430","official_name:su":"Persemakmuran Australia","official_name:sv":"Australiska statsf\u00f6rbundet","official_name:sw":"Jumuiya ya Australia","official_name:szl":"Ferajn Australijski","official_name:ta":"\u0baa\u0bca\u0ba4\u0bc1\u0ba8\u0bb2\u0bb5\u0bbe\u0baf \u0b86\u0bb8\u0bcd\u0ba4\u0bbf\u0bb0\u0bc7\u0bb2\u0bbf\u0baf\u0bbe","official_name:te":"\u0c15\u0c3e\u0c2e\u0c28\u0c4d\u0c35\u0c46\u0c32\u0c4d\u0c24\u0c4d \u0c05\u0c2b\u0c4d \u0c06\u0c38\u0c4d\u0c1f\u0c4d\u0c30\u0c47\u0c32\u0c3f\u0c2f\u0c3e","official_name:tet":"Komunidade Austr\u00e1lia nian","official_name:th":"\u0e40\u0e04\u0e23\u0e37\u0e2d\u0e23\u0e31\u0e10\u0e2d\u0e2d\u0e2a\u0e40\u0e15\u0e23\u0e40\u0e25\u0e35\u0e22","official_name:tk":"Awstrali\u00fda So\u00fduzy","official_name:tl":"Komonwelt ng Australia","official_name:tr":"Avustralya Milletler Toplulu\u011fu","official_name:tt":"\u0410\u0432\u0441\u0442\u0440\u0430\u043b\u0438\u044f \u0411\u0435\u0440\u043b\u0435\u0433\u0435","official_name:tyv":"\u0410\u0432\u0441\u0442\u0440\u0430\u043b\u0438\u044f \u042d\u0432\u0438\u043b\u0435\u043b\u0438","official_name:uk":"\u0410\u0432\u0441\u0442\u0440\u0430\u043b\u0456\u0301\u0439\u0441\u044c\u043a\u0438\u0439 \u0421\u043e\u044e\u0301\u0437","official_name:ur":"\u062f\u0648\u0644\u062a \u0645\u0634\u062a\u0631\u06a9\u06c1 \u0622\u0633\u0679\u0631\u06cc\u0644\u06cc\u0627","official_name:uz":"Avstraliya Ittifoqi","official_name:vec":"Comunit\u00e0 indipendente de \u0142a Austra\u0142ia","official_name:vep":"Avstralijan \u00dchti\u0161tuz","official_name:vi":"Th\u1ecbnh v\u01b0\u1ee3ng chung \u00dac","official_name:vro":"Austraalia \u00dctis\u00f5s","official_name:wuu":"\u6fb3\u5927\u5229\u4e9a\u8054\u90a6","official_name:xal":"\u0410\u0432\u0441\u0442\u0440\u0430\u043b\u043c\u0443\u0434\u0438\u043d \u041d\u0438\u0438\u0446\u04d9\u043d","official_name:xmf":"\u10d0\u10d5\u10e1\u10e2\u10e0\u10d0\u10da\u10d8\u10d0\u10e8 \u10e0\u10e1\u10ee\u10e3","official_name:yi":"\u05e7\u05d0\u05de\u05d0\u05e0\u05d5\u05d5\u05e2\u05dc\u05d8 \u05e4\u05d5\u05df \u05d0\u05d5\u05d9\u05e1\u05d8\u05e8\u05d0\u05dc\u05d9\u05e2","official_name:yo":"Or\u00edl\u1eb9\u0300-\u00e8d\u00e8 \u00c0j\u1ecdni il\u1eb9\u0300 Austr\u00e1l\u00ed\u00e0","official_name:yue":"\u6fb3\u5927\u5229\u4e9e\u806f\u90a6","official_name:za":"Audaihleihya Lienzbangh","official_name:zh":"\u6fb3\u5927\u5229\u4e9a\u8054\u90a6 \/ \u6fb3\u5927\u5229\u4e9e\u806f\u90a6","official_name:zh-Hans":"\u6fb3\u5927\u5229\u4e9a\u8054\u90a6","official_name:zh-Hant":"\u6fb3\u5927\u5229\u4e9e\u806f\u90a6","official_name:zu":"lase-Ostreliya","population":"26473055","population:date":"2023-03-31","source:population":"https:\/\/www.abs.gov.au\/statistics\/people\/population\/national-state-and-territory-population\/latest-release","type":"boundary","website":"https:\/\/australia.gov.au","website:tourism":"https:\/\/www.australia.com","wikidata":"Q408","wikipedia":"en:Australia"},"timestamp":1716078538,"representative_point":{"type":"Point","coordinates":[133.35067757333718,-26.7105188]}},"geometry":{"type":"MultiPolygon","coordinates":[[[[167.6910166,-28.9651804],[167.8908856,-29.3309243],[168.2218168,-29.0743073],[167.9747477,-28.7990213],[167.6910166,-28.9651804]]],[[[158.8161118,-31.4469838],[159.090183,-31.9164553],[159.4839623,-31.8875572],[159.2155692,-31.3289751],[158.8161118,-31.4469838]]],[[[158.8245545,-29.4128506],[159.0582489,-29.6839592],[159.3690094,-29.4671183],[159.1431321,-29.2249434],[158.8245545,-29.4128506]]],[[[158.7934787,-29.8978657],[159.0465236,-30.1774414],[159.3527532,-30.0000891],[159.1212457,-29.713531],[158.7934787,-29.8978657]]],[[[158.3278946,-55.1052854],[158.5646966,-55.3123936],[158.9786156,-55.2287675],[158.9463837,-54.9775784],[159.1829376,-54.8419705],[159.3044407,-54.2680616],[159.0166187,-54.1564895],[158.7083546,-54.2458034],[158.4344286,-54.7278215],[158.5325286,-54.9312855],[158.3278946,-55.1052854]]],[[[155.6336806,-17.3002654],[155.7500198,-17.613749],[156.0494748,-17.5359647],[155.9579645,-17.1715243],[155.6336806,-17.3002654]]],[[[155.4977216,-21.2301842],[155.7033396,-21.4806025],[156.0122759,-21.2535749],[155.7441707,-20.8978285],[155.4977216,-21.2301842]]],[[[155.3204533,-23.2070951],[155.505711,-23.4560262],[155.7793962,-23.2769186],[155.5951859,-23.0433955],[155.3204533,-23.2070951]]],[[[154.9461,-22.1307561],[155.2350325,-22.4182357],[155.6972462,-22.1962128],[155.4772552,-21.9642645],[154.9461,-22.1307561]]],[[[154.1375922,-20.9699686],[154.4072182,-21.2250518],[154.6155032,-20.9109794],[154.3693804,-20.7231533],[154.1375922,-20.9699686]]],[[[153.3042639,-21.8056126],[153.3821666,-22.0450356],[153.6689095,-22.1149714],[153.9945874,-21.6415039],[153.7193616,-21.4592808],[153.3042639,-21.8056126]]],[[[112.7040556,-25.5478381],[113.1001573,-26.4948797],[113.8747461,-27.5324098],[113.9695682,-28.1954785],[114.6523004,-29.1919947],[114.7906637,-30.5611746],[115.4704882,-31.7795702],[115.210034,-32.0228341],[115.4306201,-32.235356],[115.441975,-33.1921458],[115.2868752,-33.4341729],[115.0024249,-33.3255046],[114.791224,-33.4345442],[114.7632607,-34.2960377],[115.0652413,-34.6006247],[115.4960458,-34.6259193],[116.0832147,-35.1828749],[117.970657,-35.3798651],[118.6400981,-35.0976805],[119.0036242,-34.689629],[119.7625021,-34.5441742],[119.8094337,-34.2561544],[120.0536724,-34.1571691],[120.9003626,-34.2767854],[121.2536675,-34.0678974],[121.9529952,-34.6716257],[122.8575193,-34.3339095],[123.2859679,-34.3627938],[123.6055679,-34.5706576],[124.3927056,-33.9012332],[124.3902996,-33.6500505],[124.2249585,-33.5251857],[124.3917595,-33.1733191],[126.048698,-32.4763556],[127.3084075,-32.4700576],[129.0985911,-31.8731301],[131.1838554,-31.6906465],[131.674604,-31.9142814],[132.0273031,-32.3274405],[132.8523763,-32.3073554],[133.0171685,-32.8199012],[133.7947424,-32.8975943],[134.3433134,-33.5130781],[134.0546716,-33.6650074],[134.0504691,-34.1333867],[134.3416788,-34.1922475],[134.8037134,-33.8586924],[135.0000271,-34.123342],[134.8884218,-34.4536661],[134.5548532,-34.5502845],[134.5162727,-34.9330393],[135.2895072,-34.9112002],[136.5210076,-36.2298831],[137.0208253,-36.2880999],[137.1058427,-36.5672901],[137.3951567,-36.5548525],[137.8470998,-36.0703271],[138.8832481,-35.7955906],[139.553079,-36.5347286],[139.3441178,-36.9402593],[139.5063689,-37.2695269],[140.4072363,-38.1837982],[140.9459198,-38.2655372],[141.4780065,-38.6265948],[142.4441774,-38.6049934],[143.4859854,-39.0573504],[144.53577,-38.4898505],[144.7807559,-38.6847257],[145.640894,-38.8804227],[146.5203227,-39.6938772],[146.8892069,-39.6058877],[147.0932672,-39.9873087],[147.4228076,-39.963922],[147.7728005,-40.5840852],[146.3065707,-40.9540514],[145.5309613,-40.6402139],[145.0708375,-40.2116986],[144.4276857,-40.2723899],[144.4179684,-39.7575941],[144.1021686,-39.3853112],[143.7176409,-39.3920456],[143.5559722,-39.6491642],[143.655622,-40.2263348],[144.4106204,-40.7136273],[144.3400044,-41.0247526],[144.4892934,-41.47832],[144.9633023,-42.062186],[144.9653639,-42.5675189],[145.2502448,-43.0881275],[145.8592813,-43.7290635],[146.3141072,-43.9380483],[146.6972792,-43.8482459],[146.9483072,-44.0601361],[147.2494582,-43.9658141],[147.2685608,-43.751988],[148.2644008,-43.3128147],[148.6149506,-42.3572294],[148.6207917,-40.9850733],[148.4757162,-40.7229447],[148.765571,-40.4364727],[148.561557,-39.8166591],[148.2905885,-39.7336665],[148.1314465,-39.4669566],[147.2818106,-39.2349654],[146.9398036,-38.8671182],[147.9538156,-38.1134902],[149.5596775,-37.9677783],[150.1975191,-37.6020732],[150.3029606,-37.2647268],[150.1991424,-36.8655203],[150.4763993,-36.2763299],[150.4099908,-35.9770702],[151.0671552,-35.1343044],[151.1759715,-34.3684676],[151.4646049,-34.0928953],[151.953727,-33.0766866],[152.7772463,-32.5271174],[152.7820473,-32.1010673],[153.3286286,-30.9858403],[153.2655445,-30.5509427],[153.6167065,-29.9809005],[153.601686,-29.3332032],[153.8659797,-28.6481645],[153.6570053,-27.980801],[153.708763,-26.9343615],[153.3210388,-26.5036925],[153.4140697,-25.9294004],[153.2998858,-25.6864934],[153.5798871,-25.0203128],[153.4533374,-24.5588781],[152.380299,-24.5274597],[151.9351233,-23.8387835],[151.6182547,-23.7675088],[151.8618086,-23.7270677],[152.6477641,-24.3096312],[152.9345031,-24.167081],[152.019182,-23.0029474],[151.5844629,-23.1179874],[151.5106973,-23.4076106],[151.4105559,-23.3641604],[150.931402,-22.2866409],[150.8986411,-21.8684967],[150.3949466,-21.2554842],[150.4083209,-20.9199938],[149.3576552,-20.4551765],[149.3769875,-20.1654071],[149.081224,-19.8913961],[148.5709137,-19.7868642],[148.3995195,-19.5257638],[148.0462119,-19.6595535],[147.538031,-19.1472628],[147.0449563,-18.9666232],[146.98204,-18.837134],[147.3303321,-18.7125952],[147.4085479,-18.4982936],[146.66224,-17.4689002],[146.294619,-17.4711357],[146.4955464,-17.2675204],[146.5624363,-16.8258567],[145.8123938,-15.8461323],[145.8896514,-14.6229806],[145.6000723,-14.2671116],[144.7398856,-13.7428304],[144.5043288,-13.7408627],[144.1987516,-13.2979225],[143.9941938,-12.6229514],[144.3120576,-11.7764367],[144.2576918,-11.1199386],[143.996069,-11.0006797],[143.5100949,-11.3752324],[143.4623964,-11.2814815],[143.4722875,-11.0936053],[143.8524757,-10.8485907],[143.6977986,-10.2858216],[144.1068674,-10.3301306],[144.4544099,-9.8835565],[144.2623148,-9.5066774],[143.8010777,-9.3651902],[141.8974416,-9.8667448],[141.7046111,-10.6098267],[141.9097268,-11.3450526],[141.3776164,-12.5491628],[141.4419141,-13.2443053],[141.2609381,-13.8880784],[141.4321903,-15.012081],[141.0375205,-16.5072536],[140.6886023,-17.2385413],[140.4833333,-17.1666667],[140.5250234,-17.3690905],[140.0898099,-17.4788823],[139.7634717,-17.3284519],[140.1069854,-16.6648866],[139.8803206,-16.2678536],[139.2289166,-16.0296722],[138.8507173,-16.6260755],[138.2414206,-16.4755846],[137.8663973,-16.0627497],[137.3245887,-15.8207345],[137.0756093,-15.3335913],[136.3493088,-15.2179729],[135.9776879,-14.8836062],[136.1361472,-14.4266356],[136.9160915,-14.6647693],[137.186543,-14.3055301],[137.1716693,-13.5738246],[136.8972163,-13.0101425],[137.1835286,-12.3252163],[136.8706723,-10.8309537],[136.6149723,-10.8349486],[136.3203206,-11.2914184],[135.8413509,-11.4692554],[135.648972,-11.7304745],[135.1700661,-11.4086936],[134.9376352,-11.7162649],[134.4588009,-11.8486769],[134.0048684,-11.5537577],[133.6963901,-11.5441888],[133.542158,-11.276651],[133.2193166,-11.3765622],[133.2449588,-10.8673318],[133.0919084,-10.7080017],[130.7701015,-11.1378484],[130.2740841,-10.8950055],[129.8141492,-11.7494472],[130.1078445,-12.6803436],[129.5493919,-13.6609622],[129.1817614,-13.8397284],[129.2441922,-14.1032953],[129.0814277,-14.4487858],[128.7634017,-14.3722357],[128.5887319,-14.507733],[128.0498382,-14.3328174],[127.3655688,-13.6233007],[126.9351943,-13.47903],[126.3166227,-13.5422481],[125.8433378,-13.238389],[125.580144,-13.4860297],[125.5934593,-13.6953346],[124.7198007,-14.2768695],[124.5511891,-14.7234911],[124.0666162,-15.0012828],[123.8110609,-15.4210482],[123.778226,-15.2000882],[123.5551575,-15.0970597],[122.9327843,-15.2874518],[122.9317876,-15.6415536],[123.2781697,-15.8233063],[122.3561214,-16.7275251],[121.9025284,-16.7315335],[122.0179172,-17.0622089],[121.9418519,-18.1608843],[121.5373393,-18.4369394],[121.3042905,-19.0044058],[120.8804007,-19.4248611],[119.585613,-19.8184525],[119.2701235,-19.7232932],[119.2794248,-19.4629199],[119.0213468,-19.3846795],[118.5907084,-20.0674283],[117.4024047,-20.5011469],[116.8806427,-20.1545993],[116.4948031,-20.2718959],[115.2470988,-20.1183669],[115.0672007,-20.9320514],[114.6401784,-21.3495707],[113.7282699,-21.8394402],[113.4043986,-22.6188655],[113.5517104,-23.3975008],[113.2647188,-23.8303213],[113.1809636,-24.4218828],[112.9384686,-24.7093872],[112.7040556,-25.5478381]]],[[[151.4267106,-21.2687915],[151.5513212,-21.5591106],[151.9692771,-21.5937625],[152.0646252,-22.1067375],[152.4008837,-22.5294714],[152.8996263,-22.4775927],[152.9837046,-22.1336214],[152.7631124,-21.6152757],[152.7796407,-20.8893029],[152.0184112,-20.7416289],[151.8491631,-20.9184097],[151.5387088,-20.9165699],[151.4267106,-21.2687915]]],[[[151.952998,-19.1782237],[152.0781315,-19.4423097],[152.3570292,-19.4837454],[152.5952644,-19.2676863],[152.5868517,-18.9618661],[152.174242,-18.7419655],[151.952998,-19.1782237]]],[[[150.597505,-17.3852294],[150.7176817,-17.8370816],[151.1431203,-17.6468556],[151.4424386,-17.8476296],[152.1798724,-17.525407],[152.3634385,-17.1178821],[152.2090702,-16.928064],[151.8447831,-16.9070567],[151.2838327,-17.3554021],[150.8044521,-17.2234648],[150.597505,-17.3852294]]],[[[151.0284738,-21.7651795],[151.1982626,-22.0158267],[151.4771824,-21.8555779],[151.3020486,-21.6099236],[151.0284738,-21.7651795]]],[[[149.7564297,-16.2539133],[150.2283863,-16.7828397],[150.5278408,-16.7052357],[150.4508025,-16.3772992],[150.1741687,-16.3452962],[150.1185048,-15.9387561],[149.829551,-15.9685567],[149.7564297,-16.2539133]]],[[[149.7001172,-16.9205873],[149.8975092,-17.1750128],[150.2219432,-16.938537],[150.0160105,-16.721248],[149.7001172,-16.9205873]]],[[[149.101816,-19.6976298],[149.1795964,-19.8994912],[149.5994088,-20.0976367],[149.8756894,-19.9241852],[149.9732133,-19.6324103],[149.5755832,-19.3127677],[149.2968381,-19.3973822],[149.101816,-19.6976298]]],[[[149.4126608,-15.6821818],[149.5800143,-15.9258789],[149.8276179,-15.7639507],[149.6622197,-15.5245342],[149.4126608,-15.6821818]]],[[[148.9257896,-16.9166667],[149.1423651,-17.2260181],[149.4215494,-16.9427623],[149.216321,-16.7190712],[148.9257896,-16.9166667]]],[[[148.1287939,-17.5195726],[148.329868,-18.0253195],[148.6934573,-18.000294],[148.8060025,-17.6335888],[148.6960178,-17.3889412],[148.2869613,-17.3767432],[148.1287939,-17.5195726]]],[[[147.600276,-16.4757501],[147.8424905,-16.749935],[148.1816089,-16.6558868],[148.3023158,-16.433194],[148.1850669,-16.2467237],[147.8465988,-16.1819423],[147.600276,-16.4757501]]],[[[144.0802475,-9.3330697],[144.1950982,-9.45427],[144.2906701,-9.4333976],[144.2483621,-9.338006],[144.0802475,-9.3330697]]],[[[143.7899728,-9.1485211],[143.8363339,-9.2231523],[143.9401512,-9.1408649],[143.8781137,-9.0880963],[143.7899728,-9.1485211]]],[[[142.5624131,-9.3723562],[142.5083768,-9.4814207],[142.8511085,-9.3916289],[142.8518855,-9.3783694],[142.746858,-9.3335713],[142.5624131,-9.3723562]]],[[[142.1313043,-9.5241885],[142.2922571,-9.6250992],[142.3885392,-9.5826291],[142.2893961,-9.4980762],[142.1313043,-9.5241885]]],[[[142.3081886,-9.2469466],[142.0938334,-9.2264612],[142.0594404,-9.2604608],[142.0594404,-9.2612379],[142.3081886,-9.2469466]]],[[[141.4866297,-9.510886],[141.5204947,-9.6524866],[141.6055407,-9.6530539],[141.6444678,-9.4668957],[141.4866297,-9.510886]]],[[[141.3653509,-9.8099302],[141.4054381,-9.8803218],[141.4872523,-9.8273473],[141.4440798,-9.7702651],[141.3653509,-9.8099302]]],[[[123.3327421,-12.502635],[123.5228692,-12.7468467],[123.7847948,-12.5552001],[123.5873298,-12.3251338],[123.3327421,-12.502635]]],[[[123.3360176,-14.0662096],[123.5104038,-14.3179945],[123.7589604,-14.1515562],[123.5908975,-13.9040401],[123.3360176,-14.0662096]]],[[[122.7302503,-12.1869472],[122.9954599,-12.4957379],[123.2431193,-12.4699236],[123.359532,-12.2726966],[123.0920207,-11.9756388],[122.7302503,-12.1869472]]],[[[121.5108279,-14.1298498],[121.7391918,-14.3998658],[122.1049787,-14.283594],[122.2601262,-13.7053407],[122.1744187,-13.4995496],[121.8457785,-13.4861238],[121.5108279,-14.1298498]]],[[[118.6819373,-17.5508278],[118.7688029,-17.7957308],[119.0177968,-17.8463483],[119.1831719,-17.5228987],[119.5316513,-17.5123926],[119.5672065,-17.2000375],[119.2623288,-17.0585688],[119.105068,-17.3542933],[118.8553355,-17.3156304],[118.6819373,-17.5508278]]],[[[113.3513303,-28.2475526],[113.6555023,-29.0378285],[114.1195445,-29.1340354],[114.2688017,-28.7730927],[113.9988221,-28.3419865],[113.6175532,-28.0683421],[113.3513303,-28.2475526]]],[[[105.3347278,-10.4665629],[105.6456971,-10.7714063],[105.9158048,-10.4683027],[105.7016377,-10.2114751],[105.3347278,-10.4665629]]],[[[96.6209982,-11.7769787],[96.6482406,-12.2959992],[97.0352849,-12.3672821],[97.1343811,-12.1660346],[96.9955866,-11.7084422],[96.783539,-11.6251482],[96.6209982,-11.7769787]]],[[[72.2521091,-52.9836792],[72.4243116,-53.2212624],[72.951669,-53.0849241],[73.1340578,-53.3254437],[73.4656623,-53.3938245],[74.2041837,-53.1174258],[73.5960987,-52.7038015],[72.926574,-52.950606],[72.5477641,-52.8218331],[72.2521091,-52.9836792]]]]}}