{"type":"Feature","properties":{"tags":{"ISO3166-1":"BB","ISO3166-1:alpha2":"BB","ISO3166-1:alpha3":"BRB","ISO3166-1:numeric":"052","admin_level":"2","alt_name:ckb":"\u0628\u0627\u0631\u0628\u0627\u062f\u06c6\u0633","alt_name:eo":"Barbadoso","alt_name:jv":"Barbados","alt_name:la":"Barabata","alt_name:sk":"Barbudos","alt_name:ta":"\u0baa\u0bbe\u0bb0\u0bcd\u0baa\u0b9f\u0bcb\u0bb8\u0bcd","boundary":"administrative","default_language":"en","driving_side":"left","flag":"http:\/\/upload.wikimedia.org\/wikipedia\/commons\/e\/ef\/Flag_of_Barbados.svg","name":"Barbados","name:af":"Barbados","name:ak":"Baabados","name:als":"Barbados","name:am":"\u1263\u122d\u1264\u12f6\u1235","name:an":"Barbados","name:ang":"Barbados","name:ar":"\u0628\u0631\u0628\u0627\u062f\u0648\u0633","name:arz":"\u0628\u0627\u0631\u0628\u064a\u062f\u0648\u0633","name:ast":"Barbados","name:ay":"Barbados","name:az":"Barbados","name:azb":"\u0628\u0627\u0631\u0628\u0627\u062f\u0648\u0633","name:ba":"\u0411\u0430\u0440\u0431\u0430\u0301\u0434\u043e\u0441","name:bar":"Barbados","name:bat-smg":"Barbaduosos","name:bcl":"Barbados","name:be":"\u0411\u0430\u0440\u0431\u0430\u0434\u0430\u0441","name:be-tarask":"\u0411\u0430\u0440\u0431\u0430\u0434\u0430\u0441","name:bg":"\u0411\u0430\u0440\u0431\u0430\u0434\u043e\u0441","name:bm":"Barbadi","name:bn":"\u09ac\u09be\u09b0\u09ac\u09be\u09a6\u09cb\u09b8","name:bo":"\u0f56\u0f71\u0f62\u0fa6\u0f0b\u0f4c\u0f7c\u0f66\u0f84\u0f0d","name:bpy":"\u09ac\u09be\u09b0\u09cd\u09ac\u09be\u09a1\u09cb\u09b8","name:br":"Barbados","name:bs":"Barbados","name:bxr":"\u0411\u0430\u0440\u0431\u0430\u0301\u0434\u043e\u0441","name:ca":"Barbados","name:cbk-zam":"Barbados","name:cdo":"Barbados","name:ce":"\u0411\u0430\u0440\u0431\u0430\u0434\u043e\u0441","name:ceb":"Barbados","name:chr":"\u13c6\u13c7\u13d9\u13cd","name:ckb":"\u0628\u0627\u0631\u0628\u0627\u062f\u06c6\u0633","name:crh":"Barbados","name:cs":"Barbados","name:cy":"Barbados","name:da":"Barbados","name:de":"Barbados","name:diq":"Barbados","name:dsb":"Barbados","name:dty":"\u092c\u093e\u0930\u094d\u092c\u093e\u0921\u094b\u0938","name:dv":"\u0784\u07a7\u0784\u07a6\u0791\u07ae\u0790\u07b0","name:dz":"\u0f56\u0fb7\u0f62\u0f0b\u0f56\u0f7a\u0f0b\u0f4c\u0f7c\u0f66","name:ee":"Barbados nutome","name:el":"\u039c\u03c0\u03b1\u03c1\u03bc\u03c0\u03ac\u03bd\u03c4\u03bf\u03c2","name:en":"Barbados","name:eo":"Barbado","name:es":"Barbados","name:et":"Barbados","name:eu":"Barbados","name:ext":"Barbaus","name:fa":"\u0628\u0627\u0631\u0628\u0627\u062f\u0648\u0633","name:ff":"Barbadoos","name:fi":"Barbados","name:fo":"Barbados","name:fr":"Barbade","name:frp":"Barb\u00e2da","name:frr":"Barbados","name:fy":"Barbados","name:ga":"Barbad\u00f3s","name:gag":"Barbados","name:gd":"Barbados","name:gl":"Barbados","name:gn":"Varvado","name:gom":"\u092c\u093e\u0930\u094d\u092c\u093e\u0921\u094b\u0938","name:gu":"\u0aac\u0abe\u0ab0\u0acd\u0aac\u0abe\u0aa1\u0acb\u0ab8","name:gv":"Barbados","name:ha":"Barbadas","name:hak":"Barbados","name:he":"\u05d1\u05e8\u05d1\u05d3\u05d5\u05e1","name:hi":"\u092c\u093e\u0930\u092c\u093e\u0921\u094b\u0938","name:hif":"Barbados","name:hr":"Barbados","name:hsb":"Barbados","name:ht":"Lababad","name:hu":"Barbados","name:hy":"\u0532\u0561\u0580\u0562\u0561\u0564\u0578\u057d","name:ia":"Barbados","name:id":"Barbados","name:ie":"Barbados","name:ig":"Barbados","name:ilo":"Barbados","name:io":"Barbados","name:is":"Barbados","name:it":"Barbados","name:ja":"\u30d0\u30eb\u30d0\u30c9\u30b9","name:jam":"Baabiedoz","name:jbo":"barbados","name:jv":"Barbadhos","name:ka":"\u10d1\u10d0\u10e0\u10d1\u10d0\u10d3\u10dd\u10e1\u10d8","name:kaa":"Barbados","name:kab":"Barbadus","name:ki":"Babadosi","name:kk":"\u0411\u0430\u0440\u0431\u0430\u0434\u043e\u0441","name:km":"\u1794\u17b6\u179a\u1794\u17b6\u178a\u17bc\u179f","name:kn":"\u0cac\u0cbe\u0cb0\u0ccd\u0cac\u0ca1\u0ccb\u0cb8\u0ccd","name:ko":"\ubc14\ubca0\uc774\ub3c4\uc2a4","name:ks":"\u0628\u0627\u0631\u0628\u06cc\u0688\u0627\u0633","name:ksh":"de Ensel Barbados","name:ku":"Barbados","name:kv":"\u0411\u0430\u0440\u0431\u0430\u0434\u043e\u0441","name:kw":"Barbados","name:ky":"\u0411\u0430\u0440\u0431\u0430\u0434\u043e\u0441","name:la":"Barbata","name:lad":"Barbados","name:lb":"Barbados","name:lfn":"Barbados","name:lg":"Barabadosi","name:li":"Barbados","name:lij":"Barbados","name:lmo":"Barbados","name:ln":"Bar\u025bbad\u025b","name:lo":"\u0e9a\u0ea3\u0eb2\u0e9a\u0eb2\u0e94\u0eb1\u0ead\u0e94","name:lt":"Barbadosas","name:lv":"Barbadosa","name:mdf":"\u0411\u0430\u0440\u0431\u0430\u0434\u043e\u0441","name:mg":"Barbady","name:mhr":"\u0411\u0430\u0440\u0431\u0430\u0434\u043e\u0441","name:mk":"\u0411\u0430\u0440\u0431\u0430\u0434\u043e\u0441","name:ml":"\u0d2c\u0d3e\u0d7c\u0d2c\u0d21\u0d4b\u0d38\u0d4d","name:mn":"\u0411\u0430\u0440\u0431\u0430\u0434\u043e\u0441","name:mr":"\u092c\u093e\u0930\u094d\u092c\u093e\u0921\u094b\u0938","name:mrj":"\u0411\u0430\u0440\u0431\u0430\u0434\u043e\u0441","name:ms":"Barbados","name:mt":"Barbados","name:my":"\u1018\u102c\u1018\u1031\u1038\u1012\u102d\u102f\u1038\u1005\u103a\u1014\u102d\u102f\u1004\u103a\u1004\u1036","name:mzn":"\u0628\u0627\u0631\u0628\u0627\u062f\u0648\u0633","name:na":"Barbadot","name:nah":"Barbados","name:nan":"Barbados","name:nb":"Barbados","name:nds":"Barbados","name:ne":"\u092c\u093e\u0930\u094d\u092c\u093e\u0921\u094b\u0938","name:new":"\u092c\u093e\u0930\u094d\u092c\u093e\u0921\u094b\u0938","name:nl":"Barbados","name:nn":"Barbados","name:no":"Barbados","name:nov":"Barbados","name:oc":"Barbados","name:olo":"Barbados","name:om":"Baarbeedoos","name:or":"\u0b2c\u0b3e\u0b30\u0b2c\u0b3e\u0b21\u0b4b\u0b38\u0b4d","name:os":"\u0411\u0430\u0440\u0431\u0430\u0434\u043e\u0441","name:pa":"\u0a2c\u0a3e\u0a30\u0a2c\u0a3e\u0a21\u0a4b\u0a38","name:pam":"Barbados","name:pap":"Barbados","name:pi":"\u092c\u093e\u0930\u094d\u092c\u093e\u0921\u094b\u0938","name:pih":"Barbados","name:pl":"Barbados","name:pms":"Barbados","name:pnb":"\u0628\u0627\u0631\u0628\u0627\u062f\u0648\u0633","name:ps":"\u0628\u0627\u0631\u0628\u0627\u0689\u0648\u0633","name:pt":"Barbados","name:rm":"Barbados","name:rn":"Barubadosi","name:ro":"Barbados","name:ru":"\u0411\u0430\u0440\u0431\u0430\u0434\u043e\u0441","name:rue":"\u0411\u0430\u0440\u0431\u0430\u0434\u043e\u0441","name:rw":"Barubadosi","name:sa":"\u092c\u093e\u0930\u094d\u092c\u093e\u0921\u094b\u0938","name:sah":"\u0411\u0430\u0440\u0431\u0430\u0434\u043e\u0441","name:scn":"Barbados","name:sco":"Barbados","name:se":"Barbados","name:sg":"Barab\u00e2da","name:sh":"Barbados","name:si":"\u0db6\u0dcf\u0dbb\u0dca\u0db6\u0da9\u0ddd\u0dc3\u0dca","name:sk":"Barbados","name:sl":"Barbados","name:smn":"Barbados","name:sms":"Barbados","name:sn":"Barbados","name:so":"Baarbadoos","name:sq":"Barbadosi","name:sr":"\u0411\u0430\u0440\u0431\u0430\u0434\u043e\u0441","name:ss":"iBhadosi","name:su":"Barbados","name:sv":"Barbados","name:sw":"Babadosi","name:szl":"Barbados","name:ta":"\u0baa\u0bbe\u0bb0\u0bcd\u0baa\u0b9f\u0bcb\u0bb8\u0bcd","name:te":"\u0c2c\u0c3e\u0c30\u0c4d\u0c2c\u0c21\u0c4b\u0c38\u0c4d","name:tet":"Barbadus","name:tg":"\u0411\u0430\u0440\u0431\u00e1\u0434\u043e\u0441","name:th":"\u0e1b\u0e23\u0e30\u0e40\u0e17\u0e28\u0e1a\u0e32\u0e23\u0e4c\u0e40\u0e1a\u0e42\u0e14\u0e2a","name:ti":"\u1263\u122d\u1264\u12f6\u1235","name:tl":"Barbados","name:to":"P\u0101peitosi","name:tok":"ma Papeto","name:tr":"Barbados","name:tt":"\u0411\u0430\u0440\u0431\u0430\u0434\u043e\u0441","name:tzl":"Barviada","name:ug":"\u0628\u0627\u0631\u0628\u0627\u062f\u0648\u0633","name:uk":"\u0411\u0430\u0440\u0431\u0430\u0434\u043e\u0441","name:ur":"\u0628\u0627\u0631\u0628\u0627\u062f\u0648\u0633","name:uz":"Barbados","name:vec":"Barbados","name:vep":"Barbados","name:vi":"Barbados","name:vo":"Barbade\u00e4n","name:vro":"Barbados","name:wa":"Barb\u00e5de","name:war":"Barbados","name:wo":"Barbados","name:wuu":"\u5df4\u5df4\u591a\u65af","name:xal":"\u0411\u0430\u0440\u0431\u0430\u0434\u043e\u0441\u0438\u043d \u041e\u0440\u043d","name:xmf":"\u10d1\u10d0\u10e0\u10d1\u10d0\u10d3\u10dd\u10e1\u10d8","name:yi":"\u05d1\u05d0\u05b7\u05e8\u05d1\u05d0\u05b7\u05d3\u05d0\u05e1","name:yo":"Or\u00edl\u1eb9\u0301\u00e8de B\u00e1b\u00e1d\u00f3s\u00ec","name:yue":"\u5df4\u5df4\u591a\u65af","name:zea":"Barbados","name:zh":"\u5df4\u5df4\u591a\u65af","name:zh-Hans":"\u5df4\u5df4\u591a\u65af","name:zh-Hant":"\u5df4\u8c9d\u591a","name:zu":"i-Barbados","timezone":"America\/Barbados","type":"boundary","wikidata":"Q244","wikipedia":"en:Barbados"},"timestamp":1716078538,"representative_point":{"type":"Point","coordinates":[-59.53342165,13.190000000000001]}},"geometry":{"type":"Polygon","coordinates":[[[-59.8562115,13.308],[-59.8124156,13.006],[-59.6057424,12.86],[-59.2292067,13.072],[-59.5371083,13.521],[-59.8562115,13.308]]]}}