{"type":"Feature","properties":{"tags":{"ISO3166-1":"BD","ISO3166-1:alpha2":"BD","ISO3166-1:alpha3":"BGD","ISO3166-1:numeric":"050","admin_level":"2","alt_name:ast":"Bangladesh","alt_name:ceb":"Bangglades","alt_name:jv":"Banggalad\u00e9sa","alt_name:ku":"Banglade\u015f","alt_name:la":"Bangladesa","alt_name:ln":"B\u00e1nglad\u025b\u0301sh","alt_name:pt":"Bangladexe","alt_name:qu":"Bangladesh","alt_name:ro":"Banglade\u0219","alt_name:so":"Bangladesh","alt_name:sw":"Bangla Desh","alt_name:zh":"\u5b5f\u52a0\u62c9","boundary":"administrative","default_language":"bn","driving_side":"left","flag":"http:\/\/upload.wikimedia.org\/wikipedia\/commons\/f\/f9\/Flag_of_Bangladesh.svg","int_name":"Bangladesh","name":"\u09ac\u09be\u0982\u09b2\u09be\u09a6\u09c7\u09b6","name:ace":"Banglad\u00e8sh","name:ady":"\u0411\u0430\u043d\u0433\u043b\u0430\u0434\u0435\u0448","name:af":"Bangladesj","name:ak":"Banglad\u025bhye","name:als":"Bangladesch","name:am":"\u1263\u1295\u130d\u120b\u12f4\u123d","name:an":"Bangladesh","name:ang":"B\u00e6ngladesc","name:ar":"\u0628\u0646\u063a\u0644\u0627\u062f\u064a\u0634","name:arz":"\u0628\u0627\u0646\u062c\u0644\u0627\u062f\u064a\u0634","name:as":"\u09ac\u09be\u0982\u09b2\u09be\u09a6\u09c7\u09b6","name:ast":"Bangladex","name:az":"Banqlade\u015f","name:azb":"\u0628\u0646\u0642\u0644\u0627\u062f\u0634","name:ba":"\u0411\u0430\u043d\u0433\u043b\u0430\u0434\u0435\u0301\u0448","name:bar":"Bangladesch","name:bat-smg":"Banglade\u0161os","name:bcl":"Banglades","name:be":"\u0411\u0430\u043d\u0433\u043b\u0430\u0434\u044d\u0301\u0448","name:be-tarask":"\u0411\u0430\u043d\u0433\u043b\u044f\u0434\u044d\u0301\u0448","name:bg":"\u0411\u0430\u043d\u0433\u043b\u0430\u0434\u0435\u0448","name:bh":"\u092c\u093e\u0902\u0917\u094d\u0932\u093e\u0926\u0947\u0936","name:bi":"Bangladesh","name:bjn":"Banglad\u00e9sh","name:bm":"B\u025bngilad\u025bsi","name:bn":"\u09ac\u09be\u0982\u09b2\u09be\u09a6\u09c7\u09b6","name:bo":"\u0f56\u0fb7\u0f44\u0f0b\u0f63\u0f0b\u0f62\u0fa1\u0f7a\u0f0b\u0f64\u0f74\u0f0d","name:bpy":"\u09ac\u09be\u0982\u09b2\u09be\u09a6\u09c7\u09b6\u09c7\u09b0","name:br":"Bangladesh","name:bs":"Banglade\u0161","name:bxr":"\u0411\u0430\u043d\u0433\u043b\u0430\u0434\u0435\u0448","name:ca":"Bangla Desh","name:cbk-zam":"Bangladesh","name:cdo":"M\u00e2ing-g\u0103-l\u0103k","name:ce":"\u0411\u0430\u043d\u0433\u043b\u0430\u0434\u0435\u0448","name:ceb":"Bangladesh","name:chr":"\u13c6\u13c2\u13a6\u13b5\u13d5\u13cd","name:ckb":"\u0628\u06d5\u0646\u06af\u0644\u0627\u062f\u06ce\u0634","name:co":"Bangladesh","name:crh":"Banglade\u015f","name:cs":"Banglad\u00e9\u0161","name:csb":"Bangladesz","name:cv":"\u0411\u0430\u043d\u0433\u043b\u0430\u0434\u0435\u0448","name:cy":"Bangladesh","name:da":"Bangladesh","name:de":"Bangladesch","name:din":"Ba\u014bg\u025bl\u00e4dic","name:diq":"Benglade\u015f","name:dsb":"Banglade\u0161","name:dty":"\u092c\u0902\u0917\u0932\u093e\u0926\u0947\u0936","name:dv":"\u0784\u07a6\u0782\u07b0\u078e\u07a7\u0785\u07aa","name:dz":"\u0f56\u0f44\u0f92\u0f0b\u0f63\u0f0b\u0f51\u0f7a\u0f64","name:el":"\u039c\u03c0\u03b1\u03bd\u03b3\u03ba\u03bb\u03b1\u03bd\u03c4\u03ad\u03c2","name:en":"Bangladesh","name:eo":"Banglade\u015do","name:es":"Banglad\u00e9s","name:et":"Bangladesh","name:eu":"Bangladesh","name:ext":"Bangladesh","name:fa":"\u0628\u0646\u06af\u0644\u0627\u062f\u0634","name:ff":"Banglaadees","name:fi":"Bangladesh","name:fo":"Bangladesj","name:fr":"Bangladesh","name:frp":"Bangllad\u00e8ch\u00b7e","name:frr":"Bangladesch","name:fur":"Bangladesh","name:fy":"Bangladesj","name:ga":"an Bhanglaid\u00e9is","name:gag":"Banglade\u015f","name:gan":"\u5b5f\u52a0\u62c9","name:gd":"Bangladais","name:gl":"Bangladesh","name:gn":"Vangylad\u1ebd","name:gom":"\u092c\u093e\u0902\u0917\u0932\u093e\u0926\u0947\u0936","name:gu":"\u0aac\u0abe\u0a82\u0a97\u0acd\u0ab2\u0abe\u0aa6\u0ac7\u0ab6","name:gv":"yn Vangladesh","name:ha":"Bangladash","name:hak":"Men-k\u00e2-l\u00e2-koet","name:haw":"Banagaladesa","name:he":"\u05d1\u05e0\u05d2\u05dc\u05d3\u05e9","name:hi":"\u092c\u093e\u0902\u0917\u094d\u0932\u093e\u0926\u0947\u0936","name:hif":"Bangladesh","name:hr":"Banglade\u0161","name:hsb":"Banglade\u0161","name:ht":"Banglad\u00e8ch","name:hu":"Banglades","name:hy":"\u0532\u0561\u0576\u0563\u056c\u0561\u0564\u0565\u0577","name:ia":"Bangladesh","name:id":"Bangladesh","name:ie":"Bangladesh","name:ilo":"Banglades","name:io":"Bangladesh","name:is":"Bangladess","name:it":"Bangladesh","name:ja":"\u30d0\u30f3\u30b0\u30e9\u30c7\u30b7\u30e5","name:jam":"Banggladesh","name:jbo":"begy'gu'e","name:jv":"Banglad\u00e8sh","name:ka":"\u10d1\u10d0\u10dc\u10d2\u10da\u10d0\u10d3\u10d4\u10e8\u10d8","name:kaa":"Bangladesh","name:kab":"Bangladec","name:kbp":"Pa\u014bg\u0269lad\u025b\u025bs\u0269","name:kg":"Bangladesh","name:ki":"Bangladesh","name:kk":"\u0411\u0430\u043d\u0433\u043b\u0430\u0434\u0435\u0448","name:kl":"Bangladesh","name:km":"\u1794\u1784\u17cb\u1780\u17d2\u179b\u17b6\u178a\u17c2\u179f\u17d2\u179f","name:kn":"\u0cac\u0cbe\u0c82\u0c97\u0ccd\u0cb2\u0cbe\u0ca6\u0cc7\u0cb6","name:ko":"\ubc29\uae00\ub77c\ub370\uc2dc","name:krc":"\u0411\u0430\u043d\u0433\u043b\u0430\u0434\u0435\u0448","name:ks":"\u0628\u064e\u0646\u065b\u06af\u0644\u0627\u062f\u06cc\u0634","name:ksh":"Bangladesch","name:ku":"Bengalistan","name:kv":"\u0411\u0430\u043d\u0433\u043b\u0430\u0434\u0435\u0448","name:kw":"Bangladesh","name:ky":"\u0411\u0430\u04a3\u0433\u043b\u0430\u0434\u0435\u0448","name:la":"Bangladesia","name:lad":"Bangladesh","name:lb":"Bangladesch","name:lez":"\u0411\u0430\u043d\u0433\u043b\u0430\u0434\u0435\u0448","name:lg":"Bangaladesi","name:li":"Bangladesj","name:lij":"Bangladesh","name:lmo":"Bangladesh","name:ln":"B\u00e1ngalad\u025b\u0301si","name:lo":"\u0e9a\u0eb1\u0e87\u0e81\u0eb0\u0ea5\u0eb2\u0ec0\u0e97\u0e94","name:lrc":"\u0628\u0623\u0646\u06af\u0626\u0644\u0627\u062f\u0626\u0634","name:lt":"Banglade\u0161as","name:lv":"Banglade\u0161a","name:lzh":"\u5b5f\u52a0\u62c9\u570b","name:mai":"\u092c\u0902\u0917\u0932\u093e\u0926\u0947\u0936","name:mg":"Bangladesy","name:mi":"P\u0101karat\u0113hi","name:mk":"\u0411\u0430\u043d\u0433\u043b\u0430\u0434\u0435\u0448","name:ml":"\u0d2c\u0d02\u0d17\u0d4d\u0d32\u0d3e\u0d26\u0d47\u0d36\u0d4d","name:mn":"\u0411\u0430\u043d\u0433\u043b\u0430\u0434\u0435\u0448","name:mr":"\u092c\u093e\u0902\u0917\u0932\u093e\u0926\u0947\u0936","name:ms":"Bangladesh","name:mt":"Bangladexx","name:my":"\u1018\u1004\u103a\u1039\u1002\u101c\u102c\u1038\u1012\u1031\u1037\u101b\u103e\u103a\u1014\u102d\u102f\u1004\u103a\u1004\u1036","name:mzn":"\u0628\u0646\u06af\u0644\u0627\u062f\u0634","name:na":"Bangradet","name:nah":"Bangladex","name:nan":"Bangladesh","name:nds":"Bangladesch","name:ne":"\u092c\u0902\u0917\u0932\u093e\u0926\u0947\u0936","name:new":"\u092c\u0902\u0917\u0932\u093e\u0926\u0947\u0936","name:nl":"Bangladesh","name:nn":"Bangladesh","name:no":"Bangladesh","name:nov":"Bangladesh","name:nv":"Bik\u00e9yah","name:oc":"Banglad\u00e8sh","name:olo":"Banglade\u0161","name:om":"Baangilaadish","name:or":"\u0b2c\u0b19\u0b4d\u0b17\u0b33\u0b3e\u0b26\u0b47\u0b36","name:os":"\u0411\u0430\u043d\u0433\u043b\u0430\u0434\u0435\u0448","name:pa":"\u0a2c\u0a70\u0a17\u0a32\u0a3e\u0a26\u0a47\u0a38\u0a3c","name:pam":"Banglades","name:pap":"Bangladesh","name:pi":"\u092c\u0902\u0917\u0932\u093e\u0926\u0947\u0936","name:pih":"Bangladash","name:pl":"Bangladesz","name:pms":"Bangladesh","name:pnb":"\u0628\u0646\u06af\u0644\u06c1 \u062f\u06cc\u0634","name:ps":"\u0628\u0646\u06ab\u0644\u0647 \u062f\u06d0\u0634","name:pt":"Bangladeche","name:qu":"Banladish","name:rm":"Bangladesch","name:rn":"Bangaladeshi","name:ro":"Bangladesh","name:roa-rup":"Bangladesh","name:roa-tara":"Bangladesh","name:ru":"\u0411\u0430\u043d\u0433\u043b\u0430\u0434\u0435\u0448","name:rue":"\u0411\u0430\u043d\u0491\u043b\u0430\u0434\u0435\u0448","name:rw":"Bangaladeshi","name:sa":"\u092c\u0902\u0917\u0932\u093e\u0926\u0947\u0936\u0903","name:sah":"\u0411\u0430\u04a5\u043b\u0430\u0434\u0435\u0448","name:scn":"Bangladesci","name:sco":"Bangladesh","name:sd":"\u0628\u0646\u06af\u0644\u0627\u062f\u064a\u0634","name:se":"Bangladesh","name:sg":"Benglad\u00eashi","name:sh":"Banglade\u0161","name:si":"\u0db6\u0d82\u0d9c\u0dbd\u0dcf\u0daf\u0dda\u0dc1\u0dba","name:sk":"Banglad\u00e9\u0161","name:sl":"Banglade\u0161","name:smn":"Bangladesh","name:sms":"Banglade\u0161","name:sn":"Bangladeshi","name:so":"Bangladhesh","name:sq":"Bangladeshi","name:sr":"\u0411\u0430\u043d\u0433\u043b\u0430\u0434\u0435\u0448","name:ss":"iBhangladeshi","name:stq":"Bangladesch","name:su":"Banglad\u00e9s","name:sv":"Bangladesh","name:sw":"Bangladesh","name:szl":"Bangladesz","name:ta":"\u0bb5\u0b99\u0bcd\u0b95\u0bbe\u0bb3\u0ba4\u0bcd\u0ba4\u0bc7\u0b9a\u0bae\u0bcd","name:te":"\u0c2c\u0c02\u0c17\u0c4d\u0c32\u0c3e\u0c26\u0c47\u0c36\u0c4d","name:tet":"Bangladexe","name:tg":"\u0411\u0430\u043d\u0433\u043b\u0430\u0434\u0435\u0448","name:th":"\u0e1a\u0e31\u0e07\u0e01\u0e25\u0e32\u0e40\u0e17\u0e28","name:ti":"\u1263\u1295\u130d\u120b\u12f2\u123d","name:tk":"Banglade\u015f","name:tl":"Bangglades","name:to":"Pengil\u0101tesi","name:tok":"ma Panla","name:tpi":"Bangladesh","name:tr":"Banglade\u015f","name:tt":"\u0411\u0430\u043d\u0433\u043b\u0430\u0434\u0435\u0448","name:tum":"Bangladesh","name:tzl":"Banglad\u00e9sch","name:udm":"\u0411\u0430\u043d\u0433\u043b\u0430\u0434\u0435\u0448","name:ug":"\u0628\u0627\u0646\u06af\u0644\u0627\u062f\u06d0\u0634","name:uk":"\u0411\u0430\u043d\u0491\u043b\u0430\u0434\u0435\u0301\u0448","name:ur":"\u0628\u0646\u06af\u0644\u06c1 \u062f\u06cc\u0634","name:uz":"Bangladesh","name:ve":"Bangladesh","name:vec":"Bangladesh","name:vep":"Banglade\u0161","name:vi":"B\u0103ng-la-\u0111\u00e9t","name:vo":"Bangladej\u00e4n","name:vro":"Bangladesh","name:war":"Bangladesh","name:wo":"Banglaades","name:wuu":"\u5b5f\u52a0\u62c9\u56fd","name:xal":"\u0411\u0435\u043d\u0433\u0430\u043b\u043c\u0443\u0434\u0438\u043d","name:xmf":"\u10d1\u10d0\u10dc\u10d2\u10da\u10d0\u10d3\u10d4\u10e8\u10d8","name:yi":"\u05d1\u05d0\u05e0\u05d2\u05dc\u05d0\u05d3\u05e2\u05e9","name:yo":"Banglad\u1eb9\u0301sh\u00ec","name:yue":"\u5b5f\u52a0\u62c9\u570b","name:za":"Bangladesh","name:zea":"Bangladesh","name:zh":"\u5b5f\u52a0\u62c9\u56fd \/ \u5b5f\u52a0\u62c9","name:zh-Hans":"\u5b5f\u52a0\u62c9\u56fd","name:zh-Hant":"\u5b5f\u52a0\u62c9","name:zh-Latn-pinyin":"M\u00e8ngji\u0101l\u0101gu\u00f3","name:zu":"Bangladesh","official_name":"\u0997\u09a3\u09aa\u09cd\u09b0\u099c\u09be\u09a4\u09a8\u09cd\u09a4\u09cd\u09b0\u09c0 \u09ac\u09be\u0982\u09b2\u09be\u09a6\u09c7\u09b6","official_name:ady":"Volksrepubliek van Bangladesj","official_name:als":"Volksrepublik Bangladesch","official_name:am":"\u1263\u1295\u130d\u120b\u12f4\u123d \u1215\u12dd\u1263\u12ca \u122a\u1350\u1265\u120a\u12ad","official_name:an":"Republica Popular de Bangladesh de Delwar Hasib","official_name:ar":"\u062c\u0645\u0647\u0648\u0631\u064a\u0629 \u0628\u0646\u063a\u0644\u0627\u062f\u064a\u0634 \u0627\u0644\u0634\u0639\u0628\u064a\u0629","official_name:as":"\u0997\u09a3\u09aa\u09cd\u09f0\u099c\u09be\u09a4\u09a8\u09cd\u09a4\u09cd\u09f0\u09c0 \u09ac\u09be\u0982\u09b2\u09be\u09a6\u09c7\u09b6","official_name:ast":"Rep\u00fablica Popular de Bangladex","official_name:az":"Banqlade\u015f Xalq Respublikas\u0131","official_name:azb":"\u0628\u0646\u0642\u0644\u0627\u062f\u0634 \u062e\u0627\u0644\u0642 \u062c\u0648\u0645\u0647\u0648\u0631\u06cc\u062a\u06cc","official_name:ba":"\u0411\u0430\u043d\u0433\u043b\u0430\u0434\u0435\u0301\u0448 \u0425\u0430\u043b\u044b\u04a1 \u0420\u0435\u0441\u043f\u0443\u0431\u043b\u0438\u043a\u0430\u04bb\u044b","official_name:bar":"Volksrepublik Bangladesch","official_name:be":"\u041d\u0430\u0440\u043e\u0301\u0434\u043d\u0430\u044f \u0420\u044d\u0441\u043f\u0443\u0301\u0431\u043b\u0456\u043a\u0430 \u0411\u0430\u043d\u0433\u043b\u0430\u0434\u044d\u0301\u0448","official_name:be-tarask":"\u041d\u0430\u0440\u043e\u0301\u0434\u043d\u0430\u044f \u0420\u044d\u0441\u043f\u0443\u0301\u0431\u043b\u0456\u043a\u0430 \u0411\u0430\u043d\u0433\u043b\u044f\u0434\u044d\u0301\u0448","official_name:bg":"\u041d\u0430\u0440\u043e\u0434\u043d\u0430 \u0440\u0435\u043f\u0443\u0431\u043b\u0438\u043a\u0430 \u0411\u0430\u043d\u0433\u043b\u0430\u0434\u0435\u0448","official_name:bh":"\u092a\u0940\u092a\u0932\u094d\u0938 \u0930\u093f\u092a\u092c\u094d\u0932\u093f\u0915 \u0911\u092b \u092c\u093e\u0902\u0917\u094d\u0932\u093e\u0926\u0947\u0936","official_name:bjn":"Ripublik Rakyat Bangladesh","official_name:bn":"\u0997\u09a3\u09aa\u09cd\u09b0\u099c\u09be\u09a4\u09a8\u09cd\u09a4\u09cd\u09b0\u09c0 \u09ac\u09be\u0982\u09b2\u09be\u09a6\u09c7\u09b6","official_name:bo":"\u0f56\u0fb7\u0f44\u0f0b\u0f63\u0f0b\u0f62\u0fa1\u0f7a\u0f0b\u0f64\u0f74\u0f0b\u0f58\u0f72\u0f0b\u0f51\u0f58\u0f44\u0f66\u0f0b\u0f66\u0fa4\u0fb1\u0f72\u0f0b\u0f58\u0f50\u0f74\u0f53\u0f0b\u0f62\u0f92\u0fb1\u0f63\u0f0b\u0f41\u0f56","official_name:bpy":"\u0997\u09a3\u09aa\u09cd\u09b0\u099c\u09be\u09a4\u09a8\u09cd\u09a4\u09cd\u09b0\u09c0 \u09ac\u09be\u0982\u09b2\u09be\u09a6\u09c7\u09b6","official_name:br":"Republik pobl Bangladesh","official_name:bs":"Narodna Republika Banglade\u0161","official_name:bxr":"\u0411\u04af\u0433\u044d\u0434\u044d \u041d\u0430\u0439\u0440\u0430\u043c\u0434\u0430\u0445\u0430 \u0411\u0430\u043d\u0433\u043b\u0430\u0434\u0435\u0448 \u0410\u0440\u0430\u0434 \u0423\u043b\u0430\u0441","official_name:ca":"Rep\u00fablica Popular Bangla Desh","official_name:chr":"\u13f4\u13eb \u13cd\u13a6\u13da\u13a9 \u13be\u13bf \u13c6\u13c2\u13a6\u13b5\u13d5\u13cd","official_name:ckb":"\u06a9\u06c6\u0645\u0627\u0631\u06cc \u06af\u06d5\u0644\u06cc \u0628\u06d5\u0646\u06af\u0644\u0627\u062f\u06cc\u0634","official_name:crh":"Banglade\u015f Halq Cumhuriyeti","official_name:cs":"Banglad\u00e9\u0161sk\u00e1 lidov\u00e1 republika","official_name:cv":"\u0411\u0430\u043d\u0433\u043b\u0430\u0434\u0435\u0448 \u0445\u0430\u043b\u0103\u0445 \u0440\u0435\u0441\u043f\u0443\u0431\u043b\u0438\u043a\u0438","official_name:cy":"Gweriniaeth Pobl Bangladesh","official_name:da":"Folkerepublikken Bangladesh","official_name:de":"Volksrepublik Bangladesch","official_name:dsb":"Ludowa republika Banglade\u0161","official_name:dty":"\u091c\u0928\u0917\u0923\u0924\u093e\u0928\u094d\u0924\u094d\u0930\u093f\u0915 \u092c\u0902\u0917\u0932\u093e\u0926\u0947\u0936","official_name:el":"\u039b\u03b1\u03ca\u03ba\u03ae \u0394\u03b7\u03bc\u03bf\u03ba\u03c1\u03b1\u03c4\u03af\u03b1 \u03c4\u03bf\u03c5 \u039c\u03c0\u03b1\u03bd\u03b3\u03ba\u03bb\u03b1\u03bd\u03c4\u03ad\u03c2","official_name:en":"People's Republic of Bangladesh","official_name:eo":"Popolrespubliko de Banglade\u015do","official_name:es":"Rep\u00fablica Popular de Banglad\u00e9s","official_name:et":"Bangladeshi Rahvavabariik","official_name:eu":"Bangladeshko Herri Errepublika","official_name:ext":"Rep\u00fabrica Populal de Bangladesh","official_name:fa":"\u062c\u0645\u0647\u0648\u0631\u06cc \u062e\u0644\u0642 \u0628\u064e\u0646\u0652\u06af\u0650\u0644\u0627\u062f\u0650\u0634","official_name:fi":"Bangladeshin kansantasavalta","official_name:fo":"F\u00f3lkal\u00fd\u00f0veldi\u00f0 Bangladesj","official_name:fr":"R\u00e9publique populaire du Bangladesh","official_name:fur":"Republiche popol\u00e2r Bangladesh","official_name:ga":"Daonphoblacht na Banglad\u00e9ise","official_name:gag":"Banglade\u015f Halk Respublikas\u0131","official_name:gan":"\u5b5f\u52a0\u62c9\u4eba\u6c11\u5171\u548c\u570b","official_name:gl":"Rep\u00fablica Popular de Bangladesh","official_name:gn":"Vangylad\u1ebd Tekoha Tet\u00e3","official_name:gv":"Deynphobblaght ny Bangladesh","official_name:ha":"Jamhuriyar jama'ar kasar Bangladash","official_name:he":"\u05d4\u05e8\u05e4\u05d5\u05d1\u05dc\u05d9\u05e7\u05d4 \u05d4\u05e2\u05de\u05de\u05d9\u05ea \u05e9\u05dc \u05d1\u05e0\u05d2\u05dc\u05d3\u05e9","official_name:hi":"\u092c\u093e\u0902\u0917\u094d\u0932\u093e\u0926\u0947\u0936 \u0917\u0923\u0924\u0928\u094d\u0924\u094d\u0930","official_name:hif":"People's Republic of Bangladesh","official_name:hr":"Narodna Republika Banglade\u0161","official_name:hsb":"Ludowa republika Banglade\u0161","official_name:hu":"Bangladesi N\u00e9pi K\u00f6zt\u00e1rsas\u00e1g","official_name:hy":"\u0532\u0561\u0576\u0563\u056c\u0561\u0564\u0565\u0577\u056b \u053a\u0578\u0572\u0578\u057e\u0580\u0564\u0561\u056f\u0561\u0576 \u0540\u0561\u0576\u0580\u0561\u057a\u0565\u057f\u0578\u0582\u0569\u0575\u0578\u0582\u0576","official_name:id":"Republik Rakyat Bangladesh","official_name:ilo":"Republika ti Tattao ti Banglades","official_name:io":"Populala Republiko di Bangladesh","official_name:is":"Al\u00fe\u00fd\u00f0ul\u00fd\u00f0veldi\u00f0 Bangladess","official_name:it":"Repubblica Popolare del Bangladesh","official_name:ja":"\u30d0\u30f3\u30b0\u30e9\u30c7\u30b7\u30e5\u4eba\u6c11\u5171\u548c\u56fd","official_name:jam":"Piiplz Ripoblik a Banggladesh","official_name:jbo":"begygu'e.zei prenu gubyseltru","official_name:ka":"\u10d1\u10d0\u10dc\u10d2\u10da\u10d0\u10d3\u10d4\u10e8\u10d8\u10e1 \u10e1\u10d0\u10ee\u10d0\u10da\u10ee\u10dd \u10e0\u10d4\u10e1\u10de\u10e3\u10d1\u10da\u10d8\u10d9\u10d0","official_name:kaa":"Bangladesh Respublikasi","official_name:kk":"\u0411\u0430\u043d\u0433\u043b\u0430\u0434\u0435\u0448 \u0425\u0430\u043b\u044b\u049b \u0420\u0435\u0441\u043f\u0443\u0431\u043b\u0438\u043a\u0430\u0441\u044b","official_name:km":"\u179f\u17b6\u1792\u17b6\u179a\u178e\u179a\u178a\u17d2\u178b\u1794\u17d2\u179a\u1787\u17b6\u1787\u1793\u1794\u1784\u17cb\u1780\u17d2\u179b\u17b6\u178a\u17c1\u179f","official_name:kn":"\u0cac\u0cbe\u0c82\u0c97\u0ccd\u0cb2\u0cbe\u0ca6\u0cc7\u0cb6\u0ca6 \u0c9c\u0ca8 \u0c97\u0ca3\u0ca4\u0c82\u0ca4\u0ccd\u0cb0","official_name:ko":"\ubc29\uae00\ub77c\ub370\uc2dc \uc778\ubbfc\uacf5\ud654\uad6d","official_name:krc":"\u0411\u0430\u043d\u0433\u043b\u0430\u0434\u0435\u0448 \u0425\u0430\u043b\u043a\u044a \u0420\u0435\u0441\u043f\u0443\u0431\u043b\u0438\u043a\u0430","official_name:kv":"\u0411\u0430\u043d\u0433\u043b\u0430\u0434\u0435\u0448 \u0412\u043e\u0439\u0442\u044b\u0440 \u0440\u0435\u0441\u043f\u0443\u0431\u043b\u0438\u043a\u0430","official_name:la":"Res Publica Popularis Bangladesiae","official_name:lb":"Volleksrepublik Bangladesch","official_name:lez":"\u0411\u0430\u043d\u0433\u043b\u0430\u0434\u0435\u0448 \u0425\u0430\u043b\u043a\u044c\u0434\u0438\u043d \u0420\u0435\u0441\u043f\u0443\u0431\u043b\u0438\u043a\u0430","official_name:lo":"\u0eaa\u0eb2\u0e97\u0eb2\u0ea5\u0eb0\u0e99\u0eb0\u0ea5\u0eb1\u0e94\u0e9b\u0eb0\u0e8a\u0eb2\u0e8a\u0ebb\u0e99\u0e9a\u0eb1\u0e87\u0e81\u0eb0\u0ea5\u0eb2\u0ec0\u0e97\u0e94","official_name:lrc":"\u06a9\u0648\u0659\u0645\u0623\u0631\u06d5 \u06a4\u0626\u0644\u0627\u062a \u062e\u0623\u0644\u06a9 \u0628\u0623\u0646\u06af\u0626\u0644\u0627\u062f\u0626\u0634","official_name:lt":"Banglade\u0161o Liaudies Respublika","official_name:lv":"Banglade\u0161as Tautas Republika","official_name:lzh":"\u5b5f\u52a0\u62c9\u4eba\u6c11\u5171\u548c\u570b","official_name:mai":"\u091c\u0928\u0917\u0923\u0924\u093e\u0928\u094d\u0924\u094d\u0930\u093f\u0915 \u092c\u0902\u0917\u0932\u093e\u0926\u0947\u0936","official_name:mk":"\u041d\u0430\u0440\u043e\u0434\u043d\u0430 \u0420\u0435\u043f\u0443\u0431\u043b\u0438\u043a\u0430 \u0411\u0430\u043d\u0433\u043b\u0430\u0434\u0435\u0448","official_name:ml":"\u0d2a\u0d40\u0d2a\u0d4d\u0d2a\u0d3f\u0d7e\u0d38\u0d4d \u0d31\u0d3f\u0d2a\u0d4d\u0d2a\u0d2c\u0d4d\u0d32\u0d3f\u0d15\u0d4d \u0d13\u0d2b\u0d4d \u0d2c\u0d02\u0d17\u0d4d\u0d32\u0d3e\u0d26\u0d47\u0d36\u0d4d","official_name:mn":"\u0411\u04af\u0433\u0434 \u041d\u0430\u0439\u0440\u0430\u043c\u0434\u0430\u0445 \u0411\u0430\u043d\u0433\u043b\u0430\u0434\u0435\u0448 \u0410\u0440\u0434 \u0423\u043b\u0441","official_name:mr":"\u092c\u093e\u0902\u0917\u0932\u093e\u0926\u0947\u0936\u093e\u091a\u0947 \u092a\u094d\u0930\u091c\u093e\u0938\u0924\u094d\u0924\u093e\u0915","official_name:ms":"Republik Rakyat Bangladesh","official_name:mt":"Repubblika Popolari tal-Bangladexx","official_name:my":"\u1018\u1004\u103a\u1039\u1002\u101c\u102c\u1038\u1012\u1031\u101b\u103e\u103a\u1015\u103c\u100a\u103a\u101e\u1030\u1037\u101e\u1019\u1039\u1019\u1010\u1014\u102d\u102f\u1004\u103a\u1004\u1036","official_name:nah":"\u0100ltep\u0113huahc\u0101y\u014dtl Tl\u0101catlahtohc\u0101y\u014dtl Bangladex","official_name:nan":"Bangladesh J\u00een-b\u00een Ki\u014dng-h\u00f4-kok","official_name:ne":"\u091c\u0928\u0917\u0923\u0924\u093e\u0928\u094d\u0924\u094d\u0930\u093f\u0915 \u092c\u0902\u0917\u0932\u093e\u0926\u0947\u0936","official_name:new":"\u091c\u0928\u0924\u093e\u0924\u0947\u0917\u0941 \u0917\u0923\u0924\u0928\u094d\u0924\u094d\u0930 \u092c\u0902\u0917\u0932\u093e\u0926\u0947\u0936","official_name:nl":"Volksrepubliek Bangladesh","official_name:no":"Folkerepublikken Bangladesh","official_name:nv":"Ha\u02bca\u02bcaahj\u00ed Naakaii Doot\u0142\u02bcizh\u00ed Bik\u00e9yah","official_name:oc":"Republica Populara de Banglad\u00e8sh","official_name:olo":"Rahvahan Tazavaldu Banglade\u0161","official_name:os":"\u0411\u0430\u043d\u0433\u043b\u0430\u0434\u0435\u0448\u044b \u0430\u0434\u00e6\u043c\u043e\u043d \u0440\u0435\u0441\u043f\u0443\u0431\u043b\u0438\u043a\u00e6","official_name:pa":"\u0a2c\u0a70\u0a17\u0a32\u0a3e\u0a26\u0a47\u0a38\u0a3c \u0a17\u0a23\u0a24\u0a70\u0a24\u0a30","official_name:pam":"Pangmaldang Republika ning Banglades","official_name:pl":"Ludowa Republika Bangladeszu","official_name:ps":"\u062e\u0644\u06a9\u0648 \u062c\u0645\u0647\u0648\u0631\u064a \u0628\u0646\u06af\u0644\u0647 \u062f\u06d0\u0634","official_name:pt":"Rep\u00fablica Popular do Bangladesh","official_name:qu":"Banladish Runallaqta Ripuwlika","official_name:ro":"Republica Popular\u0103 Bangladesh","official_name:roa-rup":"Republica Popular\u00e3 Bangladesh","official_name:roa-tara":"Repubbleche Populare d'u Bangladesh","official_name:ru":"\u041d\u0430\u0440\u043e\u0434\u043d\u0430\u044f \u0420\u0435\u0441\u043f\u0443\u0431\u043b\u0438\u043a\u0430 \u0411\u0430\u043d\u0433\u043b\u0430\u0434\u0435\u0448","official_name:rue":"\u0411\u0430\u043d\u0491\u043b\u0430\u0434\u0435\u0441\u044c\u043a\u0430 \u043d\u0430\u0440\u043e\u0434\u043d\u0430 \u0440\u0435\u043f\u0443\u0431\u043b\u0456\u043a\u0430","official_name:sa":"\u091c\u0928\u093e\u0928\u093e\u0902 \u092c\u093e\u0919\u094d\u0917\u094d\u0932\u093e\u0926\u0947\u0936-\u0917\u0923\u0924\u0928\u094d\u0924\u094d\u0930\u092e\u094d","official_name:sah":"\u0411\u0430\u04a5\u043b\u0430\u0434\u0435\u0448 \u0414\u044c\u043e\u043d \u0420\u0435\u0441\u043f\u0443\u0431\u043b\u0438\u043a\u0430\u0442\u0430","official_name:sco":"Fowkrepublic o Bangladesh","official_name:se":"Bangladesha \u00e1lbmotd\u00e1ssev\u00e1ldi","official_name:sh":"Narodna Republika Banglade\u0161","official_name:si":"\u0db6\u0d82\u0d9c\u0dbd\u0dcf\u0daf\u0dda\u0dc1 \u0da2\u0db1\u0dad\u0dcf \u0dc3\u0db8\u0dd6\u0dc4\u0dcf\u0dab\u0dca\u0da9\u0dd4\u0dc0","official_name:sk":"Banglad\u00e9\u0161ska \u013eudov\u00e1 republika","official_name:sl":"Ljudska republika Banglade\u0161","official_name:so":"Jamhuuriyadda shacabka Bangladesh","official_name:sq":"Republika Popullore e Bangladeshit","official_name:sr":"\u041d\u0430\u0440\u043e\u0434\u043d\u0430 \u0420\u0435\u043f\u0443\u0431\u043b\u0438\u043a\u0430 \u0411\u0430\u043d\u0433\u043b\u0430\u0434\u0435\u0448","official_name:su":"R\u00e9publik Rahayat Banglad\u00e9s","official_name:sv":"Folkrepubliken Bangladesh","official_name:sw":"Jamhuri ya Watu wa Bangladesh","official_name:szl":"Ludowo Republika Bangladeszu","official_name:ta":"\u0bb5\u0b99\u0bcd\u0b95\u0bbe\u0bb3\u0ba4\u0bcd\u0ba4\u0bc7\u0b9a \u0bae\u0b95\u0bcd\u0b95\u0bb3\u0bcd \u0b95\u0bc1\u0b9f\u0bbf\u0baf\u0bb0\u0b9a\u0bc1","official_name:te":"\u0c2c\u0c02\u0c17\u0c4d\u0c32\u0c3e\u0c26\u0c47\u0c36\u0c4d \u0c2a\u0c4d\u0c30\u0c1c\u0c3e \u0c17\u0c23\u0c24\u0c02\u0c24\u0c4d\u0c30\u0c02","official_name:tet":"Rep\u00fablika Popul\u00e1r Bangladexe niam","official_name:th":"\u0e2a\u0e32\u0e18\u0e32\u0e23\u0e13\u0e23\u0e31\u0e10\u0e1b\u0e23\u0e30\u0e0a\u0e32\u0e0a\u0e19\u0e1a\u0e31\u0e07\u0e01\u0e25\u0e32\u0e40\u0e17\u0e28","official_name:tk":"Banglade\u015f Halk Respublikasy","official_name:tl":"Republikang Bayan ng Bangladesh","official_name:tr":"Banglade\u015f Halk Cumhuriyeti","official_name:tt":"\u0411\u0430\u043d\u0433\u043b\u0430\u0434\u0435\u0448 \u0425\u0430\u043b\u044b\u043a \u0496\u04e9\u043c\u04bb\u04af\u0440\u0438\u044f\u0442\u0435","official_name:uk":"\u041d\u0430\u0440\u043e\u0301\u0434\u043d\u0430 \u0420\u0435\u0441\u043f\u0443\u0301\u0431\u043b\u0456\u043a\u0430 \u0411\u0430\u043d\u0433\u043b\u0430\u0434\u0435\u0301\u0448","official_name:ur":"\u0639\u0648\u0627\u0645\u06cc \u062c\u0645\u06c1\u0648\u0631\u06cc\u06c1 \u0628\u0646\u06af\u0644\u06c1 \u062f\u06cc\u0634","official_name:uz":"Bangladesh Xalq Respublikasi","official_name:vec":"Republica Popolare del Bangladesh","official_name:vep":"Banglade\u0161an Rahvahaline Tazovaldkund","official_name:vi":"C\u1ed9ng ho\u00e0 Nh\u00e2n d\u00e2n Bangladesh","official_name:vro":"Bangladeshi Rahvavabariik","official_name:xal":"\u0411\u0435\u043d\u0433\u0430\u043b\u043c\u0443\u0434\u0438\u043d \u0423\u043b\u0441 \u041e\u0440\u043d","official_name:xmf":"\u10d1\u10d0\u10dc\u10d2\u10da\u10d0\u10d3\u10d4\u10e8\u10d8\u10e8 \u10dd\u10d9\u10d0\u10d7\u10d4 \u10e0\u10d4\u10e1\u10de\u10e3\u10d1\u10da\u10d8\u10d9\u10d0","official_name:yi":"\u05e4\u05bf\u05d0\u05dc\u05e7\u05e1 \u05e8\u05e2\u05e4\u05d5\u05d1\u05dc\u05d9\u05e7 \u05e4\u05bf\u05d5\u05df \u05d1\u05d0\u05e0\u05d2\u05dc\u05d0\u05d3\u05e2\u05e9","official_name:yo":"Olominira Araalu ile Bangladesh","official_name:zh":"\u5b5f\u52a0\u62c9\u4eba\u6c11\u5171\u548c\u56fd \/ \u5b5f\u52a0\u62c9\u4eba\u6c11\u5171\u548c\u570b","official_name:zh-Hans":"\u5b5f\u52a0\u62c9\u4eba\u6c11\u5171\u548c\u56fd","official_name:zh-Hant":"\u5b5f\u52a0\u62c9\u4eba\u6c11\u5171\u548c\u570b","old_name":"\u09aa\u09c2\u09b0\u09cd\u09ac \u09aa\u09be\u0995\u09bf\u09b8\u09cd\u09a4\u09be\u09a8","old_name:als":"Oschtpakistan","old_name:an":"Pakist\u00e1n Oriental","old_name:ang":"\u0112ast Pacistan","old_name:ar":"\u0628\u0627\u0643\u0633\u062a\u0627\u0646 \u0627\u0644\u0634\u0631\u0642\u064a\u0629","old_name:az":"\u015e\u0259rqi Pakistan","old_name:bar":"Ostpakistan","old_name:bn":"\u09aa\u09c2\u09b0\u09cd\u09ac \u09aa\u09be\u0995\u09bf\u09b8\u09cd\u09a4\u09be\u09a8","old_name:bs":"Isto\u010dni Pakistan","old_name:ca":"Pakistan Oriental","old_name:ceb":"East Pakistan","old_name:cs":"V\u00fdchodn\u00ed P\u00e1kist\u00e1n","old_name:cy":"Dwyrain Pacistan","old_name:da":"\u00d8stpakistan","old_name:de":"Ostpakistan","old_name:dsb":"P\u00f3dzajt\u0161ny Pakistan","old_name:el":"\u0391\u03bd\u03b1\u03c4\u03bf\u03bb\u03b9\u03ba\u03cc \u03a0\u03b1\u03ba\u03b9\u03c3\u03c4\u03ac\u03bd","old_name:eo":"Orientpakistano","old_name:es":"Pakist\u00e1n Oriental","old_name:fa":"\u067e\u0627\u06a9\u0633\u062a\u0627\u0646 \u0634\u0631\u0642\u06cc","old_name:fi":"It\u00e4-Pakistanin","old_name:fo":"Eysturpakistan","old_name:fr":"Pakistan oriental","old_name:ga":"Bhain Oirthear na Pacast\u00e1ine","old_name:gl":"Paquist\u00e1n Oriental","old_name:he":"\u05de\u05d6\u05e8\u05d7 \u05e4\u05e7\u05d9\u05e1\u05d8\u05df","old_name:hif":"East Pakistan","old_name:hsb":"Wuchodny Pakistan","old_name:hu":"Kelet-Pakiszt\u00e1nra","old_name:ia":"Pakistan Oriental","old_name:id":"Pakistan Timur","old_name:io":"Estala Pakistan","old_name:is":"Austur-Pakistan","old_name:it":"Pakistan orientale","old_name:ko":"\ub3d9\ud30c\ud0a4\uc2a4\ud0c4","old_name:li":"Oos-Pakistan","old_name:lt":"Ryt\u0173 Pakistanu","old_name:ms":"Pakistan Timur","old_name:nds":"Ostpakistan","old_name:nl":"Oost-Pakistan","old_name:nn":"Aust-Pakistan","old_name:no":"\u00d8st-Pakistan","old_name:oc":"Paquistan Orientau","old_name:pl":"Pakistan Wschodni","old_name:pt":"Paquist\u00e3o Oriental","old_name:ro":"Pakistanul de Est","old_name:sh":"Isto\u010dni Pakistan","old_name:sk":"V\u00fdchodn\u00fd Pakistan","old_name:sq":"Pakistanin-Lindor\u00eb","old_name:su":"Pakistan W\u00e9tan","old_name:sv":"\u00d6stpakistan","old_name:sw":"Pakistan ya Mashariki","old_name:tr":"Do\u011fu Pakistan","old_name:ur":"\u0645\u0634\u0631\u0642\u06cc \u067e\u0627\u06a9\u0633\u062a\u0627\u0646","old_name:vi":"\u0110\u00f4ng Pakistan","population":"172954319","population:date":"2023","source:population":"https:\/\/en.wikipedia.org\/wiki\/List_of_countries_by_population_(United_Nations)","timezone":"Asia\/Dhaka","type":"boundary","wikidata":"Q902","wikipedia":"bn:\u09ac\u09be\u0982\u09b2\u09be\u09a6\u09c7\u09b6"},"timestamp":1716078538,"representative_point":{"type":"Point","coordinates":[90.00659122407117,23.501909949999998]}},"geometry":{"type":"MultiPolygon","coordinates":[[[[92.6073983,21.9746709],[92.2792232,23.7263524],[91.9505051,23.7311651],[91.9673292,23.4863896],[91.7599797,23.3004649],[91.8356287,23.092318],[91.6178527,22.9376106],[91.4160763,23.2841041],[91.3483237,23.1029473],[91.1508098,23.7118593],[91.3759357,24.1053888],[91.586473,24.0715976],[91.7498463,24.241183],[91.9061601,24.1378223],[91.9221166,24.3326269],[92.2324884,24.5296579],[92.2341219,24.9015406],[92.4838114,24.8626721],[92.4283755,25.0312162],[92.040833,25.187778],[90.4410581,25.1446386],[89.8311281,25.2961851],[89.8872818,25.9452273],[89.6792665,26.238246],[89.5770477,25.9690827],[89.3493369,26.0096081],[89.0931469,26.3938346],[88.9047234,26.4086703],[89.0507129,26.2415507],[88.666487,26.2629947],[88.7460484,26.3474473],[88.4093822,26.635823],[88.3315922,26.4819499],[88.523871,26.3597579],[88.1773699,26.147894],[88.1145054,25.798346],[88.5398226,25.5087153],[88.8103853,25.5233387],[89.0082203,25.2648377],[88.4386866,25.2078061],[88.3425,24.870278],[88.1368512,24.9375266],[88.007915,24.6678238],[88.7375,24.250833],[88.5557976,23.6494897],[88.7992072,23.4988489],[88.724722,23.248056],[88.9958861,23.2130182],[88.8449027,23.0092408],[89.185298,21.436213],[90.7700252,21.4365443],[91.833237,21.2490934],[92.1490678,20.4644818],[92.4031223,20.3822902],[92.1732083,21.1803489],[92.3692997,21.478694],[92.680196,21.285754],[92.6073983,21.9746709]]],[[[88.9205974,26.3260774],[88.9250031,26.2941535],[88.9814654,26.2830321],[88.9383462,26.3350139],[88.9205974,26.3260774]]]]}}