{"type":"Feature","properties":{"tags":{"ISO3166-1":"BE","ISO3166-1:alpha2":"BE","ISO3166-1:alpha3":"BEL","ISO3166-1:numeric":"056","TMC:cid_58:tabcd_1:Class":"Area","TMC:cid_58:tabcd_1:LCLversion":"8.00","TMC:cid_58:tabcd_1:LocationCode":"3","admin_level":"2","alt_name:ay":"Bilgasuyu","alt_name:bar":"Bejgien","alt_name:ckb":"\u0628\u0644\u0698\u06cc\u06a9","alt_name:eo":"Belgujo","alt_name:frp":"B\u00e8lg\u00b7ica","alt_name:fur":"Belgjiche;Belgje","alt_name:fy":"Belgi\u00eb;it Belzel\u00e2n","alt_name:kbd":"\u0411\u0435\u043b\u0433\u044d","alt_name:ksh":"Belgien","alt_name:ku":"Belc\u00eeka","alt_name:la":"Belgium","alt_name:li":"Belzjiek","alt_name:mzn":"\u0628\u0644\u062c\u06cc\u06a9","alt_name:qu":"Bilgasuyu","alt_name:rw":"Ububirigi","alt_name:so":"Belgium","alt_name:war":"B\u00e9lgica","boundary":"administrative","currency":"EUR","flag":"http:\/\/upload.wikimedia.org\/wikipedia\/commons\/6\/65\/Flag_of_Belgium.svg","int_name":"Belgium","name":"Belgi\u00eb \/ Belgique \/ Belgien","name:ace":"B\u00e8lgia","name:ady":"\u0411\u0435\u043b\u0433\u0438\u0435","name:af":"Belgi\u00eb","name:ak":"Belgium","name:als":"Belgie","name:am":"\u1264\u120d\u1305\u130d","name:an":"Belchica","name:ang":"Belgice","name:ar":"\u0628\u0644\u062c\u064a\u0643\u0627","name:arc":"\u0712\u0720\u0713\u071d\u0729\u0710","name:arz":"\u0628\u0644\u062c\u064a\u0643\u0627","name:ast":"B\u00e9lxica","name:av":"\u0411\u0435\u0301\u043b\u044c\u0433\u0438\u044f","name:ay":"Bilkiya","name:az":"Bel\u00e7ika","name:azb":"\u0628\u0644\u0698\u06cc\u06a9","name:ba":"\u0411\u0435\u0301\u043b\u044c\u0433\u0438\u044f","name:bar":"B\u00e4igien","name:bat-smg":"Belg\u0117j\u0117","name:bcl":"Belhika","name:be":"\u0411e\u043b\u044c\u0433\u0456\u044f","name:be-tarask":"\u0411\u044d\u043b\u044c\u0433\u0456\u044f","name:bg":"\u0411\u0435\u043b\u0433\u0438\u044f","name:bh":"\u092c\u0947\u0932\u094d\u091c\u093f\u092f\u092e","name:bi":"Beljiom","name:bm":"B\u025bliziki","name:bn":"\u09ac\u09c7\u09b2\u099c\u09bf\u09af\u09bc\u09be\u09ae","name:bo":"\u0f54\u0f7a\u0f62\u0f0b\u0f45\u0f72\u0f53\u0f0d","name:bpy":"\u09ac\u09c7\u09b2\u099c\u09bf\u09af\u09bc\u09be\u09ae","name:br":"Belgia","name:bs":"Belgija","name:bug":"Belgia","name:bxr":"\u0411\u0435\u043b\u044c\u0433\u0438","name:ca":"B\u00e8lgica","name:cbk-zam":"B\u00e9lgica","name:cdo":"B\u012b-l\u00e9-s\u00ec","name:ce":"\u0411\u0435\u043b\u044c\u0433\u0438","name:ceb":"Belhika","name:chr":"\u13c7\u13b5\u13e5\u13a5\u13bb","name:ckb":"\u0628\u06d5\u0644\u062c\u06cc\u06a9\u0627","name:co":"Belgica","name:crh":"Bel\u00e7ika","name:cs":"Belgie","name:csb":"Belgijsk\u00f4","name:cu":"\u0411\u0454\u0301\u043b\u0433\u0457\u0465","name:cv":"\u0411\u0435\u043b\u044c\u0433\u0438","name:cy":"Gwlad Belg","name:da":"Belgien","name:de":"Belgien","name:din":"Beljiem","name:diq":"Bel\u00e7\u0131ka","name:dsb":"Belgiska","name:dty":"\u092c\u0947\u0932\u094d\u091c\u093f\u092f\u092e","name:dv":"\u0784\u07ac\u078d\u07b0\u0796\u07a8\u0787\u07a6\u0789\u07b0","name:dz":"\u0f56\u0f7a\u0f63\u0f0b\u0f47\u0f72\u0f61\u0f58","name:ee":"Belgium","name:el":"\u0392\u03ad\u03bb\u03b3\u03b9\u03bf","name:eml":"B\u00e9lgi","name:en":"Belgium","name:eo":"Belgio","name:es":"B\u00e9lgica","name:et":"Belgia","name:eu":"Belgika","name:ext":"B\u00e9lgica","name:fa":"\u0628\u0644\u0698\u06cc\u06a9","name:ff":"Beljik","name:fi":"Belgia","name:fo":"Belgia","name:fr":"Belgique","name:frp":"B\u00e8lg\u00b7ique","name:frr":"B\u00e4lgien","name:fur":"Belgjo","name:fy":"Belgje","name:ga":"an Bheilg","name:gag":"Belgiya","name:gd":"a' Bheilg","name:gl":"B\u00e9lxica","name:gn":"V\u00e9yhika","name:gom":"\u092c\u0947\u0932\u094d\u091c\u093f\u092f\u092e","name:gu":"\u0aac\u0ac7\u0ab2\u0acd\u0a9c\u0abf\u0aaf\u0aae","name:gv":"Velg","name:ha":"Beljik","name:hak":"P\u00ed-li-s\u1e73\u0300","name:haw":"Pelekiuma","name:he":"\u05d1\u05b6\u05bc\u05dc\u05b0\u05d2\u05b0\u05d9\u05b8\u05d4","name:hi":"\u092c\u0947\u0932\u094d\u091c\u093f\u092f\u092e","name:hif":"Belgium","name:hr":"Belgija","name:hsb":"Belgiska","name:ht":"B\u00e8ljik","name:hu":"Belgium","name:hy":"\u0532\u0565\u056c\u0563\u056b\u0561","name:ia":"Belgica","name:id":"Belgia","name:ie":"Belgia","name:ig":"Belgium","name:ilo":"Belhika","name:io":"Belgia","name:is":"Belg\u00eda","name:it":"Belgio","name:ja":"\u30d9\u30eb\u30ae\u30fc","name:jam":"Beljiom","name:jbo":"beldjym","name:jv":"B\u00e8lgia","name:ka":"\u10d1\u10d4\u10da\u10d2\u10d8\u10d0","name:kaa":"Belgiya","name:kab":"Biljik","name:kbd":"\u0411\u0435\u043b\u0433\u0438\u044d","name:kbp":"P\u025bliziki","name:kg":"Belezi","name:ki":"Ubelgiji","name:kk":"\u0411\u0435\u043b\u044c\u0433\u0438\u044f","name:kl":"Belgia","name:km":"\u1794\u17c2\u179b\u17a0\u17d2\u179f\u17c9\u17b7\u1780","name:kn":"\u0cac\u0cc6\u0cb2\u0ccd\u0c9c\u0cbf\u0caf\u0c82","name:ko":"\ubca8\uae30\uc5d0","name:koi":"\u0411\u0435\u043b\u0433\u0438\u044f","name:krc":"\u0411\u0435\u043b\u044c\u0433\u0438\u044f","name:ks":"\u092c\u0947\u0932\u094d\u091c\u093f\u092f\u092e","name:ksh":"Beljie","name:ku":"Bel\u00e7\u00eeka","name:kv":"\u0411\u0435\u043b\u044c\u0433\u0438\u044f","name:kw":"Pow Belg","name:ky":"\u0411\u0435\u043b\u044c\u0433\u0438\u044f","name:la":"Belgica","name:lad":"Beljika","name:lb":"Belsch","name:lez":"\u0411\u0435\u043b\u044c\u0433\u0438\u044f","name:lg":"Bubirigi","name:li":"Belsj","name:lij":"Belgi\u00f2","name:lmo":"Belgi","name:ln":"B\u025b\u0301ljika","name:lo":"\u0e9b\u0eb0\u0ec0\u0e97\u0e94\u0ec1\u0e9a\u0e99\u0e8a\u0eb4\u0e81","name:lrc":"\u0628\u0644\u062c\u06cc\u06a9","name:lt":"Belgija","name:ltg":"Be\u013cgeja","name:lv":"Be\u013c\u0123ija","name:lzh":"\u6bd4\u5229\u6642","name:mai":"\u092c\u0947\u0932\u094d\u091c\u093f\u092f\u092e","name:mdf":"\u0411\u0435\u043b\u044c\u0433\u0438\u0435","name:mg":"Belzika","name:mhr":"\u0411\u0435\u043b\u044c\u0433\u0438\u0439","name:mi":"Pehiamu","name:mk":"\u0411\u0435\u043b\u0433\u0438\u0458\u0430","name:ml":"\u0d2c\u0d46\u0d7d\u0d1c\u0d3f\u0d2f\u0d02","name:mn":"\u0411\u0435\u043b\u044c\u0433\u0438","name:mr":"\u092c\u0947\u0932\u094d\u091c\u093f\u092f\u092e","name:ms":"Belgium","name:mt":"Bel\u0121ju","name:mwl":"B\u00e9lgica","name:my":"\u1018\u101a\u103a\u101c\u103a\u1002\u103b\u102e\u101a\u1019\u103a\u1014\u102d\u102f\u1004\u103a\u1004\u1036","name:myv":"\u0411\u0435\u043b\u044c\u0433\u0438\u044f","name:mzn":"\u0628\u0644\u0698\u06cc\u06a9","name:na":"Berdjiyum","name:nah":"Belgica","name:nan":"Pe\u030dk-n\u00ed-g\u012b","name:nap":"Belge","name:nb":"Belgia","name:nds":"Belgien","name:nds-nl":"Belgi\u00eb","name:ne":"\u092c\u0947\u0932\u094d\u091c\u093f\u092f\u092e","name:new":"\u092c\u0947\u0932\u094d\u091c\u093f\u092f\u092e","name:nl":"Belgi\u00eb","name:nn":"Belgia","name:no":"Belgia","name:nov":"Belgia","name:nrm":"Belgique","name:nso":"Belgium","name:oc":"Belgica","name:olo":"Bel\u2019gii","name:om":"Beeljiyeem","name:or":"\u0b2c\u0b47\u0b32\u0b1c\u0b3f\u0b05\u0b2e","name:os":"\u0411\u0435\u043b\u044c\u0433\u0438","name:pa":"\u0a2c\u0a48\u0a32\u0a1c\u0a40\u0a05\u0a2e","name:pag":"Belhika","name:pam":"Belgika","name:pap":"B\u00e9lgika","name:pcd":"Bergike","name:pdc":"Belgien","name:pfl":"Belgje","name:pi":"\u092c\u0947\u0932\u094d\u091c\u093f\u092f\u092e","name:pih":"Beljum","name:pl":"Belgia","name:pms":"Belgi","name:pnb":"\u0628\u06cc\u0644\u062c\u06cc\u0645","name:pnt":"\u0392\u03ad\u03bb\u03b3\u03b9\u03bf\u03bd","name:ps":"\u0628\u0644\u062c\u06cc\u0645","name:pt":"B\u00e9lgica","name:qu":"Bilhika","name:rm":"Belgia","name:rmy":"Beljiya","name:rn":"Ububirigi","name:ro":"Belgia","name:roa-rup":"Belghia","name:roa-tara":"B\u00e8lge","name:ru":"\u0411\u0435\u043b\u044c\u0433\u0438\u044f","name:rue":"\u0411\u0435\u043b\u0491\u0456\u044f","name:rw":"Ububiligi","name:sa":"\u092c\u0947\u0932\u094d\u091c\u093f\u092f\u092e","name:sah":"\u0411\u0435\u043b\u044c\u0433\u0438\u044f","name:sc":"B\u00e8lgiu","name:scn":"Belgiu","name:sco":"Belgium","name:sd":"\u0628\u064a\u0644\u062c\u064a\u0645","name:se":"Belgia","name:sg":"B\u00ealeze","name:sh":"Belgija","name:si":"\u0db6\u0dd9\u0dbd\u0dca\u0da2\u0dd2\u0dba\u0db8\u0dca","name:sk":"Belgicko","name:sl":"B\u00e9lgija","name:sm":"Peleseuma","name:smn":"Belgia","name:sms":"Belgia","name:sn":"Belgium","name:so":"Beljim","name:sq":"Belgjika","name:sr":"\u0411\u0435\u043b\u0433\u0438\u0458\u0430","name:srn":"Belgikondre","name:ss":"iBhelijiyamu","name:stq":"Belgien","name:su":"B\u00e9lgia","name:sv":"Belgien","name:sw":"Ubelgiji","name:szl":"Belgij\u014f","name:ta":"\u0baa\u0bc6\u0bb2\u0bcd\u0b9c\u0bbf\u0baf\u0bae\u0bcd","name:te":"\u0c2c\u0c46\u0c32\u0c4d\u0c1c\u0c3f\u0c2f\u0c02","name:tet":"B\u00e9ljika","name:tg":"\u0411\u0435\u043b\u0433\u0438\u044f","name:th":"\u0e40\u0e1a\u0e25\u0e40\u0e22\u0e35\u0e22\u0e21","name:ti":"\u1264\u120d\u1304\u121d","name:tk":"Belgi\u00fda","name:tl":"Belhika","name:to":"Pelesiume","name:tok":"ma Pesije","name:tpi":"Beljiam","name:tr":"Bel\u00e7ika","name:ts":"Belgium","name:tt":"\u0411\u0435\u0301\u043b\u044c\u0433\u0438\u044f","name:tum":"Belgium","name:tw":"Belgium","name:tzl":"Belxh\u00edc","name:udm":"\u0411\u0435\u043b\u044c\u0433\u0438\u044f","name:ug":"\u0628\u06d0\u0644\u06af\u0649\u064a\u06d5","name:uk":"\u0411\u0435\u043b\u044c\u0433\u0456\u044f","name:ur":"\u0628\u0644\u062c\u06cc\u0626\u0645","name:uz":"Belgiya","name:vec":"Belgio","name:vep":"Bel'gii","name:vi":"B\u1ec9","name:vls":"Belgi\u00eb","name:vo":"Belg\u00e4n","name:vro":"Belgi\u00e4","name:wa":"Beldjike","name:war":"Belhika","name:wo":"Belsik","name:wuu":"\u6bd4\u5229\u65f6","name:xal":"\u0411\u0435\u043b\u044c\u0497\u043c\u0443\u0434\u0438\u043d \u041d\u0443\u0442\u0433","name:xmf":"\u10d1\u10d4\u10da\u10d2\u10d8\u10d0","name:yi":"\u05d1\u05e2\u05dc\u05d2\u05d9\u05e2","name:yo":"B\u1eb9\u0301lj\u00ed\u1ecd\u0300m","name:yue":"\u6bd4\u5229\u6642","name:zea":"Belhi\u00eb","name:zh":"\u6bd4\u5229\u65f6 \/ \u6bd4\u5229\u6642","name:zh-Hans":"\u6bd4\u5229\u65f6","name:zh-Hant":"\u6bd4\u5229\u6642","name:zh_pinyin":"B\u01d0l\u00ecsh\u00ed","name:zu":"i-Belgium","official_name":"Koninkrijk Belgi\u00eb \/ Royaume de Belgique \/ K\u00f6nigreich Belgien","official_name:af":"Koninkryk van Belgi\u00eb","official_name:als":"K\u00f6nigriich Belgie","official_name:am":"\u12e8\u1264\u120d\u1305\u130d \u1218\u1295\u130d\u1225\u1275","official_name:an":"Reino de Belchica","official_name:ang":"Belgice Cyner\u012bce","official_name:ar":"\u0645\u0645\u0644\u0643\u0629 \u0628\u0644\u062c\u064a\u0643\u0627","official_name:arc":"\u0721\u0720\u071f\u0718\u072c\u0710 \u0715\u0712\u0720\u0713\u071d\u0729\u0710","official_name:ast":"Reinu de B\u00e9lxica","official_name:av":"\u0425\u0430\u043d\u043b\u044a\u0438 \u0411\u0435\u0301\u043b\u044c\u0433\u0438\u044f","official_name:ay":"Bilhika Qhapaqsuyu","official_name:az":"Bel\u00e7ika Krall\u0131\u011f\u0131","official_name:azb":"\u0628\u0644\u0698\u06cc\u06a9 \u06a9\u0631\u0627\u0644\u0644\u06cc\u063a\u06cc","official_name:ba":"\u0411\u0435\u043b\u044c\u0433\u0438\u044f \u041a\u043e\u0440\u043e\u043b\u043b\u0435\u0433\u0435","official_name:bar":"Kinigraich B\u00e4igien","official_name:bat-smg":"Belg\u0117j\u0117s Karal\u012bst\u0117","official_name:be":"\u041a\u0430\u0440\u0430\u043b\u0435\u045e\u0441\u0442\u0432\u0430 \u0411\u0435\u043b\u044c\u0433\u0456\u044f","official_name:be-tarask":"\u041a\u0430\u0440\u0430\u043b\u0435\u045e\u0441\u0442\u0432\u0430 \u0411\u0435\u043b\u044c\u0433\u0456\u044f","official_name:bg":"\u041a\u0440\u0430\u043b\u0441\u0442\u0432\u043e \u0411\u0435\u043b\u0433\u0438\u044f","official_name:bm":"B\u025bliziki Mansamara","official_name:bn":"\u09b0\u09be\u099c\u09a4\u09a8\u09cd\u09a4\u09cd\u09b0\u09c0 \u09ac\u09c7\u09b2\u099c\u09bf\u09af\u09bc\u09be\u09ae","official_name:bo":"Kraljevina Belgija","official_name:bpy":"\u09b0\u09be\u099c\u09a4\u09be\u09a8\u09cd\u09a4\u09cd\u09b0\u09bf\u0995 \u09ac\u09c7\u09b2\u099c\u09bf\u09af\u09bc\u09be\u09ae","official_name:br":"Rouantelezh Belgia","official_name:bs":"Kraljevina Belgija","official_name:ca":"Regne de B\u00e8lgica","official_name:ce":"\u041c\u043e\u043d\u0430\u0440\u0445\u0438 \u0411\u0435\u043b\u044c\u0433\u0438","official_name:chr":"\u13a4\u13ac\u13eb\u13f3\u13af \u13a8\u13d2 \u13be\u13bf \u13a0\u13f2\u13b3\u13c2","official_name:co":"Regnu di Belgica","official_name:crh":"Bel\u00e7ika Q\u0131rall\u0131\u011f\u0131","official_name:cs":"Belgick\u00e9 kr\u00e1lovstv\u00ed","official_name:cu":"\u041a\u0440\u0430\u043b\u0465\u0301\u0432\u044c\u0441\u0442\u0432\u043e \u0411\u0454\u0301\u043b\u0433\u0457\u0465","official_name:cy":"Teyrnas Gwlad Belg","official_name:da":"Kongeriget Belgien","official_name:de":"K\u00f6nigreich Belgien","official_name:din":"M\u00e4c\u014baknhom ke Beljiem","official_name:dsb":"Kralojstwo Belgiskej","official_name:el":"\u0392\u03b1\u03c3\u03af\u03bb\u03b5\u03b9\u03bf \u03c4\u03bf\u03c5 \u0392\u03b5\u03bb\u03b3\u03af\u03bf\u03c5","official_name:eml":"Regno dal B\u00e8lgi","official_name:en":"Kingdom of Belgium","official_name:eo":"Re\u011dlando Belgio","official_name:es":"Reino de B\u00e9lgica","official_name:et":"Belgia Kuningriik","official_name:eu":"Belgikako Erresuma","official_name:fa":"\u067e\u0627\u062f\u0634\u0627\u0647\u06cc \u0628\u0644\u0698\u06cc\u06a9","official_name:fi":"Belgian kuningaskunta","official_name:fr":"Royaume de Belgique","official_name:frp":"Roy\u00f4mo de B\u00e8lg\u00b7ique","official_name:frr":"K\u00f6nangrik Belgien","official_name:ga":"R\u00edocht na Beilge","official_name:gd":"R\u00ecoghachd na Beilge","official_name:gl":"Reino de B\u00e9lxica","official_name:gn":"Tet\u00e3 V\u00e9yhika","official_name:gv":"Reeriaght ny Belg","official_name:he":"\u05de\u05de\u05dc\u05db\u05ea \u05d1\u05dc\u05d2\u05d9\u05d4","official_name:hi":"\u0915\u093f\u0902\u0917\u0921\u092e \u0911\u092b\u093c \u092c\u0947\u0932\u094d\u091c\u093f\u092f\u092e","official_name:hr":"Kraljevina Belgija","official_name:hsb":"Belgiske kralestwo","official_name:hu":"Belga Kir\u00e1lys\u00e1g","official_name:hy":"\u0532\u0565\u056c\u0563\u056b\u0561\u0575\u056b \u0539\u0561\u0563\u0561\u057e\u0578\u0580\u0578\u0582\u0569\u0575\u0578\u0582\u0576","official_name:ia":"Regno de Belgica","official_name:id":"Kerajaan Belgia","official_name:ig":"Obodo\u00e9z\u00e8 nke Belgium","official_name:ilo":"Pagarian ti Belhika","official_name:io":"Rejio di Belgia","official_name:is":"Konungsr\u00edki\u00f0 Belg\u00eda","official_name:it":"Regno del Belgio","official_name:ja":"\u30d9\u30eb\u30ae\u30fc\u738b\u56fd","official_name:jam":"Kindom a Beljiom","official_name:ka":"\u10d1\u10d4\u10da\u10d2\u10d8\u10d8\u10e1 \u10e1\u10d0\u10db\u10d4\u10e4\u10dd","official_name:kab":"Tigelda n Biljik","official_name:kbd":"\u0411\u0435\u043b\u0433\u044d \u041f\u044d\u0449\u0442\u044b\u0445\u044c\u0435\u0439","official_name:kg":"Nsi ya ntotila ya Belezi","official_name:kk":"\u0411\u0435\u043b\u044c\u0433\u0438\u044f \u041a\u043e\u0440\u043e\u043b\u044c\u0434\u0456\u0433\u0456","official_name:kl":"Kunngeqarfik Belgia","official_name:kn":"\u0cac\u0cc6\u0cb2\u0ccd\u0c9c\u0cbf\u0caf\u0c82 \u0cb8\u0c82\u0cb8\u0ccd\u0ca5\u0cbe\u0ca8","official_name:ko":"\ubca8\uae30\uc5d0 \uc655\uad6d","official_name:koi":"\u041a\u043e\u0440\u043e\u043b\u044f \u0411\u0435\u043b\u0433\u0438\u044f","official_name:krc":"\u0411\u0435\u043b\u044c\u0433\u0438\u044f \u041a\u043e\u0440\u043e\u043b\u0435\u0432\u0441\u0442\u0432\u043e","official_name:ku":"Keyaniya Bel\u00e7\u00eekay\u00ea","official_name:kv":"\u0411\u0435\u043b\u044c\u0433\u0438\u044f \u041a\u043e\u0440\u043e\u043b\u044c\u0443\u0432","official_name:kw":"Ruwvaneth Belgek","official_name:ky":"\u0411\u0435\u043b\u044c\u0433\u0438\u044f \u041a\u043e\u0440\u043e\u043b\u0434\u0443\u0433\u0443","official_name:la":"Regnum Belgicum","official_name:lad":"Reyno de Beljika","official_name:lb":"Kinnekr\u00e4ich Belsch","official_name:lg":"Obwakabaka bwa Bubirigi","official_name:li":"Keuninkriek Belsj","official_name:lij":"Regno do Belgio","official_name:lmo":"Regn del Belgi","official_name:ln":"Mani ya B\u025b\u0301ljika","official_name:lo":"\u0ea5\u0eb2\u0e8a\u0eb0\u0ead\u0eb2\u0e99\u0eb2\u0e88\u0eb1\u0e81\u0ec1\u0e9a\u0e99\u0e8a\u0eb4\u0e81","official_name:lt":"Belgijos Karalyst\u0117","official_name:lv":"Be\u013c\u0123ijas Karaliste","official_name:lzh":"\u6bd4\u5229\u6642\u738b\u570b","official_name:mdf":"\u0411\u0435\u043b\u044c\u0433\u0438\u0435 \u041e\u0446\u044f\u0437\u043e\u0440\u043a\u0441\u0448\u0438\u0441\u044c","official_name:mi":"K\u012bngitanga Pehiamu","official_name:mk":"\u041a\u0440\u0430\u043b\u0441\u0442\u0432\u043e \u0411\u0435\u043b\u0433\u0438\u0458\u0430","official_name:mn":"\u0411\u0435\u043b\u044c\u0433\u0438\u0439\u043d \u0412\u0430\u043d\u0442 \u0423\u043b\u0441","official_name:mr":"\u092c\u0947\u0932\u094d\u091c\u093f\u092f\u092e\u091a\u0947 \u0930\u093e\u091c\u0924\u0902\u0924\u094d\u0930","official_name:ms":"Kerajaan Belgium","official_name:mt":"Renju tal-Bel\u0121ju","official_name:my":"\u1000\u1004\u103a\u1038\u1012\u1019\u103a\u1038\u1021\u1031\u102c\u1037\u1016\u103a \u1018\u101a\u103a\u101c\u103a\u1002\u103b\u102e\u101a\u1019\u103a","official_name:myv":"\u0411\u0435\u043b\u044c\u0433\u0438\u044f \u041c\u0430\u0441\u0442\u043e\u0440\u043e\u0441\u044c","official_name:nah":"Hu\u0113yitlahtohc\u0101y\u014dtl Belgica","official_name:nan":"Pe\u030dk-n\u00ed-g\u012b-kok","official_name:nds":"K\u00f6nigriek vun Belgien","official_name:nds-nl":"Koninkriek Belgi\u00eb","official_name:new":"\u092c\u0947\u0932\u094d\u091c\u093f\u092f\u092e \u0930\u093e\u091c\u0924\u0928\u094d\u0924\u094d\u0930","official_name:nl":"Koninkrijk Belgi\u00eb","official_name:nn":"Kongeriket Belgia","official_name:no":"Kongeriket Belgia","official_name:oc":"Reialme de Belgica","official_name:olo":"Bel\u2019gien kuningaskundu","official_name:os":"\u0411\u0435\u043b\u044c\u0433\u0438\u0439\u044b \u041a\u044a\u0430\u0440\u043e\u043b\u0430\u0434","official_name:pa":"\u0a2c\u0a48\u0a32\u0a1c\u0a40\u0a05\u0a2e \u0a26\u0a40 \u0a30\u0a3e\u0a1c\u0a38\u0a3c\u0a3e\u0a39\u0a40","official_name:pam":"Ka-ariyan ning Belgika","official_name:pap":"Reino B\u00e9lgika","official_name:pcd":"Ro\u00e9y\u00f4me d\u2019 Bergike","official_name:pfl":"Royaume de Belgique","official_name:pl":"Kr\u00f3lestwo Belgii","official_name:pnt":"\u0392\u03b1\u03c3\u03af\u03bb\u03b5\u03b9\u03bf\u03bd \u03c4\u03b7 \u0392\u03b5\u03bb\u03b3\u03af","official_name:ps":"\u062f \u0628\u0644\u062c\u06cc\u0645 \u0628\u0627\u062f\u0634\u0627\u0647\u064a","official_name:pt":"Reino da B\u00e9lgica","official_name:qu":"Bilhika Qhapaqsuyu","official_name:rm":"Reginavel da la Belgia","official_name:rmy":"Thangaripen Beljiyako","official_name:rn":"Irepuburika y\u2019Ububirigi","official_name:ro":"Regatul Belgiei","official_name:roa-tara":"Regne d'u B\u00e8lgie","official_name:ru":"\u041a\u043e\u0440\u043e\u043b\u0435\u0432\u0441\u0442\u0432\u043e \u0411\u0435\u043b\u044c\u0433\u0438\u044f","official_name:rue":"\u0411\u0435\u043b\u0491\u0456\u0446\u044c\u043a\u0435 \u043a\u0440\u0430\u043b\u0451\u0432\u0441\u0442\u0432\u043e","official_name:rw":"Igihugu cy\u2019Ububirigi","official_name:sah":"\u0411\u0435\u043b\u044c\u0433\u0438\u044f \u0425\u043e\u0440\u0443\u043e\u043b\u043b\u0443\u0433\u0430","official_name:sc":"Rennu de B\u00e8lgiu","official_name:sco":"Kinrick o Belgium","official_name:sd":"\u0628\u064a\u0644\u062c\u064a\u0645 \u062c\u064a \u0634\u0647\u0646\u0634\u0627\u0647\u064a\u062a","official_name:se":"Belgia gonagasriika","official_name:sg":"K\u00f6d\u00f6r\u00f6-gb\u00ef\u00e4 t\u00ee B\u00ealeze","official_name:sh":"Kraljevina Belgija","official_name:sk":"Belgick\u00e9 kr\u00e1\u013eovstvo","official_name:sl":"Kraljev\u00edna B\u00e9lgija","official_name:sm":"Malo o Peleseuma","official_name:sq":"Mbret\u00ebria e Belgjik\u00ebs","official_name:sr":"\u041a\u0440\u0430\u0459\u0435\u0432\u0438\u043d\u0430 \u0411\u0435\u043b\u0433\u0438\u0458\u0430","official_name:su":"Karajaan B\u00e9lgia","official_name:sv":"Konungariket Belgien","official_name:sw":"Ufalme wa Ubelgiji","official_name:szl":"Kr\u014dlestwo Belgije","official_name:ta":"\u0baa\u0bc6\u0bb2\u0bcd\u0b9c\u0bbf\u0baf\u0bae\u0bcd \u0b87\u0bb0\u0bbe\u0b9a\u0bcd\u0b9a\u0bbf\u0baf\u0bae\u0bcd","official_name:te":"\u0c2c\u0c46\u0c32\u0c4d\u0c1c\u0c3f\u0c2f\u0c02 \u0c30\u0c3e\u0c1c\u0c4d\u0c2f\u0c02","official_name:tet":"Reinu B\u00e9ljika nian","official_name:tg":"\u0428\u043e\u04b3\u0438\u0433\u0430\u0440\u0438\u0438 \u0411e\u043b\u0433\u0438\u044f","official_name:th":"\u0e23\u0e32\u0e0a\u0e2d\u0e32\u0e13\u0e32\u0e08\u0e31\u0e01\u0e23\u0e40\u0e1a\u0e25\u0e40\u0e22\u0e35\u0e22\u0e21","official_name:tk":"Belgi\u00fda korollygy","official_name:tl":"Kaharian ng Belhika","official_name:tr":"Bel\u00e7ika Krall\u0131\u011f\u0131","official_name:tt":"\u0411\u0435\u0301\u043b\u044c\u0433\u0438\u044f \u041a\u043e\u0440\u043e\u043b\u044c\u043b\u0435\u0433\u0435\u0301","official_name:udm":"\u041a\u043e\u0440\u043e\u043b\u0435\u0432\u0441\u0442\u0432\u043e \u0411\u0435\u043b\u044c\u0433\u0438\u044f","official_name:ug":"\u0628\u06d0\u0644\u06af\u0649\u064a\u06d5 \u067e\u0627\u062f\u0649\u0634\u0627\u06be\u0644\u0649\u0642\u0649","official_name:uk":"\u041a\u043e\u0440\u043e\u043b\u0456\u0432\u0441\u0442\u0432\u043e \u0411\u0435\u043b\u044c\u0433\u0456\u044f","official_name:ur":"\u0645\u0645\u0644\u06a9\u062a \u0628\u0644\u062c\u06cc\u0626\u0645","official_name:uz":"Belgiya Qirolligi","official_name:vec":"Regno del Belgio","official_name:vep":"Bel'gijan Kunigahuz","official_name:vi":"V\u01b0\u01a1ng qu\u1ed1c B\u1ec9","official_name:vls":"Keunienkryk Belgi\u00eb","official_name:vo":"Reg\u00e4n Belg\u00e4na","official_name:vro":"Belgi\u00e4 Kuningriik","official_name:wa":"Roy\u00e5me di Beldjike","official_name:war":"Ginhadi-an han Belhika","official_name:wo":"Ruwaayom bu Beljik","official_name:xal":"\u0411\u0435\u043b\u044c\u0497\u043c\u0443\u0434\u0438\u043d \u041e\u0440\u043d \u041d\u0443\u0442\u0433","official_name:xmf":"\u10d1\u10d4\u10da\u10d2\u10d8\u10d0\u10e8 \u10dd\u10db\u10d0\u10e4\u10d4","official_name:yi":"\u05e7\u05e2\u05e0\u05d9\u05d2\u05e8\u05d9\u05d9\u05da \u05e4\u05d5\u05df \u05d1\u05e2\u05dc\u05d2\u05d9\u05e2","official_name:yo":"Il\u1eb9\u0300\u1ecdba B\u1eb9\u0301lj\u00ed\u1ecd\u0300m","official_name:yue":"\u6bd4\u5229\u6642\u738b\u570b","official_name:zea":"Konienkriek Belgi\u00eb","official_name:zh":"\u6bd4\u5229\u65f6\u738b\u56fd \/ \u6bd4\u5229\u6642\u738b\u570b","official_name:zh-Hans":"\u6bd4\u5229\u65f6\u738b\u56fd","official_name:zh-Hant":"\u6bd4\u5229\u6642\u738b\u570b","ref:INS":"01000","timezone":"Europe\/Brussels","type":"boundary","wikidata":"Q31","wikipedia":"nl:Belgi\u00eb"},"timestamp":1716078538,"representative_point":{"type":"Point","coordinates":[4.85485110869555,50.52386525]}},"geometry":{"type":"Polygon","coordinates":[[[3.080161,51.550781],[2.3889137,51.268318],[2.790119,50.7257584],[3.1503759,50.7901],[3.2884474,50.5258668],[3.607522,50.497224],[3.709936,50.3031647],[4.2081924,50.2729896],[4.1436144,49.9764336],[4.69341,49.995412],[4.8249624,50.1692248],[4.8521382,49.7929381],[5.4713705,49.497061],[5.8185749,49.546381],[5.9106752,49.6624745],[5.7362156,49.89904],[5.9636811,50.1726282],[6.137678,50.1298597],[6.1377918,50.1298497],[6.4080855,50.3355759],[6.2063136934401895,50.52185450351415],[6.1922624,50.5210957],[6.1873202,50.5271951],[6.1963868,50.5310648],[6.197078459324695,50.53044866488242],[6.209524748454008,50.550497092827015],[6.1974378,50.5362633],[6.1742873,50.5570466],[6.2252612,50.5904592],[6.233235368454084,50.58869005553696],[6.258097130721587,50.628737273162784],[6.1817998,50.6237964],[6.1673862,50.6438806],[6.2316044,50.6489328],[6.2620473245643495,50.63510022808059],[6.2663779,50.6420759],[6.0210074,50.7542873],[5.6391699,50.8463137],[5.8326946,51.1624299],[5.2379112,51.2613525],[5.038788,51.4870006],[4.4759606,51.4781446],[3.8863496,51.2001621],[3.4274789,51.2446569],[3.080161,51.550781]],[[6.1696695,50.6622267],[6.1917159,50.6640773],[6.1961617,50.6587908],[6.183861,50.6479421],[6.1696695,50.6622267]],[[4.8696613,51.412006],[4.870578,51.4127409],[4.8730936,51.4125385],[4.8723808,51.4115009],[4.8696613,51.412006]]]}}