{"type":"Feature","properties":{"tags":{"ISO3166-1":"BF","ISO3166-1:alpha2":"BF","ISO3166-1:alpha3":"BFA","ISO3166-1:numeric":"854","admin_level":"2","alt_name:azb":"\u0628\u0648\u0631\u06a9\u06cc\u0646\u0627-\u0641\u0627\u0633\u0648","alt_name:ba":"\u0411\u0443\u0440\u043a\u0438\u043d\u0430\u0301 \u0424\u0430\u0441\u043e\u0301","alt_name:bat-smg":"Burkina Fasos","alt_name:bjn":"Burkina Faso","alt_name:ce":"\u0411\u0443\u0440\u043a\u0438\u043d\u0430 \u0424\u0430\u0441\u043e","alt_name:fy":"B\u00fbrkina Faso","alt_name:gl":"Burkina Faso","alt_name:ja":"\u30d6\u30eb\u30ad\u30ca\u5171\u548c\u56fd","alt_name:kk":"\u0411\u0443\u0440\u043a\u0438\u043d\u0430-\u0424\u0430\u0441\u043e","alt_name:ky":"\u0411\u0443\u0440\u043a\u0438\u043d\u0430 \u0424\u0430\u0441\u043e","alt_name:os":"\u0411\u0443\u0440\u043a\u0438\u043d\u0430 \u0424\u0430\u0441\u043e","alt_name:pt":"Burquina Fasso","alt_name:ru":"\u0411\u0443\u0440\u043a\u0438\u043d\u0430 \u0424\u0430\u0441\u043e","alt_name:udm":"\u0411\u0443\u0440\u043a\u0438\u043d\u0430 \u0424\u0430\u0441\u043e","alt_name:xal":"\u0411\u0443\u0440\u043a\u0438\u043d\u0430 \u0424\u0430\u0441\u0438\u043d \u041e\u0440\u043d","alt_name:zh":"\u5e03\u5409\u7eb3\u6cd5\u7d22","alt_name:zu":"iBhukina Faso","boundary":"administrative","currency":"XOF","default_language":"fr","flag":"http:\/\/upload.wikimedia.org\/wikipedia\/commons\/3\/31\/Flag_of_Burkina_Faso.svg","int_name":"Burkina Faso","name":"Burkina Faso","name:ace":"Burkina Faso","name:ady":"\u0411\u0443\u0440\u043a\u0438\u043d\u0430-\u0424\u0430\u0441\u043e","name:af":"Burkina Faso","name:ak":"Burkina Faso","name:als":"Burkina Faso","name:am":"\u1261\u122d\u12aa\u1293 \u134b\u1236","name:an":"Burkina Faso","name:ang":"Burkina Faso","name:ar":"\u0628\u0648\u0631\u0643\u064a\u0646\u0627 \u0641\u0627\u0633\u0648","name:arz":"\u0628\u0648\u0631\u0643\u064a\u0646\u0627 \u0641\u0627\u0633\u0648","name:ast":"Burkina Fasu","name:az":"Burkina-Faso","name:azb":"\u0628\u0648\u0631\u06a9\u06cc\u0646\u0627\u0641\u0627\u0633\u0648","name:ba":"\u0411\u0443\u0440\u043a\u0438\u043d\u0430\u0301-\u0424\u0430\u0441\u043e\u0301","name:bat-smg":"Bork\u0117na Fasos","name:bcl":"Burkina Faso","name:be":"\u0411\u0443\u0440\u043a\u0456\u043d\u0430\u0301-\u0424\u0430\u0441\u043e\u0301","name:be-tarask":"\u0411\u0443\u0440\u043a\u0456\u043d\u0430\u0301-\u0424\u0430\u0441\u043e\u0301","name:bg":"\u0411\u0443\u0440\u043a\u0438\u043d\u0430 \u0424\u0430\u0441\u043e","name:bh":"\u092c\u0941\u0930\u094d\u0915\u093f\u0928\u093e \u092b\u093e\u0938\u094b","name:bjn":"Burkina Paso","name:bm":"Burukina Faso","name:bn":"\u09ac\u09c1\u09b0\u09cd\u0995\u09bf\u09a8\u09be \u09ab\u09be\u09b8\u09cb","name:bo":"\u0f56\u0f74\u0f62\u0f0b\u0f40\u0f72\u0f0b\u0f53\u0f0b\u0f55\u0f0b\u0f66\u0f7c\u0f0d","name:bpy":"\u09ac\u09c1\u09b0\u09cd\u0995\u09bf\u09a8\u09be \u09ab\u09be\u09b8\u09cb","name:br":"Burkina Faso","name:bs":"Burkina Faso","name:bxr":"\u0411\u0443\u0440\u043a\u0438\u043d\u043e-\u0424\u0430\u0441\u043e","name:ca":"Burkina Faso","name:cbk-zam":"Burkina Faso","name:cdo":"Burkina Faso","name:ce":"\u0411\u0443\u0440\u043a\u0438\u043d\u0430-\u0424\u0430\u0441\u043e","name:ceb":"Burkina Faso","name:chr":"\u13cb\u13a9\u13be \u13e9\u13d0","name:ckb":"\u0628\u0648\u0631\u06a9\u06cc\u0646\u0627\u0641\u0627\u0633\u06c6","name:crh":"Burkina Faso","name:cs":"Burkina Faso","name:cv":"\u0411\u0443\u0440\u043a\u0438\u043d\u0430 \u0424\u0430\u0441\u043e","name:cy":"Bwrcina Ffaso","name:da":"Burkina Faso","name:de":"Burkina Faso","name:diq":"Burkina Faso","name:dsb":"Burkina Faso","name:dty":"\u092c\u0941\u0930\u094d\u0915\u093f\u0928\u093e \u092b\u093e\u0938\u094b","name:dv":"\u0784\u07aa\u0783\u07aa\u0786\u07a9\u0782\u07a7 \u078a\u07a7\u0790\u07af","name:dz":"\u0f56\u0fb7\u0f62\u0f0b\u0f40\u0f72\u0f0b\u0f53\u0f0b \u0f55\u0f7a\u0f0b\u0f66\u0f7c","name:ee":"Burkina Faso","name:el":"\u039c\u03c0\u03bf\u03c5\u03c1\u03ba\u03af\u03bd\u03b1 \u03a6\u03ac\u03c3\u03bf","name:en":"Burkina Faso","name:eo":"Burkina Faso","name:es":"Burkina Faso","name:et":"Burkina Faso","name:eu":"Burkina Faso","name:ext":"Burquina Fasu","name:fa":"\u0628\u0648\u0631\u06a9\u06cc\u0646\u0627\u0641\u0627\u0633\u0648","name:ff":"Burkina Faso","name:fi":"Burkina Faso","name:fo":"Burkina Faso","name:fr":"Burkina Faso","name:frp":"Burkina Fas\u00f4","name:frr":"Burkiina Faaso","name:fy":"Boerkina Faso","name:ga":"Buirc\u00edne Fas\u00f3","name:gag":"Burkina Faso","name:gd":"Buirciona Faso","name:gl":"Burquina Faso","name:gn":"Vuruk\u00edna F\u00e1so","name:gu":"\u0aac\u0ac1\u0ab0\u0acd\u0a95\u0abf\u0aa8\u0abe \u0aab\u0abe\u0ab8\u0acb","name:gv":"Burkina Faso","name:ha":"Burkina faso","name:hak":"Burkina Faso","name:haw":"Burakina Faso","name:he":"\u05d1\u05d5\u05e8\u05e7\u05d9\u05e0\u05d4 \u05e4\u05d0\u05e1\u05d5","name:hi":"\u092c\u0941\u0930\u094d\u0915\u093f\u0928\u093e \u092b\u093e\u0938\u094b","name:hif":"Burkina Faso","name:hr":"Burkina Faso","name:hsb":"Burkina Faso","name:ht":"Boukinafaso","name:hu":"Burkina Faso","name:hy":"\u0532\u0578\u0582\u0580\u056f\u056b\u0576\u0561 \u0556\u0561\u057d\u0578","name:ia":"Burkina Faso","name:id":"Burkina Faso","name:ie":"Burkina Faso","name:ig":"Burkina Faso","name:ilo":"Burkina Faso","name:io":"Burkina Faso","name:is":"B\u00fark\u00edna Fas\u00f3","name:it":"Burkina Faso","name:ja":"\u30d6\u30eb\u30ad\u30ca\u30d5\u30a1\u30bd","name:jam":"Boerkiina Faso","name:jbo":"burkinas fasos","name:jv":"Burkina Faso","name:ka":"\u10d1\u10e3\u10e0\u10d9\u10d8\u10dc\u10d0-\u10e4\u10d0\u10e1\u10dd","name:kaa":"Burkina Faso","name:kab":"Burkina fasu","name:kbp":"Purkina Fasoo","name:kg":"Burkina Faso","name:ki":"Burkina Faso","name:kk":"\u0411\u0443\u0440\u043a\u0438\u043d\u0430 \u0424\u0430\u0441\u043e","name:km":"\u1794\u17ca\u17bc\u179a\u1782\u17b8\u178e\u17b6\u17a0\u17d2\u179c\u17b6\u179f\u17bc","name:kn":"\u0cac\u0cc1\u0cb0\u0ccd\u0c95\u0cc0\u0ca8 \u0cab\u0cbe\u0cb8\u0cca","name:ko":"\ubd80\ub974\ud0a4\ub098\ud30c\uc18c","name:ks":"\u0628\u064f\u0631\u06a9\u0650\u0646\u0627 \u0641\u06cc\u0633\u0648","name:ksh":"Bukkinna-Faase","name:ku":"Burk\u00eena Faso","name:kw":"Burkina Faso","name:ky":"\u0411\u0443\u0440\u043a\u0438\u043d\u0430-\u0424\u0430\u0441\u043e","name:la":"Burkina Faso","name:lad":"Burkina Faso","name:lb":"Burkina Faso","name:lg":"Burkina Faso","name:li":"Burkina Faso","name:lij":"B\u00f2rkinn-a F\u00e4so","name:lmo":"Burkina Faso","name:ln":"Burkina Faso","name:lo":"\u0ec0\u0e9a\u0eb5\u0e81\u0eb4\u0e99\u0eb2\u0e9f\u0eb2\u0ec2\u0e8a","name:lrc":"\u0628\u0648\u0659\u0631\u06a9\u06cc\u0646\u0627\u0641\u0627\u0633\u0648","name:lt":"Burkina Fasas","name:lv":"Burkinafaso","name:lzh":"\u5e03\u57fa\u7d0d\u6cd5\u7d22","name:mai":"\u092c\u0941\u0930\u094d\u0915\u093f\u0928\u093e \u092b\u093e\u0938\u094b","name:mg":"Borkina Faso","name:min":"Burkina Faso","name:mk":"\u0411\u0443\u0440\u043a\u0438\u043d\u0430 \u0424\u0430\u0441\u043e","name:ml":"\u0d2c\u0d7c\u0d15\u0d4d\u0d15\u0d3f\u0d28\u0d3e \u0d2b\u0d3e\u0d38\u0d4b","name:mn":"\u0411\u0443\u0440\u043a\u0438\u043d\u0430 \u0424\u0430\u0441\u043e","name:mr":"\u092c\u0930\u094d\u0915\u093f\u0928\u093e \u092b\u093e\u0938\u094b","name:mrj":"\u0411\u0443\u0440\u043a\u0438\u043d\u0430 \u0424\u0430\u0441\u043e","name:ms":"Burkina Faso","name:mt":"Burkina Faso","name:my":"\u1018\u102c\u1000\u102e\u1038\u1014\u102c\u1038\u1016\u102c\u1038\u1006\u102d\u102f\u1014\u102d\u102f\u1004\u103a\u1004\u1036","name:mzn":"\u0628\u0648\u0631\u06a9\u06cc\u0646\u0627\u0641\u0627\u0633\u0648","name:na":"Burkinabato","name:nah":"Burquina Faso","name:nan":"Burkina Faso","name:nds":"Burkina Faso","name:nds-nl":"Burkina Faso","name:ne":"\u092c\u0941\u0930\u094d\u0915\u093f\u0928\u093e \u092b\u093e\u0938\u094b","name:new":"\u092c\u0941\u0930\u094d\u0915\u093f\u0928\u093e \u092b\u093e\u0938\u094b","name:nl":"Burkina Faso","name:nn":"Burkina Faso","name:no":"Burkina Faso","name:nov":"Burkina Faso","name:nso":"Burkina Faso","name:oc":"Burkina Faso","name:olo":"Burkina Faso","name:om":"Burkinaa Faasoo","name:or":"\u0b2c\u0b41\u0b30\u0b15\u0b3f\u0b28\u0b3e \u0b2b\u0b3e\u0b38\u0b4b","name:os":"\u0411\u0443\u0440\u043a\u0438\u043d\u0430\u0301-\u0424\u0430\u0441\u043e\u0301","name:pa":"\u0a2c\u0a41\u0a30\u0a15\u0a40\u0a28\u0a3e \u0a2b\u0a3c\u0a3e\u0a38\u0a4b","name:pam":"Burkina Faso","name:pap":"Burkina Faso","name:pi":"\u092c\u0941\u0930\u094d\u0915\u0940\u0928\u093e-\u092b\u093e\u0938\u094b","name:pih":"Burkina Faso","name:pl":"Burkina Faso","name:pms":"Burkina Faso","name:pnb":"\u0628\u0631\u06a9\u06cc\u0646\u0627 \u0641\u0627\u0633\u0648","name:ps":"\u0628\u0648\u0631\u06a9\u06cc\u0646\u0627 \u0641\u0627\u0633\u0648","name:pt":"Burquina Faso","name:qu":"Burkina Phasu","name:rm":"Burkina Faso","name:rn":"Burukina Faso","name:ro":"Burkina Faso","name:ru":"\u0411\u0443\u0440\u043a\u0438\u043d\u0430-\u0424\u0430\u0441\u043e","name:rue":"\u0411\u0443\u0440\u043a\u0456\u043d\u0430 \u0424\u0430\u0441\u043e","name:rw":"Burukina Faso","name:sa":"\u092c\u0941\u0930\u094d\u0915\u0940\u0928\u093e-\u092b\u093e\u0938\u094b","name:sah":"\u0411\u0443\u0440\u043a\u0438\u043d\u0430 \u0424\u0430\u0441\u043e","name:sc":"Burkina Faso","name:scn":"Burchina Fasu","name:sco":"Burkina Faso","name:se":"Burkina Faso","name:sg":"Burkina Faso","name:sh":"Burkina Faso","name:si":"\u0db6\u0dbb\u0dca\u0d9a\u0dd2\u0db1\u0dcf \u0dc6\u0dcf\u0dc3\u0ddd","name:sk":"Burkina Faso","name:sl":"Burkina Faso","name:sm":"Burkina Faso","name:smn":"Burkina Faso","name:sms":"Burkina Faso","name:sn":"Burkina Faso","name:so":"Burkina Faso","name:sq":"Burkina Faso","name:sr":"\u0411\u0443\u0440\u043a\u0438\u043d\u0430 \u0424\u0430\u0441\u043e","name:ss":"iBhukhina-Faso","name:st":"Burkina Faso","name:stq":"Burkina Faso","name:su":"Burkina Faso","name:sv":"Burkina Faso","name:sw":"Burkina Faso","name:szl":"Burkina Faso","name:ta":"\u0baa\u0bc1\u0bb0\u0bcd\u0b95\u0bcd\u0b95\u0bbf\u0ba9\u0bbe \u0baa\u0bbe\u0b9a\u0bcb","name:te":"\u0c2c\u0c30\u0c4d\u0c15\u0c40\u0c28\u0c3e \u0c2b\u0c3e\u0c38\u0c4b","name:tg":"\u0411\u0443\u0440\u043a\u0438\u043d\u0430 \u0424\u0430\u0441\u043e","name:th":"\u0e1a\u0e39\u0e23\u0e4c\u0e01\u0e34\u0e19\u0e32\u0e1f\u0e32\u0e42\u0e0b","name:ti":"\u1261\u122d\u12aa\u1293 \u134b\u1236","name:tk":"Burkina-Faso","name:tl":"Burkina Faso","name:to":"Pekano Faso","name:tok":"ma Pukinapaso","name:tr":"Burkina Faso","name:ts":"Burkina Faso","name:tt":"\u0411\u0443\u0440\u043a\u0438\u043d\u0430\u0301 \u0424\u0430\u0441\u043e\u0301","name:tzl":"Burkina-Faso","name:udm":"\u0411\u0443\u0440\u043a\u0438\u043d\u0430-\u0424\u0430\u0441\u043e","name:ug":"\u0628\u06c7\u0631\u0643\u0649\u0646\u0627 \u0641\u0627\u0633\u0648","name:uk":"\u0411\u0443\u0440\u043a\u0456\u043d\u0430\u0301-\u0424\u0430\u0441\u043e\u0301","name:ur":"\u0628\u0631\u06a9\u06cc\u0646\u0627 \u0641\u0627\u0633\u0648","name:uz":"Burkina Faso","name:vec":"Burkina Faso","name:vep":"Burkina Faso","name:vi":"Bu\u1ed1c-ki-na Pha-x\u00f4","name:vls":"Burkina Faso","name:vo":"Burkin\u00e4n","name:vro":"Burkina Faso","name:war":"Burkina Faso","name:wo":"Burkinaa Faaso","name:wuu":"\u5e03\u57fa\u7d0d\u6cd5\u7d22","name:xal":"\u0411\u0443\u0440\u043a\u0438\u043d\u0430\u043f\u0430\u0441\u0438\u043d \u041e\u0440\u043d","name:xmf":"\u10d1\u10e3\u10e0\u10d9\u10d8\u10dc\u10d0-\u10e4\u10d0\u10e1\u10dd","name:yi":"\u05d1\u05d5\u05e8\u05e7\u05d9\u05e0\u05e2 \u05e4\u05bf\u05d0\u05b7\u05e1\u05d0","name:yo":"B\u00f9rk\u00edn\u00e0 Fas\u00f2","name:yue":"\u5e03\u57fa\u7d0d\u6cd5\u7d22","name:zea":"Burkina Faso","name:zh":"\u5e03\u57fa\u7eb3\u6cd5\u7d22","name:zh-Hans":"\u5e03\u57fa\u7eb3\u6cd5\u7d22","name:zh-Hant":"\u5e03\u5409\u7d0d\u6cd5\u7d22","name:zh-Hant-CN":"\u5e03\u57fa\u7d0d\u6cd5\u7d22","name:zh-Hant-TW":"\u5e03\u5409\u7d0d\u6cd5\u7d22","name:zh-Latn-pinyin":"B\u00f9j\u012bn\u00e0f\u01cesu\u01d2","name:zu":"iBukhina Faso","official_name":"R\u00e9publique D\u00e9mocratique du Burkina Faso","official_name:an":"Republica de Burkina Faso","official_name:ar":"\u062c\u0645\u0647\u0648\u0631\u064a\u0629 \u0628\u0648\u0631\u0643\u064a\u0646\u0627 \u0641\u0627\u0633\u0648","official_name:ckb":"\u06a9\u06c6\u0645\u0627\u0631\u06cc \u062f\u06cc\u0645\u0648\u06a9\u0631\u0627\u062a\u06cc \u0628\u0648\u0631\u06a9\u06cc\u0646\u0627\u0641\u0627\u0633\u06c6","official_name:fr":"R\u00e9publique D\u00e9mocratique du Burkina Faso","official_name:scn":"Rip\u00f9bbrica d\u00fb Burchina Fasu","official_name:sg":"Burkina Faso K\u00f6d\u00f6r\u00f6s\u00ease","official_name:wo":"R\u00e9ewum Burkina Faaso","old_name":"R\u00e9publique de Haute-Volta","old_name:af":"Republiek van Bo-Volta","old_name:als":"Obervolta","old_name:ar":"\u062c\u0645\u0647\u0648\u0631\u064a\u0629 \u0641\u0648\u0644\u062a\u0627 \u0627\u0644\u0639\u0644\u064a\u0627","old_name:ast":"Altu Volta","old_name:az":"Yuxar\u0131 Volta","old_name:ba":"\u0412\u0435\u0301\u0440\u0445\u043d\u044f\u044f \u0412\u043e\u0301\u043b\u044c\u0442\u0430","old_name:bjn":"Volta Hulu","old_name:br":"Volta Uhel","old_name:bs":"Republika Gornja Volta","old_name:ca":"Alt Volta","old_name:ckb":"\u06a4\u06c6\u0644\u062a\u0627\u06cc \u0633\u06d5\u0631\u06ce","old_name:cs":"Horn\u00ed Volta","old_name:cy":"Volta Uchaf","old_name:da":"Republikken \u00d8vre Volta","old_name:de":"Republik Obervolta","old_name:dsb":"G\u00f3rna Wolta","old_name:el":"\u0386\u03bd\u03c9 \u0392\u03cc\u03bb\u03c4\u03b1","old_name:en":"Republic of Upper Volta","old_name:eo":"Respubliko de Supra Voltao","old_name:es":"Alto Volta","old_name:et":"\u00dclem-Volta","old_name:eu":"Volta Garaia","old_name:ext":"Altu Volta","old_name:fi":"Yl\u00e4-Volta","old_name:fo":"Ovara Volta","old_name:fr":"R\u00e9publique de Haute-Volta","old_name:frp":"H\u00f4ta-Volta","old_name:frr":"Boowervolta","old_name:ga":"Volta Uachtarach","old_name:gl":"Alto Volta","old_name:ha":"kogin volta","old_name:hak":"s\u00f4ng vok ng\u00ec thi\u030dt","old_name:he":"\u05e8\u05e4\u05d5\u05d1\u05dc\u05d9\u05e7\u05ea \u05d5\u05d5\u05dc\u05d8\u05d4 \u05d4\u05e2\u05d9\u05dc\u05d9\u05ea","old_name:hif":"Upper Volta","old_name:hr":"Gornja Volta","old_name:hsb":"Republika Hornja Wolta","old_name:hu":"Fels\u0151-Volta","old_name:ia":"Alte Volta","old_name:id":"Volta Hulu","old_name:ie":"Alt Volta","old_name:ilo":"Republika ti Akin-ngato a Volta","old_name:io":"Supra-Volta","old_name:is":"Efri-Volta","old_name:it":"Repubblica dell'Alto Volta","old_name:ja":"\u30aa\u30fc\u30c8\u30dc\u30eb\u30bf","old_name:ka":"\u10d6\u10d4\u10db\u10dd \u10d5\u10dd\u10da\u10e2\u10d0","old_name:ko":"\uc624\ud2b8\ubcfc\ud0c0 \uacf5\ud654\uad6d","old_name:ky":"\u0416\u043e\u0433\u043e\u0440\u043a\u0443 \u0412\u043e\u043b\u044c\u0442\u0430 \u0420\u0435\u0441\u043f\u0443\u0431\u043b\u0438\u043a\u0430\u0441\u044b","old_name:la":"Volta Superior","old_name:li":"Opper-Volta","old_name:lij":"Erto Volta","old_name:lmo":"Volt V\u00f2lta","old_name:lt":"Auk\u0161tutin\u0117s Voltos","old_name:lv":"Aug\u0161volta","old_name:lzh":"\u4e0a\u6c83\u723e\u7279","old_name:min":"Volta Hulu","old_name:mk":"\u0413\u043e\u0440\u043d\u0430 \u0412\u043e\u043b\u0442\u0430","old_name:mn":"\u0414\u044d\u044d\u0434 \u0412\u043e\u043b\u044c\u0442\u0430","old_name:mr":"\u0905\u092a\u094d\u092a\u0930 \u0935\u094d\u0939\u094b\u0932\u094d\u091f\u093e\u091a\u0947 \u092a\u094d\u0930\u091c\u093e\u0938\u0924\u094d\u0924\u093e\u0915","old_name:mt":"Repubblika tal-Volta ta' Fuq","old_name:my":"\u1021\u1011\u1000\u103a\u1017\u102d\u102f\u101c\u103a\u1010\u102c\u101e\u1019\u1039\u1019\u1010\u1014\u102d\u102f\u1004\u103a\u1004\u1036","old_name:nah":"Pani Volta","old_name:nan":"Volta-h\u00f4 Si\u014dng-i\u00fb","old_name:nds":"Obervolta","old_name:nds-nl":"Opper-Volta","old_name:new":"\u0905\u092a\u0930 \u092d\u094b\u0932\u094d\u091f\u093e \u0917\u0923\u0924\u0928\u094d\u0924\u094d\u0930","old_name:nl":"Opper-Volta;Boven-Volta","old_name:nn":"\u00d8vre Volta","old_name:no":"\u00d8vre Volta","old_name:oc":"Auta V\u00f2lta","old_name:olo":"Yl\u00e4-Vol'ta","old_name:pl":"G\u00f3rna Wolta","old_name:pms":"\u00c0ut V\u00f2lta","old_name:pt":"Rep\u00fablica do Alto Volta","old_name:ro":"Volta Superioar\u0103","old_name:ru":"\u0412\u0435\u0440\u0445\u043d\u044f\u044f \u0412\u043e\u043b\u044c\u0442\u0430","old_name:sah":"\u04ae\u04e9\u04bb\u044d\u044d \u0412\u043e\u043b\u044c\u0442\u0430 \u0420\u0435\u0441\u043f\u0443\u0431\u043b\u0438\u043a\u0430\u0442\u0430","old_name:sco":"Republic o Upper Volta","old_name:sh":"Gornja Volta","old_name:sk":"Republika Horn\u00e1 Volta","old_name:sl":"Zgornja Volta","old_name:sq":"Republika e Volt\u00ebs s\u00eb Sip\u00ebrme","old_name:sr":"\u0413\u043e\u0440\u045a\u0430 \u0412\u043e\u043b\u0442\u0430","old_name:sv":"\u00d6vre Volta","old_name:sw":"Volta ya Juu","old_name:szl":"G\u016frna Wolta","old_name:ta":"\u0b85\u0baa\u0bcd\u0baa\u0bb0\u0bcd \u0bb5\u0bcb\u0bb2\u0bcd\u0b9f\u0bcd\u0b9f\u0bbe","old_name:tl":"Republika ng Upper Volta","old_name:tr":"Yukar\u0131 Volta","old_name:tt":"\u042e\u0433\u0430\u0440\u044b \u0412\u043e\u043b\u044c\u0442\u0430","old_name:uk":"\u0420\u0435\u0441\u043f\u0443\u0431\u043b\u0456\u043a\u0438 \u0412\u0435\u0440\u0445\u043d\u044f \u0412\u043e\u043b\u044c\u0442\u0430","old_name:uz":"Yuqori Volta Respublikasi","old_name:vec":"Alto Volta","old_name:vep":"\u00dcl\u00e4vol'tan Tazovaldkundaks","old_name:vi":"C\u1ed9ng h\u00f2a Th\u01b0\u1ee3ng Volta","old_name:vls":"Ipper Volta","old_name:wuu":"\u4e0a\u4f0f\u5854","old_name:xmf":"\u10df\u10d8\u10e8\u10d4\u10dc\u10d8 \u10d5\u10dd\u10da\u10e2\u10d0","old_name:yi":"\u05e8\u05e2\u05e4\u05d5\u05d1\u05dc\u05d9\u05e7 \u05e4\u05d5\u05df \u05d0\u05d5\u05d9\u05d1\u05e2\u05e8 \u05d5\u05d5\u05d0\u05dc\u05d8\u05e2","old_name:yo":"\u00d3rile-ede Olominira Upper Volta","old_name:yue":"\u4e0a\u4f0f\u5854","old_name:zea":"Opper Volta","old_name:zh":"\u4e0a\u6c83\u5c14\u7279 \/ \u4e0a\u6c83\u723e\u7279","old_name:zh-Hans":"\u4e0a\u6c83\u5c14\u7279","old_name:zh-Hant":"\u4e0a\u6c83\u723e\u7279","short_name":"Burkina","short_name:ckb":"\u0628\u0648\u0631\u06a9\u06cc\u0646\u0627","short_name:eo":"Burkino","short_name:fi":"Burkina","short_name:fr":"Burkina","short_name:frp":"Burkina","short_name:gd":"Buirciona","short_name:hu":"Burkina","short_name:ia":"Burkina","short_name:ilo":"Burkina","short_name:kn":"\u0cac\u0cc1\u0cb0\u0ccd\u0c95\u0cc0\u0ca8","short_name:la":"Burkina","short_name:ml":"\u0d2c\u0d7c\u0d15\u0d4d\u0d15\u0d3f\u0d28\u0d3e","short_name:new":"\u092c\u0941\u0930\u094d\u0915\u093f\u0928\u093e","short_name:pa":"\u0a2c\u0a41\u0a30\u0a15\u0a40\u0a28\u0a3e","short_name:pt":"Burquina","short_name:sco":"Burkina","short_name:si":"\u0db6\u0dbb\u0dca\u0d9a\u0dd2\u0db1\u0dcf","short_name:sk":"Burkina","short_name:sq":"Burkina","short_name:su":"Burkina","short_name:ug":"\u0628\u06c7\u0631\u0643\u0649\u0646\u0627","short_name:yo":"Burkina","source:name:oc":"Lo Congr\u00e8s","type":"boundary","wikidata":"Q965","wikipedia":"fr:Burkina Faso"},"timestamp":1716078538,"representative_point":{"type":"Point","coordinates":[-1.1899383895566864,12.247047]}},"geometry":{"type":"Polygon","coordinates":[[[-5.513207,10.430789],[-5.110961,10.3076506],[-4.9669569,9.892372],[-4.6905944,9.678492],[-4.5153803,9.7514325],[-4.3129331,9.5967158],[-4.1272392,9.8472354],[-3.1897139,9.935766],[-2.8238742,9.4512482],[-2.687203,9.491666],[-2.7733426,10.4225082],[-2.9413158,10.6155674],[-2.8337019,11.0066883],[-0.6182217,10.9105024],[-0.4042784,11.1266178],[-0.1362307,11.1395102],[0.4998942,10.9317163],[0.9122091,10.9961705],[0.9453104,11.0351362],[1.1143048,11.0317986],[1.1395588,11.2715074],[1.447749,11.4810415],[2.021875,11.4306508],[2.4089717,11.9025443],[2.0655884,12.34735],[2.265,12.425],[2.1061779,12.7273022],[1.8668305,12.6054814],[0.9907487,13.1040472],[0.991913,13.3746761],[1.2847031,13.3617864],[0.620278,13.686944],[0.465,13.913611],[0.1689653,14.5220672],[0.2322304,14.999829],[-0.723987,15.084],[-1.069027,14.785124],[-1.9805,14.475666],[-1.998162,14.191679],[-2.473564,14.299451],[-2.838967,14.054385],[-2.874002,13.654096],[-3.268807,13.707476],[-3.234142,13.288968],[-3.4428682,13.1576102],[-3.960441,13.377852],[-3.9722401,13.5249755],[-4.341728,13.139479],[-4.208981,12.816605],[-4.478814,12.723753],[-4.396295,12.310532],[-4.739715,11.999476],[-5.404521,11.830716],[-5.198715,11.428803],[-5.488879,11.083035],[-5.513207,10.430789]]]}}