{"type":"Feature","properties":{"tags":{"ISO3166-1":"BN","ISO3166-1:alpha2":"BN","ISO3166-1:alpha3":"BRN","ISO3166-1:numeric":"096","admin_level":"2","alt_name:arz":"\u0628\u0631\u0648\u0646\u0627\u0649 \u062f\u0627\u0631 \u0627\u0644\u0633\u0644\u0627\u0645","alt_name:cs":"Brunej Darussalam","alt_name:gd":"Brunai","alt_name:he":"\u05d0\u05d5\u05de\u05ea \u05d1\u05e8\u05d5\u05e0\u05d9\u05d9, \u05de\u05e9\u05db\u05df \u05d4\u05e9\u05dc\u05d5\u05dd","alt_name:ka":"\u10d1\u10e0\u10e3\u10dc\u10d4\u10d8\u10e1 \u10e1\u10d0\u10ee\u10d4\u10da\u10db\u10ec\u10d8\u10e4\u10dd","alt_name:la":"Natio Bruneii, Loci Pacis","alt_name:lo":"\u0e9a\u0ea3\u0eb9\u0ec4\u0e99","alt_name:lzh":"\u6587\u840a","alt_name:qu":"Brunay","alt_name:so":"Brunei","alt_name:tr":"Brunei Dar\u00fc's-Selam Devleti","alt_name:vi":"Qu\u1ed1c gia Brunei Darussalam","alt_name:yo":"Orile-ede ile Brunei Darussalam","alt_name:zh":"\u6587\u83b1","border_type":"nation","boundary":"administrative","currency":"BND","driving_side":"left","flag":"http:\/\/upload.wikimedia.org\/wikipedia\/commons\/9\/9c\/Flag_of_Brunei.svg","int_name":"Brunei","name":"Brunei","name:ace":"Brunai","name:ady":"\u0411\u0440\u0443\u043d\u0435\u0439","name:af":"Broenei","name:ak":"Brunae","name:als":"Brunei","name:am":"\u1265\u1229\u1293\u12ed","name:an":"Brunei","name:ang":"Brunei","name:ar":"\u0628\u0631\u0648\u0646\u0627\u064a","name:arz":"\u0628\u0631\u0648\u0646\u0627\u0649","name:as":"\u09ac\u09cd\u09f0\u09c1\u09a3\u09c7\u0987","name:ast":"Brun\u00e9i","name:az":"Bruney","name:azb":"\u0628\u0631\u0648\u0646\u0626\u06cc","name:ba":"\u0411\u0440\u0443\u043d\u0435\u0439","name:bar":"Brunei","name:bat-smg":"Bruniejus","name:bcl":"Brunei","name:be":"\u0411\u0440\u0443\u043d\u0435\u0301\u0439","name:be-tarask":"\u0411\u0440\u0443\u043d\u044d\u0301\u0439","name:bg":"\u0411\u0440\u0443\u043d\u0435\u0439","name:bh":"\u092c\u094d\u0930\u0942\u0928\u0947\u0908","name:bjn":"Brunai","name:bm":"Burin\u025byi","name:bn":"\u09ac\u09cd\u09b0\u09c1\u09a8\u09be\u0987","name:bo":"\u0f56\u0fb7\u0f72\u0f0b\u0f62\u0f74\u0f0b\u0f53\u0f72\u0f0d","name:bpy":"\u09ac\u09cd\u09b0\u09c1\u09a8\u09be\u0987","name:br":"Brunei","name:bs":"Brunej","name:bug":"Brunei","name:bxr":"\u0411\u0440\u04af\u043d\u044d\u0439","name:ca":"Brunei","name:cbk-zam":"Brunei","name:cdo":"\u00d9ng-l\u00e0i","name:ce":"\u0411\u0440\u0443\u043d\u0435\u0439","name:ceb":"Brunei","name:chr":"\u13ca\u13be\u13a2","name:ckb":"\u0628\u0631\u0648\u0648\u0646\u0627\u06cc","name:crh":"Bruney","name:cs":"Brunej","name:csb":"Brunei","name:cv":"\u0411\u0440\u0443\u043d\u0435\u0439","name:cy":"Brwnei","name:da":"Brunei","name:de":"Brunei","name:diq":"Bruney","name:dsb":"Brunei","name:dty":"\u092c\u094d\u0930\u0941\u0928\u093e\u0908","name:dv":"\u0784\u07aa\u0783\u07aa\u0782\u07a6\u0787\u07a9","name:dz":"\u0f56\u0fb7\u0fb2\u0f74\u0f0b\u0f53\u0f60\u0f72","name:el":"\u039c\u03c0\u03c1\u03bf\u03c5\u03bd\u03ad\u03b9","name:en":"Brunei","name:eo":"Brunejo","name:es":"Brun\u00e9i","name:et":"Brunei","name:eu":"Brunei","name:fa":"\u0628\u0631\u0648\u0646\u0626\u06cc","name:ff":"Burnaay","name:fi":"Brunei","name:fo":"Brunei","name:fr":"Brunei","name:frp":"Bruneyi","name:frr":"Bruunei","name:fur":"Brunei","name:fy":"Br\u00fbnei","name:ga":"Br\u00fain\u00e9","name:gag":"Bruney","name:gd":"Br\u00f9naigh","name:gl":"Brunei","name:gn":"Mburun\u00e9i","name:gom":"\u092c\u094d\u0930\u0941\u0928\u0947\u0908","name:gu":"\u0aac\u0acd\u0ab0\u0ac1\u0aa8\u0ac7\u0a88","name:gv":"Brunei","name:ha":"Brunei","name:hak":"V\u00f9n-l\u00f2i","name:haw":"Brunei","name:he":"\u05d1\u05e8\u05d5\u05e0\u05d9\u05d9","name:hi":"\u092c\u094d\u0930\u0941\u0928\u0947\u0908","name:hif":"Brunei","name:hr":"Brunej","name:hsb":"Brunei","name:ht":"Brouney","name:hu":"Brunei","name:hy":"\u0532\u0580\u0578\u0582\u0576\u0565\u0575","name:ia":"Brunei","name:id":"Brunei","name:ie":"Brunei","name:ik":"Brunei","name:ilo":"Brunei","name:io":"Brunei","name:is":"Br\u00fanei","name:it":"Brunei","name:ja":"\u30d6\u30eb\u30cd\u30a4","name:jam":"Brunai","name:jv":"Brun\u00e9i","name:ka":"\u10d1\u10e0\u10e3\u10dc\u10d4\u10d8","name:kaa":"Bruney","name:kab":"Brunei","name:kg":"Brunei","name:ki":"Brunei","name:kk":"\u0411\u0440\u0443\u043d\u0435\u0439","name:kl":"Brunei","name:km":"\u1794\u17d2\u179a\u1791\u17c1\u179f\u1794\u17ca\u17d2\u179a\u17bb\u1799\u178e\u17c1","name:kn":"\u0cac\u0ccd\u0cb0\u0cc1\u0ca8\u0cc8","name:ko":"\ube0c\ub8e8\ub098\uc774","name:ks":"\u0628\u064f\u0631\u0646\u0654\u06d2","name:ksh":"Brunei","name:ku":"Br\u00fbney","name:kv":"\u0411\u0440\u0443\u043d\u0435\u0439","name:kw":"Bruney","name:ky":"\u0411\u0440\u0443\u043d\u0435\u0439","name:la":"Bruneium","name:lb":"Brunei","name:li":"Brunei","name:lij":"Brunei","name:lmo":"Brunei","name:ln":"Brunei","name:lo":"\u0e9a\u0eb9\u0ec4\u0e99","name:lrc":"\u0628\u0631\u0648\u0646\u0626\u06cc","name:lt":"Brun\u0117jus","name:lv":"Bruneja","name:lzh":"\u6c76\u840a","name:mai":"\u092c\u094d\u0930\u0941\u0928\u093e\u0908","name:map-bms":"Brunei","name:mg":"Boroney","name:mi":"Poronai","name:min":"Brunei","name:mk":"\u0411\u0440\u0443\u043d\u0435\u0458","name:ml":"\u0d2c\u0d4d\u0d30\u0d42\u0d23\u0d48","name:mn":"\u0411\u0440\u0443\u043d\u0435\u0439","name:mr":"\u092c\u094d\u0930\u0941\u0928\u0947\u0908","name:ms":"Brunei","name:ms-jawi":"\u0628\u0631\u0648\u0646\u064a \u062f\u0627\u0631\u0627\u0644\u0633\u0644\u0627\u0645","name:mt":"Brunej","name:mwl":"Brunei","name:my":"\u1018\u101b\u1030\u1014\u102d\u102f\u1004\u103a\u1038\u1014\u102d\u102f\u1004\u103a\u1004\u1036","name:mzn":"\u0628\u0648\u0631\u0648\u0646\u0626\u06cc","name:na":"Brunei","name:nah":"Brunei","name:nan":"Brunei","name:nap":"Brunei","name:nds":"Brunei","name:ne":"\u092c\u094d\u0930\u0941\u0928\u0947\u0908","name:new":"\u092c\u094d\u0930\u0941\u0928\u093e\u0907","name:nl":"Brunei","name:nn":"Brunei","name:no":"Brunei","name:nov":"Brunei","name:ny":"Brunei","name:oc":"Brunei","name:olo":"Brunei","name:om":"Birunaay","name:or":"\u0b2c\u0b4d\u0b30\u0b41\u0b28\u0b47\u0b07","name:os":"\u0411\u0440\u0443\u043d\u0435\u0439","name:pa":"\u0a2c\u0a30\u0a42\u0a28\u0a3e\u0a08","name:pam":"Brunei","name:pap":"Brunei","name:pcd":"Brunei","name:pi":"\u092c\u094d\u0930\u0942\u0928\u0948","name:pih":"Bruunii","name:pl":"Brunei","name:pms":"Brunei","name:pnb":"\u0628\u0631\u0648\u0646\u0627\u0626\u06cc","name:ps":"\u0628\u0631\u0648\u0646\u0627\u06cc","name:pt":"Brunei","name:qu":"Bruniy","name:rm":"Brunei","name:ro":"Brunei","name:ru":"\u0411\u0440\u0443\u043d\u0435\u0439","name:rue":"\u0411\u0440\u0443\u043d\u0435\u0439","name:rw":"Buruneyi","name:sa":"\u092c\u094d\u0930\u0942\u0928\u0948","name:sah":"\u0411\u0440\u0443\u043d\u0435\u0439","name:scn":"Brunei","name:sco":"Brunei","name:sd":"\u0628\u0631\u0648\u0646\u0626\u064a","name:se":"Brunei","name:sg":"Brun\u00eai","name:sh":"Brunej","name:si":"\u0db6\u0df2\u0db1\u0dcf\u0dba\u0dd2","name:sk":"Brunej","name:sl":"Brunej","name:smn":"Brunei","name:sms":"Brunei","name:sn":"Brunei","name:so":"Barunay","name:sq":"Brunei","name:sr":"\u0411\u0440\u0443\u043d\u0435\u0458","name:ss":"iBhruneyi","name:stq":"Brunei","name:su":"Brun\u00e9i","name:sv":"Brunei","name:sw":"Brunei","name:szl":"Brunei","name:ta":"\u0baa\u0bc1\u0bb0\u0bc2\u0ba3\u0bc8","name:te":"\u0c2c\u0c4d\u0c30\u0c42\u0c28\u0c48","name:tet":"Brunei","name:tg":"\u0411\u0440\u0443\u043d\u0435\u0439","name:th":"\u0e1a\u0e23\u0e39\u0e44\u0e19","name:ti":"\u1265\u1229\u1292","name:tk":"Brune\u00fd","name:tl":"Brunei","name:to":"Pulunei","name:tpi":"Brunai","name:tr":"Brunei","name:tt":"\u0411\u0440\u0443\u043d\u0435\u0301\u0439","name:tum":"Brunei","name:udm":"\u0411\u0440\u0443\u043d\u0435\u0439","name:ug":"\u0628\u0631\u06c7\u0646\u06d0\u064a","name:uk":"\u0411\u0440\u0443\u043d\u0435\u0301\u0439","name:ur":"\u0628\u0631\u0648\u0646\u0627\u0626\u06cc","name:uz":"Bruney","name:vec":"Brunei","name:vep":"Brunei","name:vi":"Brunei","name:vo":"Brun\u00e4n","name:war":"Brunei","name:wuu":"\u6587\u83b1","name:xal":"\u0411\u0440\u0443\u043d\u0435\u0439\u0433\u0438\u043d","name:xmf":"\u10d1\u10e0\u10e3\u10dc\u10d4\u10d8","name:yi":"\u05d1\u05e8\u05d5\u05e0\u05d9\u05d9","name:yo":"Brunei","name:yue":"\u6c76\u840a","name:za":"Vwnzlaiz","name:zea":"Brunei","name:zh":"\u6587\u83b1 \/ \u6c76\u840a","name:zh-Hans":"\u6587\u83b1","name:zh-Hant":"\u6c76\u840a","name:zh_pinyin":"W\u00e9nl\u00e1i","name:zu":"i-Brunei","official_name":"Negara Brunei, Rumah Yang Aman","official_name:ace":"Brunai Darussalam","official_name:ady":"\u0411\u0440\u0443\u043d\u0435\u0439 \u0414\u0430\u0440\u0443\u0441\u0441\u0430\u043b\u0430\u043c","official_name:af":"Nasie van Broenei, woning van Vrede","official_name:als":"Sultanat Brunei Darussalam","official_name:an":"Negara Brunei Darussalam","official_name:ang":"Brunei\u00fe\u0113od Fri\u00feeard","official_name:ar":"\u0627\u062a\u062d\u0627\u062f \u0628\u0631\u0648\u0646\u0627\u064a \u062f\u0627\u0631 \u0627\u0644\u0633\u0644\u0627\u0645","official_name:arz":"\u0628\u0631\u0648\u0646\u0649 \u062f\u0627\u0631\u0627\u0644\u0633\u0644\u0627\u0645","official_name:as":"\u09a8\u09c7\u0997\u09be\u09f0\u09be \u09ac\u09cd\u09f0\u09c1\u09a3\u09c7\u0987 \u09a6\u09be\u09f0\u09c1\u099a\u09c7\u09b2\u09be\u09ae","official_name:ast":"Est\u00e1u de Brun\u00e9i Darussalam","official_name:az":"Bruney S\u00fclh D\u00f6vl\u0259ti","official_name:azb":"\u0646\u06ac\u0627\u0631\u0627 \u0628\u0631\u0648\u0646\u064a \u062f\u0627\u0631\u0627\u0644\u0633\u0644\u0627\u0645","official_name:ba":"\u0411\u0440\u0443\u043d\u0435\u0439-\u0414\u0430\u0440\u0443\u0441\u0441\u0430\u043b\u0430\u043c \u0434\u04d9\u04af\u043b\u04d9\u0442\u0435","official_name:bar":"Sultanat Brunei Darussalam","official_name:be":"\u0414\u0437\u044f\u0440\u0436\u0430\u0301\u0432\u0430 \u0411\u0440\u0443\u043d\u0435\u0301\u0439 \u0414\u0430\u0440\u0443\u0441\u0430\u043b\u0430\u0301\u043c","official_name:be-tarask":"\u0411\u0440\u0443\u043d\u044d\u0439 \u0414\u0430\u0440\u0443\u0441\u0430\u043b\u0430\u043c","official_name:bg":"\u0421\u0443\u043b\u0442\u0430\u043d\u0441\u0442\u0432\u043e \u0411\u0440\u0443\u043d\u0435\u0439 \u0414\u0430\u0440\u0443\u0441\u0441\u0430\u043b\u0430\u043c","official_name:bjn":"Brunai Darussalam","official_name:bpy":"\u09a8\u09c7\u0997\u09be\u09b0\u09be \u09ac\u09cd\u09b0\u09c1\u09a8\u09be\u0987 \u09a6\u09be\u09b0\u09c1\u09b8\u09b8\u09be\u09b2\u09be\u09ae","official_name:br":"Stad Brunei Darussalam","official_name:bs":"Sultanat Brunej","official_name:ceb":"Negara Brunei Darussalam","official_name:crh":"Bruney Dar\u00fc's-Sel\u00e2m Devleti","official_name:cs":"St\u00e1t Brunej Darussalam","official_name:cv":"\u0411\u0440\u0443\u043d\u0435\u0439 \u0414\u0430\u0440\u0443\u0441\u0441\u0430\u043b\u0430\u043c \u0441\u0443\u043b\u0442\u0430\u043d\u0430\u0447\u0115","official_name:cy":"Teyrnas Brwnei","official_name:da":"Sultanatet Brunei","official_name:de":"Sultanat Brunei Darussalam","official_name:dsb":"Sultanat Brunei Darussalam","official_name:el":"\u03a3\u03bf\u03c5\u03bb\u03c4\u03b1\u03bd\u03ac\u03c4\u03bf \u03c4\u03bf\u03c5 \u039c\u03c0\u03c1\u03bf\u03c5\u03bd\u03ad\u03b9","official_name:en":"Nation of Brunei, the Abode of Peace","official_name:eo":"Sultanlando de Brunejo, la lo\u011dejo de paco","official_name:es":"Estado de Brun\u00e9i, Morada de la Paz","official_name:et":"Brunei Darussalami Riik","official_name:eu":"Bruneiko Estatua, Bakearen Egoitza","official_name:fa":"\u06a9\u0634\u0648\u0631 \u0628\u0631\u0648\u0646\u0626\u06cc \u0633\u0631\u0627\u06cc \u0635\u0644\u062d","official_name:fi":"Brunei Darussalamin valtio","official_name:fr":"Sultanat de Brunei Darussalam","official_name:frr":"Sultanaat Bruunei Darussalam","official_name:fy":"Naasje Br\u00fbnei, de Wente fan 'e Frede","official_name:ga":"St\u00e1t Bhr\u00fain\u00e9, \u00c1itreabh S\u00edoch\u00e1na","official_name:gl":"Estado de Brunei Darussalam","official_name:gn":"Tet\u00e3 Mburun\u00e9i, Py'aguapy Rekoha","official_name:gu":"\u0aa8\u0ac7\u0a97\u0abe\u0ab0\u0abe \u0aac\u0acd\u0ab0\u0ac1\u0aa8\u0ac7\u0a88 \u0aa6\u0abe\u0ab0\u0ac1\u0ab8\u0acd\u0ab8\u0ab2\u0abe\u0aae","official_name:gv":"Steat Vrunei, Cummal Shee","official_name:he":"\u05d0\u05d5\u05de\u05ea \u05d1\u05e8\u05d5\u05e0\u05d9\u05d9, \u05de\u05e9\u05db\u05df \u05d4\u05e9\u05dc\u05d5\u05dd","official_name:hi":"\u0928\u0947\u0917\u093e\u0930\u093e \u092c\u094d\u0930\u0941\u0928\u0947\u0908 \u0926\u093e\u0930\u0941\u0938\u094d\u0938\u0932\u093e\u092e","official_name:hif":"Sultanate of Brunei","official_name:hr":"Brunej Darussalam","official_name:hsb":"Sultanat Brunei Darussalam","official_name:hu":"Brunei Szultan\u00e1tus","official_name:ia":"Sultanato de Brunei","official_name:id":"Negara Brunei Darussalam","official_name:ilo":"Pagilian ti Brunei, ti Pagtaengan ti Kappia","official_name:is":"Sold\u00e1nsd\u00e6mi\u00f0 Br\u00fanei Darussalam","official_name:it":"Sultanato del Brunei","official_name:ja":"\u30d6\u30eb\u30cd\u30a4\u30fb\u30c0\u30eb\u30b5\u30e9\u30fc\u30e0\u56fd","official_name:jv":"Brunei Darussalam","official_name:ka":"\u10d1\u10e0\u10e3\u10dc\u10d4\u10d8 \u10d3\u10d0\u10e0\u10e3\u10e1\u10d0\u10da\u10d0\u10db\u10d8","official_name:km":"\u1794\u17d2\u179a\u17ca\u17bb\u1799\u178e\u17c1 \u1791\u17d2\u179c\u17b6\u179a\u1793\u17c3\u179f\u1793\u17d2\u178f\u17b7\u1797\u17b6\u1796","official_name:kn":"\u0cac\u0ccd\u0cb0\u0cc1\u0ca8\u0cc8 \u0cb0\u0cbe\u0c9c\u0ccd\u0caf, \u0cb6\u0cbe\u0c82\u0ca4\u0cbf\u0caf \u0ca8\u0cc6\u0cb2\u0cc6\u0cb5\u0cc0\u0ca1\u0cc1","official_name:ko":"\ube0c\ub8e8\ub098\uc774 \ub2e4\ub8e8\uc0b4\ub78c","official_name:ksh":"Brunei Darussallam","official_name:kv":"\u0411\u0440\u0443\u043d\u0435\u0439-\u0414\u0430\u0440\u0443\u0441\u0441\u0430\u043b\u0430\u043c \u0441\u0443\u043b\u0442\u0430\u043d\u0443\u0432","official_name:ky":"\u0411\u0440\u0443\u043d\u0435\u0439 \u0414\u0430\u0440\u0443\u0441\u0441\u0430\u043b\u0430\u043c \u043c\u0430\u043c\u043b\u0435\u043a\u0435\u0442\u0438","official_name:la":"Civitas Bruneii, Loci Pacis","official_name:lb":"Sultanat Brunei Darussalam","official_name:lij":"Brunei Dar As-Salam","official_name:lt":"Brun\u0117jaus Valstyb\u0117, Taikos U\u017euov\u0117ja","official_name:lv":"Bruneja Darusalama","official_name:lzh":"\u6c76\u840a\u548c\u5e73\u4e4b\u570b","official_name:map-bms":"Brunei Darussalam","official_name:min":"Nagara Brunei Darussalam","official_name:mk":"\u0414\u0440\u0436\u0430\u0432\u0430 \u0411\u0440\u0443\u043d\u0435\u0458, \u0414\u043e\u043c \u043d\u0430 \u043c\u0438\u0440\u043e\u0442","official_name:ml":"\u0d38\u0d4d\u0d31\u0d4d\u0d31\u0d47\u0d31\u0d4d\u0d31\u0d4d \u0d13\u0d2b\u0d4d \u0d2c\u0d4d\u0d30\u0d42\u0d23\u0d48, \u0d05\u0d2c\u0d4b\u0d21\u0d4d \u0d13\u0d2b\u0d4d \u0d2a\u0d40\u0d38\u0d4d","official_name:mn":"\u0411\u0440\u0443\u043d\u0435\u0439 \u0414\u0430\u0440\u0443\u0441\u0441\u0430\u043b\u0430\u043c \u0423\u043b\u0441","official_name:mr":"\u092c\u094d\u0930\u0941\u0928\u0947\u0908 \u0926\u093e\u0930\u0941\u0938\u094d\u0938\u0932\u093e\u092e","official_name:ms":"Negara Brunei, Rumah Yang Aman","official_name:mt":"Nazzjon tal-Brunej Darussalam","official_name:nah":"Tlahtohc\u0101y\u014dtl Brunei Y\u014dcoxc\u0101nemiliztli \u012ach\u0101n","official_name:nan":"Brunei Darussalam Kok","official_name:nap":"Sultanato 'e Brunei, Casa d''a Pace","official_name:ne":"\u0928\u0947\u0917\u093e\u0930\u093e \u092c\u094d\u0930\u0941\u0928\u0947\u0908 \u0926\u093e\u0930\u0941\u0938\u094d\u0938\u0932\u093e\u092e","official_name:new":"\u0928\u0947\u0917\u093e\u0930\u093e \u092c\u094d\u0930\u0941\u0928\u093e\u0907 \u0926\u093e\u0930\u0941\u0938\u093e\u0932\u0947\u092e","official_name:nl":"Staat Brunei Darussalam","official_name:nn":"Brunei Darussalam","official_name:no":"Brunei Darussalam","official_name:oc":"Sultanat de Brunei","official_name:os":"\u0421\u0443\u043b\u0442\u0430\u043d\u0430\u0442 \u0411\u0440\u0443\u043d\u0435\u0439-\u0414\u0430\u0440\u0443\u0441\u0441\u0430\u043b\u0430\u043c","official_name:pa":"\u0a28\u0a47\u0a17\u0a3e\u0a30\u0a3e \u0a2c\u0a30\u0a41\u0a28\u0a47\u0a08 \u0a26\u0a3e\u0a30\u0a41\u0a71\u0a38\u0a32\u0a3e\u0a2e","official_name:pam":"State ning Brunei, Karinan ning Kapayapan","official_name:pcd":"Sultanat d' Brunei","official_name:pl":"Pa\u0144stwo Brunei Darussalam","official_name:ps":"\u0646\u06d0\u06af\u0627\u0631\u0627 \u0628\u0631\u0648\u0646\u0648\u064a \u062f\u0627\u0631\u0627\u0644\u0633\u0644\u0627\u0645","official_name:pt":"Estado de Brunei Darussal\u00e3","official_name:qu":"Bruniy Mama llaqta, Wasi Thakmanta","official_name:ro":"Statul Brunei, Domiciliul P\u0103cii","official_name:ru":"\u0413\u043e\u0441\u0443\u0434\u0430\u0440\u0441\u0442\u0432\u043e \u0411\u0440\u0443\u043d\u0435\u0439-\u0414\u0430\u0440\u0443\u0441\u0441\u0430\u043b\u0430\u043c","official_name:rue":"\u0421\u0443\u043b\u0442\u0430\u043d\u0430\u0442 \u0411\u0440\u0443\u043d\u0435\u0439","official_name:rw":"Buruneyi Darusalamu","official_name:sah":"\u0411\u0440\u0443\u043d\u0435\u0439 \u0438\u043b\u044d, \u042d\u0439\u044d \u0421\u0438\u0440\u044d","official_name:scn":"Sultanatu di lu Brunei Darussalam","official_name:sco":"Naition o Brunei, the Abode o Peace","official_name:sd":"\u0646\u06af\u0627\u0631\u0627 \u0628\u0631\u0648\u0646\u0626\u064a \u062f\u0627\u0631\u0627\u0644\u0633\u0644\u0627\u0645","official_name:se":"Brunei Darussalam st\u00e1hta","official_name:sg":"Et\u00e4a t\u00ee Brun\u00eai","official_name:sh":"Brunej Darussalam","official_name:si":"\u0db1\u0dd9\u0d9c\u0dcf\u0dbb\u0dcf \u0db6\u0df2\u0db1\u0dcf\u0dba\u0dd2, \u0dc3\u0dcf\u0db8\u0dba\u0dda \u0db8\u0dd4\u0dbd\u0dc3\u0dca\u0dae\u0dcf\u0db1\u0dba","official_name:sk":"Brunejsko-darussalamsk\u00fd \u0161t\u00e1t","official_name:sl":"Sultanat Brunej","official_name:sq":"Shteti i Bruneit Vend i Paqes","official_name:sr":"\u041d\u0430\u0446\u0438\u0458\u0430 \u0411\u0440\u0443\u043d\u0435\u0458\u0430, \u0431\u043e\u0440\u0430\u0432\u0438\u0448\u0442\u0435 \u043c\u0438\u0440\u0430","official_name:su":"Nagara Brun\u00e9i, Imah Kasajahtraan","official_name:sv":"Brunei Darussalam","official_name:sw":"Brunei Nyumba ya Amani","official_name:szl":"Pa\u0144stwo Brunei Darussalam","official_name:ta":"\u0baa\u0bc1\u0bb0\u0bc1\u0ba9\u0bc8 \u0ba8\u0bbe\u0b9f\u0bc1, \u0b85\u0bae\u0bc8\u0ba4\u0bbf\u0baf\u0bbf\u0ba9\u0bcd \u0b87\u0bb2\u0bcd\u0bb2\u0bae\u0bcd","official_name:te":"\u0c2c\u0c4d\u0c30\u0c42\u0c28\u0c48 \u0c30\u0c3e\u0c1c\u0c4d\u0c2f \u0c36\u0c3e\u0c02\u0c24\u0c3f\u0c27\u0c3e\u0c2e\u0c02","official_name:tg":"\u0411\u0440\u0443\u043d\u0435\u0439 \u0414\u043e\u0440\u0443\u0441\u0441\u0430\u043b\u0430\u043c","official_name:th":"\u0e40\u0e19\u0e01\u0e32\u0e23\u0e32\u0e1a\u0e23\u0e39\u0e44\u0e19\u0e14\u0e32\u0e23\u0e38\u0e2a\u0e0b\u0e32\u0e25\u0e32\u0e21","official_name:tk":"Brune\u00fd-Darussalam d\u00f6wleti","official_name:tl":"Bansa ng Brunei, Tahanan ng Kapayapaan","official_name:tpi":"Kantri long Brunai, Hap long Gutpela taim","official_name:tr":"Brunei Bar\u0131\u015f \u00dclkesi Devleti","official_name:tt":"\u0411\u0440\u0443\u043d\u0435\u0439 \u0414\u0430\u0440\u0443\u0441\u0441\u0430\u043b\u0430\u043c \u0414\u04d9\u04af\u043b\u04d9\u0442\u0435","official_name:udm":"\u041a\u043e\u0440\u043e\u043b\u0435\u0432\u0441\u0442\u0432\u043e \u0411\u0440\u0443\u043d\u0435\u0439","official_name:ug":"\u0628\u0631\u06c7\u0646\u06d0\u064a \u062f\u0627\u0631\u06c7\u0633\u0633\u0627\u0644\u0627\u0645 \u062f\u06c6\u0644\u0649\u062a\u0649","official_name:uk":"\u0414\u0435\u0440\u0436\u0430\u0301\u0432\u0430 \u0411\u0440\u0443\u043d\u0435\u0301\u0439 \u0414\u0430\u0440\u0443\u0441\u0441\u0430\u043b\u0430\u0301\u043c","official_name:ur":"\u0631\u06cc\u0627\u0633\u062a \u0628\u0631\u0648\u0646\u0627\u0626\u06cc \u062f\u0627\u0631\u0627\u0644\u0633\u0644\u0627\u0645","official_name:uz":"Bruney Dorussalam","official_name:vec":"Stato de el Brunei, Dimora de \u019aa Paxe","official_name:vep":"Brunein Darussalaman Valdkund","official_name:vi":"Nh\u00e0 n\u01b0\u1edbc Brunei Darussalam","official_name:xal":"\u0411\u0440\u0443\u043d\u0435\u0439\u0433\u0438\u043d \u041d\u0443\u0442\u0433","official_name:xmf":"\u10d1\u10e0\u10e3\u10dc\u10d4\u10d8\u10e8 \u10d9\u10d0\u10d7\u10d0, \u10e8\u10d5\u10d8\u10d3\u10dd\u10d1\u10d0\u10e8 \u10dd\u10e0\u10d4\u10dc\u10d8","official_name:yo":"Orileabinibi ile Brunei, Ibi Alafia","official_name:yue":"\u6c76\u840a\u4f0a\u65af\u862d\u6559\u541b\u4e3b\u570b","official_name:zea":"Sultanaot van Brunei","official_name:zh":"\u6587\u83b1\u8fbe\u9c81\u8428\u5170\u56fd \/ \u6c76\u840a\u4f0a\u65af\u862d\u6559\u541b\u4e3b\u570b","official_name:zh-Hans":"\u6587\u83b1\u8fbe\u9c81\u8428\u5170\u56fd","official_name:zh-Hant":"\u6c76\u840a\u4f0a\u65af\u862d\u6559\u541b\u4e3b\u570b","timezone":"Asia\/Brunei","type":"boundary","wikidata":"Q921","wikipedia":"ms:Brunei"},"timestamp":1716078538,"representative_point":{"type":"Point","coordinates":[114.44134247542314,4.60066245]}},"geometry":{"type":"MultiPolygon","coordinates":[[[[114.9278784,5.1520776],[114.0025696,4.7739369],[114.660129,4.010256],[114.880175,4.37068],[114.769741,4.723991],[115.0152864,4.8940618],[115.0906299,4.3853564],[115.3622658,4.3369925],[115.1294444,4.9372222],[115.238435,5.0989759],[114.9278784,5.1520776]]],[[[113.0179338,6.348988],[113.2167789,6.147424],[113.4195475,6.3450886],[113.2207024,6.5465753],[113.0179338,6.348988]]]]}}