{"type":"Feature","properties":{"tags":{"ISO3166-1":"BO","ISO3166-1:alpha2":"BO","ISO3166-1:alpha3":"BOL","ISO3166-1:numeric":"068","admin_level":"2","alt_name:bo":"\u0f56\u0f7c\u0f0b\u0f63\u0f72\u0f0b\u0f56\u0f72\u0f0b\u0f61","alt_name:gd":"Bolibhia","alt_name:new":"\u092c\u0941\u0932\u093f\u092c\u094d\u092f\u093e","alt_name:nl":"Bolivi\u00eb","boundary":"administrative","currency":"BOB","default_language":"es","flag":"https:\/\/upload.wikimedia.org\/wikipedia\/commons\/4\/48\/Flag_of_Bolivia.svg","int_name":"Bolivia","name":"Bolivia","name:ab":"\u0411\u043e\u043b\u0438\u0301\u0432\u0438\u0430","name:ace":"Bolivia","name:ady":"\u0411\u043e\u043b\u0438\u0432\u0438\u0435","name:af":"Bolivi\u00eb","name:als":"Bolivie","name:am":"\u1266\u120a\u126a\u12eb","name:an":"Bolivia","name:ang":"Bolifia","name:ar":"\u0628\u0648\u0644\u064a\u0641\u064a\u0627","name:arz":"\u0628\u0648\u0644\u064a\u0641\u064a\u0627","name:ast":"Bolivia","name:ay":"Wuliwya","name:az":"Boliviya","name:azb":"\u0628\u0648\u0644\u06cc\u0648\u06cc","name:ba":"\u0411\u043e\u043b\u0438\u0432\u0438\u044f","name:bar":"Bolivien","name:bat-smg":"Buol\u0117v\u0117j\u0117","name:bcl":"Bolibya","name:be":"\u0411\u0430\u043b\u0456\u0301\u0432\u0456\u044f","name:be-tarask":"\u0411\u0430\u043b\u0456\u0432\u0456\u044f","name:bg":"\u0411\u043e\u043b\u0438\u0432\u0438\u044f","name:bh":"\u092c\u094b\u0932\u0940\u0935\u093f\u092f\u093e","name:bi":"Bolivia","name:bm":"Bolivia","name:bn":"\u09ac\u09b2\u09bf\u09ad\u09bf\u09af\u09bc\u09be","name:bo":"\u0f56\u0fb7\u0f7c\u0f0b\u0f63\u0f72\u0f0b\u0f5d\u0f72\u0f0b\u0f61\u0f0d","name:bpy":"\u09ac\u09b2\u09bf\u09ad\u09bf\u09af\u09bc\u09be","name:br":"Bolivia","name:bs":"Bolivija","name:bxr":"\u0411\u043e\u043b\u0438\u0432\u0438","name:ca":"Bol\u00edvia","name:cbk-zam":"Bolivia","name:cdo":"Bolivia","name:ce":"\u0411\u043e\u043b\u0438\u0432\u0438","name:ceb":"Bolivia","name:chr":"\u13c9\u13b5\u13eb\u13a0","name:ckb":"\u0628\u06c6\u0644\u06cc\u06a4\u06cc\u0627","name:co":"Bolivia","name:crh":"Boliviya","name:cs":"Bol\u00edvie","name:cv":"\u0411\u043e\u043b\u0438\u0432\u0438","name:cy":"Bolifia","name:da":"Bolivia","name:de":"Bolivien","name:diq":"Bolivya","name:dsb":"Boliwiska","name:dty":"\u092c\u094b\u0932\u093f\u092d\u093f\u092f\u093e","name:dv":"\u0784\u07ae\u078d\u07a9\u0788\u07a8\u0787\u07a7","name:dz":"\u0f56\u0f7c\u0f0b\u0f63\u0f72\u0f0b\u0f5d\u0f72\u0f61","name:ee":"Bolivia","name:el":"\u0392\u03bf\u03bb\u03b9\u03b2\u03af\u03b1","name:en":"Bolivia","name:eo":"Bolivio","name:es":"Bolivia","name:et":"Boliivia","name:eu":"Bolivia","name:ext":"Bol\u00edvia","name:fa":"\u0628\u0648\u0644\u06cc\u0648\u06cc","name:ff":"Boliwii","name:fi":"Bolivia","name:fo":"Bolivia","name:fr":"Bolivie","name:frp":"Bolivie","name:frr":"Boliiwien","name:fur":"Bolivie","name:fy":"Bolivia","name:ga":"an Bholaiv","name:gag":"Boliviya","name:gd":"Boilibhia","name:gl":"Bolivia","name:gn":"Vol\u00edvia","name:gom":"\u092c\u094b\u0932\u093f\u0935\u094d\u0939\u093f\u092f\u093e","name:gu":"\u0aac\u0acb\u0ab2\u0ac0\u0ab5\u0abf\u0aaf\u0abe","name:gv":"yn Volivia","name:ha":"Bolibiya","name:hak":"P\u00f4-li-v\u00ec-\u00e2","name:he":"\u05d1\u05d5\u05dc\u05d9\u05d1\u05d9\u05d4","name:hi":"\u092c\u094b\u0932\u093f\u0935\u093f\u092f\u093e","name:hif":"Bolivia","name:hr":"Bolivija","name:hsb":"Boliwiska","name:ht":"Bolivi","name:hu":"Bol\u00edvia","name:hy":"\u0532\u0578\u056c\u056b\u057e\u056b\u0561\u0576","name:ia":"Bolivia","name:id":"Bolivia","name:ie":"Bolivia","name:ig":"Bolivia","name:ilo":"Bolivia","name:io":"Bolivia","name:is":"B\u00f3liv\u00eda","name:it":"Bolivia","name:ja":"\u30dc\u30ea\u30d3\u30a2","name:jam":"Bolivia","name:jbo":"bolivias","name:jv":"Bolivia","name:ka":"\u10d1\u10dd\u10da\u10d8\u10d5\u10d8\u10d0","name:kaa":"Boliviya","name:kab":"Bolivia","name:kbp":"Polivii","name:kg":"Bolivia","name:ki":"Bolivia","name:kk":"\u0411\u043e\u043b\u0438\u0301\u0432\u0438\u044f","name:kl":"Bolivia","name:km":"\u1794\u17bc\u179b\u17b8\u179c\u17b8","name:kn":"\u0cac\u0cca\u0cb2\u0cbf\u0cb5\u0cbf\u0caf","name:ko":"\ubcfc\ub9ac\ube44\uc544","name:krc":"\u0411\u043e\u043b\u0438\u0301\u0432\u0438\u044f","name:ks":"\u0628\u0648\u0644\u0650\u0648\u0650\u06cc\u0627","name:ksh":"Bolliivije","name:ku":"Bol\u00eevya","name:kw":"Bolivi","name:ky":"\u0411\u043e\u043b\u0438\u0432\u0438\u044f","name:la":"Bolivia","name:lad":"Bolivia","name:lb":"Bolivien","name:lez":"\u0411\u043e\u043b\u0438\u0301\u0432\u0438\u044f","name:lg":"Boliviya","name:li":"Bolivia","name:lij":"Bolivia","name:lmo":"Bulivia","name:ln":"Bolivia","name:lo":"\u0ec2\u0e9a\u0ea5\u0eb5\u0ea7\u0eb5","name:lrc":"\u0628\u0648\u0659\u0644\u06cc\u06a4\u06cc","name:lt":"Bolivija","name:ltg":"Boliveja","name:lv":"Bol\u012bvija","name:lzh":"\u73bb\u5229\u7dad\u4e9e","name:mg":"Bolivia","name:mhr":"\u0411\u043e\u043b\u0438\u0432\u0438\u0439","name:mi":"Poriwia","name:mk":"\u0411\u043e\u043b\u0438\u0432\u0438\u0458\u0430","name:ml":"\u0d2c\u0d4a\u0d33\u0d40\u0d35\u0d3f\u0d2f","name:mn":"\u0411\u043e\u043b\u0438\u0432\u0438","name:mr":"\u092c\u094b\u0932\u093f\u0935\u094d\u0939\u093f\u092f\u093e","name:mrj":"\u0411\u043e\u043b\u0438\u0432\u0438","name:ms":"Bolivia","name:mt":"Bolivja","name:mwl":"Bol\u00edbia","name:my":"\u1018\u102d\u102f\u101c\u102e\u1038\u1017\u102e\u1038\u101a\u102c\u1038\u1014\u102d\u102f\u1004\u103a\u1004\u1036","name:mzn":"\u0628\u0648\u0644\u06cc\u0648\u06cc","name:na":"Boribiya","name:nah":"Bolivia","name:nan":"Bolivia","name:nap":"Bolivia","name:nds":"Bolivien","name:ne":"\u092c\u094b\u0932\u093f\u092d\u093f\u092f\u093e","name:new":"\u092c\u094b\u0932\u093f\u092d\u093f\u092f\u093e","name:nl":"Bolivia","name:nn":"Bolivia","name:no":"Bolivia","name:nov":"Bolivia","name:nv":"Bol\u00edbiya","name:oc":"Bol\u00edvia","name:olo":"Bolivii","name:om":"Boliiviyaa","name:or":"\u0b2c\u0b4b\u0b32\u0b3f\u0b2d\u0b3f\u0b06","name:os":"\u0411\u043e\u043b\u0438\u0432\u0438","name:pa":"\u0a2c\u0a4b\u0a32\u0a40\u0a35\u0a40\u0a06","name:pam":"Bolivia","name:pap":"Bolivia","name:pfl":"Bolivje","name:pi":"\u092c\u094b\u0932\u093f\u0935\u093f\u092f\u093e","name:pih":"Boliwya","name:pl":"Boliwia","name:pms":"Bolivia","name:pnb":"\u0628\u0648\u0644\u06cc\u0648\u06cc\u0627","name:ps":"\u0628\u0648\u0644\u06d0\u0648\u06cc\u0627","name:pt":"Bol\u00edvia","name:qu":"Wuliwiya","name:rm":"Bolivia","name:rmy":"Boliviya","name:rn":"Boliviya","name:ro":"Bolivia","name:ru":"\u0411\u043e\u043b\u0438\u0432\u0438\u044f","name:rue":"\u0411\u043e\u043b\u0456\u0301\u0432\u0456\u044f","name:rw":"Boliviya","name:sa":"\u092c\u094b\u0932\u093f\u0935\u093f\u092f\u093e","name:sah":"\u0411\u043e\u043b\u0438\u0432\u0438\u044f","name:sc":"Bol\u00ecvia","name:scn":"Bolivia","name:sco":"Bolivie","name:se":"Bolivia","name:sg":"Boliv\u00efi","name:sh":"Bolivija","name:si":"\u0db6\u0ddc\u0dbd\u0dd3\u0dc0\u0dd2\u0dba\u0dcf\u0dc0","name:simple":"Bolivia","name:sk":"Bol\u00edvia","name:sl":"Bolivija","name:sm":"Polevia","name:smn":"Bolivia","name:sms":"Bolivia","name:sn":"Bolivia","name:so":"Boliifia","name:sq":"Bolivia","name:sr":"\u0411\u043e\u043b\u0438\u0432\u0438\u0458\u0430","name:ss":"IBholiviya","name:stq":"Bolivien","name:su":"Bolivia","name:sv":"Bolivia","name:sw":"Bolivia","name:szl":"Boliwij\u014f","name:ta":"\u0baa\u0bca\u0bb2\u0bbf\u0bb5\u0bbf\u0baf\u0bbe","name:te":"\u0c2c\u0c4a\u0c32\u0c40\u0c35\u0c3f\u0c2f\u0c3e","name:tet":"Bol\u00edvia","name:tg":"\u0411\u043e\u043b\u0438\u0432\u0438\u044f","name:th":"\u0e42\u0e1a\u0e25\u0e34\u0e40\u0e27\u0e35\u0e22","name:ti":"\u1266\u120a\u126a\u12eb","name:tk":"Boliwi\u00fda","name:tl":"Bolivia","name:to":"Pol\u012bvia","name:tpi":"Bolivia","name:tr":"Bolivya","name:tt":"\u0411\u043e\u043b\u0438\u0301\u0432\u0438\u044f","name:tzl":"Bolivia","name:ug":"\u0628\u0648\u0644\u0649\u06cb\u0649\u064a\u06d5","name:uk":"\u0411\u043e\u043b\u0456\u0301\u0432\u0456\u044f","name:ur":"\u0628\u0648\u0644\u06cc\u0648\u06cc\u0627","name:uz":"Boliviya","name:vec":"Bo\u0142ivia","name:vep":"Bolivii","name:vi":"Bolivia","name:vo":"Boliv\u00e4n","name:vro":"Boliivia","name:wa":"Boliveye","name:war":"Bolivia","name:wo":"Boliibi","name:wuu":"\u73bb\u5229\u7ef4\u4e9a","name:xal":"\u0411\u043e\u043b\u0438\u0432\u043c\u0443\u0434\u0438\u043d","name:xmf":"\u10d1\u10dd\u10da\u10d8\u10d5\u10d8\u10d0","name:yi":"\u05d1\u05d0\u05dc\u05d9\u05d5\u05d5\u05d9\u05e2","name:yo":"B\u00f2l\u00edf\u00ed\u00e0","name:yue":"\u73bb\u5229\u7dad\u4e9e","name:za":"Bolivia","name:zea":"Bolivia","name:zh":"\u73bb\u5229\u7ef4\u4e9a \/ \u73bb\u5229\u7dad\u4e9e","name:zh-Hans":"\u73bb\u5229\u7ef4\u4e9a","name:zh-Hant":"\u73bb\u5229\u7dad\u4e9e","name:zu":"i-Bolivia","official_name":"Estado Plurinacional de Bolivia","official_name:ab":"\u0420\u0430\u0446\u04d9\u0430\u043d\u044b \u0410\u043c\u0438\u043b\u0430\u04ad\u049b\u04d9\u0430 \u0440\u04b3\u04d9\u044b\u043d\u04ad\u049b\u0430\u0440\u0440\u0430 \u0411\u043e\u043b\u0438\u0432\u0438\u0430","official_name:af":"Plurinasionale Staat van Bolivi\u00eb","official_name:am":"\u12e8\u1266\u120a\u126a\u12eb \u1265\u12d9-\u1265\u1214\u122e\u127d \u122a\u1350\u1265\u120a\u12ad","official_name:an":"Estato Plurinacional de Bolivia","official_name:ar":"\u062f\u0648\u0644\u0629 \u0628\u0648\u0644\u064a\u0641\u064a\u0627","official_name:ay":"Wuliwya Walja Suyunakana Marka","official_name:ba":"\u041a\u04af\u043f \u041c\u0438\u043b\u043b\u04d9\u0442\u043b\u0435 \u0411\u043e\u043b\u0438\u0432\u0438\u044f \u0414\u04d9\u04af\u043b\u04d9\u0442\u0435","official_name:be":"\u0428\u043c\u0430\u0442\u043d\u0430\u0446\u044b\u044f\u043d\u0430\u0301\u043b\u044c\u043d\u0430\u044f \u0414\u0437\u044f\u0440\u0436\u0430\u0301\u0432\u0430 \u0411\u0430\u043b\u0456\u0301\u0432\u0456\u044f","official_name:bg":"\u041c\u043d\u043e\u0433\u043e\u043d\u0430\u0446\u0438\u043e\u043d\u0430\u043b\u043d\u0430 \u0434\u044a\u0440\u0436\u0430\u0432\u0430 \u0411\u043e\u043b\u0438\u0432\u0438\u044f","official_name:bm":"Bolivia ka Mantocaman Jamana","official_name:br":"Stad Liesvroadel Bolivia","official_name:ca":"Estat Plurinacional de Bol\u00edvia","official_name:chr":"\u13ca\u13b7\u13a2\u13be\u13cf\u13a3\u13be\u13b5 \u13cd\u13a6\u13da\u13a9 \u13be\u13bf \u13c9\u13b5\u13eb\u13a0","official_name:ckb":"\u062f\u06d5\u0648\u06b5\u06d5\u062a\u06cc \u0641\u0631\u06d5\u0646\u06d5\u062a\u06d5\u0648\u06d5\u06cc\u06cc \u0628\u06c6\u0644\u06cc\u06a4\u06cc\u0627","official_name:crh":"Boliviya \u00c7oqmilletli Devleti","official_name:cs":"Mnohon\u00e1rodnostn\u00ed st\u00e1t Bol\u00edvie","official_name:da":"Den Flernationale Stat Bolivia","official_name:de":"Plurinationaler Staat Bolivien","official_name:dsb":"Plurinacionalny stat Boliwiska","official_name:el":"\u03a0\u03bf\u03bb\u03c5\u03b5\u03b8\u03bd\u03bf\u03c4\u03b9\u03ba\u03cc \u039a\u03c1\u03ac\u03c4\u03bf\u03c2 \u03c4\u03b7\u03c2 \u0392\u03bf\u03bb\u03b9\u03b2\u03af\u03b1\u03c2","official_name:en":"Plurinational State of Bolivia","official_name:es":"Estado Plurinacional de Bolivia","official_name:et":"Boliivia Paljurahvuseline Riik","official_name:eu":"Boliviako Estatu Plurinazionala","official_name:ext":"Estau Plurinacional de Bol\u00edvia","official_name:fi":"Bolivian monikansainen valtio","official_name:fr":"\u00c9tat plurinational de Bolivie","official_name:frr":"Stoot faan flook natjuunen Boliiwien","official_name:gl":"Estado Plurinacional de Bolivia","official_name:gn":"Tet\u00e3 Het\u00e3voregua Mbor\u00edvia","official_name:gu":"\u0aaa\u0acd\u0ab2\u0ac1\u0ab0\u0ac0\u0aa8\u0ac7\u0ab6\u0aa8\u0ab2 \u0ab8\u0acd\u0a9f\u0ac7\u0a9f \u0a93\u0aab \u0aac\u0acb\u0ab2\u0abf\u0ab5\u0abf\u0aaf\u0abe","official_name:he":"\u05d4\u05de\u05d3\u05d9\u05e0\u05d4 \u05d4\u05e8\u05d1-\u05dc\u05d0\u05d5\u05de\u05d9\u05ea \u05e9\u05dc \u05d1\u05d5\u05dc\u05d9\u05d1\u05d9\u05d4","official_name:hr":"Vi\u0161enacionalna Dr\u017eava Bolivija","official_name:hsb":"Plurinacionalny stat Boliwiska","official_name:hu":"Bol\u00edviai T\u00f6bbnemzetis\u00e9g\u0171 \u00c1llam","official_name:ia":"Stato Plurinational de Bolivia","official_name:id":"Negara Plurinasional Bolivia","official_name:ilo":"Plurinasional nga Estado ti Bolivia","official_name:is":"Fj\u00f6l\u00fej\u00f3\u00f0ar\u00edki\u00f0 B\u00f3liv\u00eda","official_name:it":"Stato Plurinazionale della Bolivia","official_name:ja":"\u30dc\u30ea\u30d3\u30a2\u591a\u6c11\u65cf\u56fd","official_name:jam":"Pluurinashinal Stiet a Bolivia","official_name:ka":"\u10d1\u10dd\u10da\u10d8\u10d5\u10d8\u10d8\u10e1 \u10db\u10e0\u10d0\u10d5\u10d0\u10da\u10d4\u10e0\u10dd\u10d5\u10d0\u10dc\u10d8 \u10e1\u10d0\u10ee\u10d4\u10da\u10db\u10ec\u10d8\u10e4\u10dd","official_name:kk":"\u041a\u04e9\u043f\u04b1\u043b\u0442\u0442\u044b \u0411\u043e\u043b\u0438\u0301\u0432\u0438\u044f \u043c\u0435\u043c\u043b\u0435\u043a\u0435\u0442\u0456","official_name:ko":"\ubcfc\ub9ac\ube44\uc544 \ub2e4\ubbfc\uc871\uad6d","official_name:krc":"\u041a\u0451\u0431 \u041c\u0438\u043b\u043b\u0435\u0442\u043b\u0438 \u041a\u044a\u0440\u0430\u043b \u0411\u043e\u043b\u0438\u0301\u0432\u0438\u044f","official_name:ku":"Dewleta Pirnetewey\u00ee y\u00ean Bol\u00eevyay\u00ea","official_name:lez":"\u0413\u0437\u0430\u0444-\u0425\u0430\u043b\u043a\u044c\u0430\u0440\u0438\u043d \u0413\u044c\u0443\u043a\u0443\u043c\u0430\u0442 \u0411\u043e\u043b\u0438\u0432\u0438\u044f","official_name:li":"Estado Plurinacional de Bolvia","official_name:lo":"\u0ea5\u0eb1\u0e94\u0e9e\u0eb0\u0eab\u0eb8\u0e8a\u0ebb\u0e99\u0e8a\u0eb2\u0e94\u0ec1\u0eab\u0ec8\u0e87\u0ec2\u0e9a\u0ea5\u0eb5\u0ea7\u0eb5","official_name:lt":"Bolivijos Daugiataut\u0117 Valstyb\u0117","official_name:lv":"Bol\u012bvijas Daudznacion\u0101l\u0101 Valsts","official_name:lzh":"\u591a\u6c11\u65cf\u73bb\u5229\u7dad\u4e9e\u570b","official_name:mi":"Te Whenua o ng\u0101 Iwi Maha o Poriwia","official_name:mk":"\u041f\u043e\u0432\u0435\u045c\u0435\u043d\u0430\u0446\u0438\u043e\u043d\u0430\u043b\u043d\u0430 \u0414\u0440\u0436\u0430\u0432\u0430 \u0411\u043e\u043b\u0438\u0432\u0438\u0458\u0430","official_name:mn":"\u0411\u043e\u043b\u0438\u0432\u0438\u0439\u043d \u041e\u043b\u043e\u043d \u04ae\u043d\u0434\u044d\u0441\u0442\u043d\u0438\u0439 \u0423\u043b\u0441","official_name:mt":"Istat Plurinazzjonali tal-Bolivja","official_name:nah":"Nepapantl\u0101catiy\u0101n Tlahtohc\u0101y\u014dtl Bolivia","official_name:nds":"Plurinatschonalen Staat Bolivien","official_name:nl":"Plurinationale Staat Bolivia","official_name:nv":"A\u0142hidadiik\u02bc\u0105\u0301 Dine\u02bc\u00e9 Bik\u00e9yah","official_name:oc":"Estat Plurinacionau de Bol\u00edvia","official_name:olo":"Monikanzalline Bolivien Valdivo","official_name:pa":"\u0a2c\u0a4b\u0a32\u0a40\u0a35\u0a40\u0a06 \u0a26\u0a3e \u0a2c\u0a39\u0a41-\u0a15\u0a4c\u0a2e\u0a40 \u0a2e\u0a41\u0a32\u0a15","official_name:pfl":"Plurinadsionala Schdaad Bolivje","official_name:pl":"Wielonarodowe Pa\u0144stwo Boliwia","official_name:pms":"Estado Plurinacional de Bolivia","official_name:pt":"Estado Plurinacional da Bol\u00edvia","official_name:qu":"Puliwya Achka Aylluska Mamallaqta","official_name:ro":"Statul Plurina\u021bional al Boliviei","official_name:ru":"\u041c\u043d\u043e\u0433\u043e\u043d\u0430\u0446\u0438\u043e\u043d\u0430\u043b\u044c\u043d\u043e\u0435 \u0413\u043e\u0441\u0443\u0434\u0430\u0440\u0441\u0442\u0432\u043e \u0411\u043e\u043b\u0438\u0432\u0438\u044f","official_name:sco":"Plurinaitional State o Bolivie","official_name:se":"Bolivia d\u00e1ssev\u00e1ldi","official_name:si":"\u0db6\u0ddc\u0dbd\u0dd2\u0dc0\u0dd2\u0dba\u0dcf \u0db6\u0dc4\u0dd4\u0da2\u0dcf\u0dad\u0dd3\u0dba \u0dbb\u0dcf\u0da2\u0dca\u0dba\u0dba","official_name:sk":"Bol\u00edvijsk\u00fd mnohon\u00e1rodn\u00fd \u0161t\u00e1t","official_name:sl":"Plurinacionalna dr\u017eava Bolivija","official_name:sm":"Malo Plurinational o Polevia","official_name:sq":"Shteti Shum\u00ebkomb\u00ebsh i Bolivis\u00eb","official_name:sr":"\u0412\u0438\u0448\u0435\u043d\u0430\u0446\u0438\u043e\u043d\u0430\u043b\u043d\u0430 \u0414\u0440\u0436\u0430\u0432\u0430 \u0411\u043e\u043b\u0438\u0432\u0438\u0458\u0430","official_name:su":"Nagara Multibangsa Bolivia","official_name:sv":"M\u00e5ngnationella staten Bolivia","official_name:ta":"\u0baa\u0bca\u0bb2\u0bbf\u0bb5\u0bbf\u0baf\u0bbe \u0b95\u0bc1\u0b9f\u0bbf\u0baf\u0bb0\u0b9a\u0bc1","official_name:te":"\u0c2c\u0c4a\u0c32\u0c40\u0c35\u0c3f\u0c2f\u0c3e \u0c17\u0c23\u0c24\u0c02\u0c24\u0c4d\u0c30\u0c02","official_name:th":"\u0e23\u0e31\u0e10\u0e1e\u0e2b\u0e38\u0e0a\u0e19\u0e0a\u0e32\u0e15\u0e34\u0e41\u0e2b\u0e48\u0e07\u0e42\u0e1a\u0e25\u0e34\u0e40\u0e27\u0e35\u0e22","official_name:tk":"K\u00f6pmilletli Boliwi\u00fda D\u00f6wleti","official_name:tl":"Estadong Plurinasyunal ng Bolivia","official_name:tr":"Bolivya \u00c7okuluslu Devleti","official_name:tt":"\u041a\u04af\u043f\u043c\u0438\u043b\u043b\u04d9\u0442\u043b\u0435\u0301 \u0411\u043e\u043b\u0438\u0301\u0432\u0438\u044f \u0414\u04d9\u04af\u043b\u04d9\u0442\u0435\u0301","official_name:uk":"\u0411\u0430\u0433\u0430\u0442\u043e\u043d\u0430\u0446\u0456\u043e\u043d\u0430\u0301\u043b\u044c\u043d\u0430 \u0414\u0435\u0440\u0436\u0430\u0301\u0432\u0430 \u0411\u043e\u043b\u0456\u0301\u0432\u0456\u044f","official_name:ur":"\u062c\u0645\u06c1\u0648\u0631\u06cc\u06c1 \u0628\u0648\u0644\u06cc\u0648\u06cc\u0627","official_name:vep":"Bolivijan \u00c4irahvahaline Valdkund","official_name:vi":"C\u1ed9ng ho\u00e0 \u0110a d\u00e2n t\u1ed9c Bolivia","official_name:vro":"Boliivia Hulga Rahvid\u00f5ga Riik","official_name:war":"Plurinasyonal nga Estado han Bolivia","official_name:xal":"\u0414\u0430\u043b\u0430 \u0423\u043b\u0441\u0442\u0430 \u0411\u043e\u043b\u0438\u0432\u043c\u0443\u0434\u0438\u043d \u041e\u0440\u043d","official_name:xmf":"\u10d1\u10dd\u10da\u10d8\u10d5\u10d8\u10d0\u10e8 \u10db\u10d8\u10d0\u10e0\u10d4\u10d4\u10e0\u10e3\u10d0\u10dc\u10d8 \u10e1\u10d0\u10ee\u10d4\u10dc\u10ec\u10f7\u10e4\u10dd","official_name:yi":"\u05e8\u05e2\u05e4\u05d5\u05d1\u05dc\u05d9\u05e7 \u05e4\u05d5\u05df \u05d1\u05d0\u05dc\u05d9\u05d5\u05d5\u05d9\u05e2","official_name:yo":"\u00ccp\u00ednl\u1eb9\u0300 Ogunl\u1ecd\u0301g\u1ecd\u0300 Or\u00edl\u1eb9\u0300-\u00e8d\u00e8 il\u1eb9\u0300 B\u00f2l\u00edf\u00ed\u00e0","official_name:yue":"\u73bb\u5229\u7dad\u4e9e\u5171\u548c\u570b","official_name:zh":"\u591a\u6c11\u65cf\u73bb\u5229\u7ef4\u4e9a\u56fd \/ \u73bb\u5229\u7dad\u4e9e\u5171\u548c\u570b","official_name:zh-Hans":"\u591a\u6c11\u65cf\u73bb\u5229\u7ef4\u4e9a\u56fd","official_name:zh-Hant":"\u73bb\u5229\u7dad\u4e9e\u5171\u548c\u570b","old_name:1825-01-29--1825-08-13":"Estado del Alto Per\u00fa","old_name:1825-08-13--1826-11-19":"Rep\u00fablica de Bol\u00edvar","old_name:1826-11-29--1837-05-01":"Rep\u00fablica de Bolivia","old_name:1837-05-01--1839-10-26":"Estado Boliviano","old_name:1839-10-26--2009-03-18":"Rep\u00fablica de Bolivia","old_name:am":"\u12e8\u1266\u120a\u126a\u12eb \u122a\u1350\u1265\u120a\u12ad","old_name:ca":"Rep\u00fablica de Bol\u00edvia","old_name:si":"\u0db6\u0ddc\u0dbd\u0dd3\u0dc0\u0dd2\u0dba\u0dcf\u0db1\u0dd4 \u0dbb\u0dcf\u0da2\u0dca\u200d\u0dba","source":"wikipedia, 2019","timezone":"America\/La_Paz","type":"boundary","wikidata":"Q750","wikipedia":"es:Bolivia"},"timestamp":1716078538,"representative_point":{"type":"Point","coordinates":[-64.13672720787771,-16.281753350000002]}},"geometry":{"type":"Polygon","coordinates":[[[-69.5718107,-10.9455354],[-68.6519906,-12.4979691],[-69.0669726,-13.6733047],[-68.8267559,-14.2156075],[-68.9850057,-14.2371152],[-69.3537969,-14.8016657],[-69.1196231,-15.2590312],[-69.401826,-15.6060069],[-69.1964016,-16.1681077],[-68.795489,-16.3314109],[-69.6449272,-17.2811456],[-69.4684569,-17.4983832],[-69.2884702,-17.9608888],[-69.0566334,-18.0612209],[-69.1458357,-18.1630563],[-68.9501953,-18.9366475],[-68.4048135,-19.4161865],[-68.6959719,-19.7386081],[-68.5216082,-19.9242786],[-68.7621095,-20.0781848],[-68.7387434,-20.4568218],[-68.4415412,-20.6354249],[-68.5435537,-20.9039281],[-68.1790228,-21.302424],[-67.8834186,-22.8324183],[-67.1804928,-22.814085],[-66.7392778,-22.2384583],[-66.2886043,-22.0869549],[-66.2209834,-21.7808568],[-65.7482635,-22.1091447],[-64.6180443,-22.2045543],[-64.3157586,-22.8828275],[-63.9314567,-21.9993769],[-62.8111757,-21.9987679],[-62.6406685,-22.2362478],[-62.2609194,-21.0586278],[-62.2663417,-20.5631556],[-61.7352111,-19.6344056],[-59.9777778,-19.2946861],[-59.0689278,-19.2876472],[-58.1638536,-19.8272684],[-58.1696873,-20.1671238],[-57.8579571,-19.9702976],[-58.131,-19.758],[-57.453,-18.231],[-57.7518249,-17.5662232],[-58.396,-17.181],[-58.47,-16.703],[-58.3222648,-16.2655892],[-60.1738197,-16.2667293],[-60.2392049,-15.4749158],[-60.5751855,-15.0977313],[-60.245003,-15.0974297],[-60.467124,-13.795042],[-61.0151825,-13.4883991],[-61.856028,-13.5382089],[-62.1674538,-13.1134356],[-62.7809864,-13.0084841],[-63.1146985,-12.6247391],[-63.2968711,-12.6825136],[-63.785395,-12.4277622],[-64.4112788,-12.4442354],[-64.5128185,-12.2246174],[-65.0334963,-11.996007],[-65.0867178,-11.708204],[-65.2593038,-11.7105308],[-65.3410669,-10.8094249],[-65.3495331,-10.7794105],[-65.4301093,-10.4850471],[-65.28471,-9.850565],[-65.4442938,-9.6689438],[-65.5561072,-9.8449764],[-65.7701339,-9.7344169],[-66.6199445,-9.8935348],[-67.7082506,-10.7108284],[-68.0330018,-10.655779],[-68.5444737,-11.108874],[-69.5718107,-10.9455354]]]}}