{"type":"Feature","properties":{"tags":{"ISO3166-1":"BS","ISO3166-1:alpha2":"BS","ISO3166-1:alpha3":"BHS","ISO3166-1:numeric":"044","admin_level":"2","alt_name":"Bahamas","alt_name:ar":"\u0628\u0627\u0647\u0627\u0645\u0627\u0633","alt_name:arz":"\u0628\u0627\u0647\u0627\u0645\u0627\u0633","alt_name:ast":"Bahames","alt_name:az":"Baham adalar\u0131","alt_name:bar":"Bahamas","alt_name:bat-smg":"Baham\u0101","alt_name:bcl":"Bahamas","alt_name:be":"\u0411\u0430\u0433\u0430\u0301\u043c\u044b","alt_name:bo":"\u0f56\u0fb7\u0f0b\u0f67\u0f0b\u0f58\u0f0b\u0f66\u0f74\u0f0d","alt_name:ckb":"\u0628\u0627\u0647\u0627\u0645\u0627","alt_name:cy":"Bahamas","alt_name:de":"Bahamas","alt_name:en":"Bahamas","alt_name:eo":"Bahama Insularo","alt_name:es":"Bahamas","alt_name:ext":"Baamas","alt_name:fr":"Bahamas","alt_name:frr":"Bahaamas","alt_name:fy":"Bahama's","alt_name:ga":"Bah\u00e1ma\u00ed","alt_name:gd":"Bah\u00e0mas","alt_name:gv":"Bahamaghyn","alt_name:he":"\u05d1\u05d4\u05d0\u05de\u05d4","alt_name:hif":"Bahamas","alt_name:ht":"Bahamas","alt_name:hy":"\u0532\u0561\u0570\u0561\u0574\u0575\u0561\u0576 \u053f\u0572\u0566\u056b\u0576\u0565\u0580","alt_name:ilo":"Bahamas","alt_name:it":"Bahama","alt_name:lb":"Bahamas","alt_name:li":"Bahama's","alt_name:lmo":"Bahamas","alt_name:mai":"\u092c\u0939\u093e\u092e\u0938","alt_name:mk":"\u0411\u0430\u0445\u0430\u043c\u0441\u043a\u0438 \u041e\u0441\u0442\u0440\u043e\u0432\u0438","alt_name:mn":"\u0411\u0430\u0445\u0430\u043c","alt_name:mt":"Ba\u0127amas","alt_name:mwl":"Baamas","alt_name:nds":"Bahamas","alt_name:oc":"Bahamas","alt_name:olo":"Bagamat","alt_name:pms":"Bahamas","alt_name:pt":"Baamas","alt_name:sah":"\u0411\u0430\u0433\u0430\u043c\u0430 \u0430\u0440\u044b\u044b\u043b\u0430\u0440\u0430","alt_name:scn":"Bahamas","alt_name:sco":"Bahamas","alt_name:sn":"Bahamas","alt_name:sq":"Ishujt Bahamas","alt_name:stq":"Bahamas","alt_name:tt":"\u0411\u0430\u04bb\u0430\u043c\u0430\u043b\u0430\u0440","alt_name:uz":"Bagamalar","alt_name:vec":"Bahamas","alt_name:vi":"Qu\u1ea7n \u0111\u1ea3o Bahamas","alt_name:yi":"\u05d1\u05d0\u05b7\u05d4\u05d0\u05b7\u05de\u05d0\u05b7\u05e1","alt_name:zea":"Bahama's","boundary":"administrative","default_language":"en","driving_side":"left","flag":"http:\/\/upload.wikimedia.org\/wikipedia\/commons\/9\/93\/Flag_of_the_Bahamas.svg","int_name":"Bahamas","name":"The Bahamas","name:ace":"Bahama","name:af":"Bahamas","name:ak":"Bahama","name:als":"Bahamas","name:am":"\u1263\u1203\u121b\u1235","name:an":"Bahamas","name:ar":"\u062c\u0632\u0631 \u0627\u0644\u0628\u0647\u0627\u0645\u0627","name:arz":"\u0627\u0644\u0628\u0627\u0647\u0627\u0645\u0627\u0633","name:ast":"Les Bahames","name:ay":"Bahamas","name:az":"Baham adalar\u0131","name:ba":"\u0411\u0430\u0433\u0430\u043c\u0430 \u0443\u0442\u0440\u0430\u0443\u0499\u0430\u0440\u044b","name:bar":"De Bahamas","name:bat-smg":"Bahamas","name:bcl":"An Bahamas","name:be":"\u0411\u0430\u0433\u0430\u043c\u044b","name:be-tarask":"\u0411\u0430\u0433\u0430\u043c\u044b","name:bg":"\u0411\u0430\u0445\u0430\u043c\u0438","name:bm":"Bahamasi","name:bn":"\u09ac\u09be\u09b9\u09be\u09ae\u09be \u09a6\u09cd\u09ac\u09c0\u09aa\u09aa\u09c1\u099e\u09cd\u099c","name:bo":"\u0f56\u0fb7\u0f71\u0f0b\u0f58\u0f66\u0f84\u0f0d","name:bpy":"\u09ac\u09be\u09b9\u09be\u09ae\u09be","name:br":"Bahamas","name:bs":"Bahami","name:bxr":"\u0411\u0430\u0445\u0430\u043c\u044b\u043d \u0430\u0440\u0430\u043b\u0443\u0443\u0434","name:ca":"Bahames","name:cbk-zam":"Bahamas","name:cdo":"Bahamas","name:ce":"\u0411\u0430\u0433\u0430\u043c\u0430","name:ceb":"Bahamas","name:chr":"\u13be\u13cd\u13a9 \u13c6\u13ad\u13b9\u13cd","name:ckb":"\u0628\u06d5\u0647\u0627\u0645\u0627","name:crh":"Bahamalar","name:cs":"Bahamy","name:cv":"\u041f\u0430\u0445\u0430\u043c\u0441\u0435\u043c","name:cy":"Y Bahamas","name:da":"Bahamas","name:de":"Bahamas","name:diq":"Bahama","name:dsb":"Bahamy","name:dty":"\u092c\u0939\u093e\u092e\u0938","name:dv":"\u0784\u07a6\u0780\u07a7\u0789\u07a6\u0790\u07b0","name:dz":"\u0f56\u0fb7\u0f0b\u0f67\u0f0b\u0f58\u0f66\u0f84","name:ee":"Bahamas nutome","name:el":"\u039c\u03c0\u03b1\u03c7\u03ac\u03bc\u03b5\u03c2","name:en":"Bahamas","name:eo":"Bahamoj","name:es":"Bahamas","name:et":"Bahama","name:eu":"Bahamak","name:ext":"Las Baamas","name:fa":"\u0628\u0627\u0647\u0627\u0645\u0627","name:ff":"Bahamaas","name:fi":"Bahama","name:fo":"Bahamaoyggjar","name:fr":"Bahamas","name:frp":"Bahamas","name:frr":"A Bahaamas","name:fy":"de Bahama's","name:ga":"Na Bah\u00e1ma\u00ed","name:gag":"Bahamalar","name:gd":"Na h-Eileanan Bhathama","name:gl":"Bahamas","name:gn":"Vaamaku\u00e9ra","name:gom":"\u092c\u0939\u093e\u092e\u093e\u091c","name:gu":"\u0aac\u0ab9\u0abe\u0aae\u0abe\u0ab8","name:gv":"Ny Bahamaghyn","name:hak":"Bahamas","name:he":"\u05d1\u05d4\u05de\u05d4","name:hi":"\u092c\u0939\u093e\u092e\u093e\u0938","name:hif":"The Bahamas","name:hr":"Bahami","name:hsb":"Bahamy","name:ht":"Il Bahamas","name:hu":"Bahama-szigetek","name:hy":"\u0532\u0561\u0570\u0561\u0574\u0576\u0565\u0580","name:ia":"Bahamas","name:id":"Bahama","name:ilo":"Ti Bahamas","name:io":"Bahama","name:is":"Bahamaeyjar","name:it":"Bahamas","name:ja":"\u30d0\u30cf\u30de","name:jam":"Ba'aamaz","name:jbo":"ba'am","name:jv":"Bahama","name:ka":"\u10d1\u10d0\u10f0\u10d0\u10db\u10d8\u10e1 \u10d9\u10e3\u10dc\u10eb\u10e3\u10da\u10d4\u10d1\u10d8","name:kab":"Bahamas","name:ki":"Bahama","name:kk":"\u0411\u0430\u0433\u0430\u043c \u0430\u0440\u0430\u043b\u0434\u0430\u0440\u044b","name:km":"\u1794\u17b6\u17a0\u17b6\u1798\u17c9\u17b6","name:kn":"\u0cac\u0cb9\u0cbe\u0cae\u0cbe\u0cb8\u0ccd","name:ko":"\ubc14\ud558\ub9c8","name:ks":"\u0628\u064e\u06c1\u0627\u0645\u064e\u0633","name:ksh":"de Bahamas","name:ku":"Bahama","name:kw":"An Bahamas","name:ky":"\u0411\u0430\u0433\u0430\u043c\u0430 \u0430\u0440\u0430\u043b\u0434\u0430\u0440\u044b","name:la":"Insulae Bahamenses","name:lad":"Bahamas","name:lb":"D'Bahamas","name:lfn":"Bahamas","name:lg":"Bahamasi","name:li":"Bahama-eilen","name:lij":"Bahamas","name:lmo":"I Bahamas","name:ln":"Bahamas\u025b","name:lo":"\u0e9a\u0eb2\u0eae\u0eb2\u0ea1\u0ea1\u0eb2\u0eaa","name:lt":"Bahamos","name:lv":"Bahamu salas","name:mai":"\u0926 \u092c\u0939\u093e\u092e\u0938","name:mg":"Bahamasy","name:mhr":"\u0411\u0430\u0433\u0430\u043c\u0430","name:mk":"\u0411\u0430\u0445\u0430\u043c\u0438","name:ml":"\u0d2c\u0d39\u0d3e\u0d2e\u0d3e\u0d38\u0d4d","name:mn":"\u0411\u0430\u0433\u0430\u043c\u044b\u043d \u0430\u0440\u043b\u0443\u0443\u0434","name:mr":"\u092c\u0939\u093e\u092e\u093e\u091c","name:mrj":"\u0411\u0430\u0433\u0430\u043c\u0432\u043b\u04d3","name:ms":"Bahamas","name:mt":"Ba\u0127amas","name:mwl":"Las Bahamas","name:my":"\u1018\u101f\u102c\u1038\u1019\u102c\u1038","name:mzn":"\u0628\u0627\u0647\u0627\u0645\u0627","name:na":"Bahamat","name:nah":"Bahamas","name:nan":"Bahamas","name:nds":"Bahamas","name:ne":"\u092c\u0939\u093e\u092e\u093e\u0938","name:new":"\u092c\u0939\u093e\u092e\u093e\u0938","name:nl":"Bahama's","name:nn":"Bahamas","name:no":"Bahamas","name:nov":"Bahamas","name:oc":"Las Bahamas","name:olo":"Bagaman suaret","name:om":"Bahamaas","name:or":"\u0b2c\u0b3e\u0b39\u0b3e\u0b2e\u0b3e\u0b38\u0b4d","name:os":"\u0411\u0430\u0433\u0430\u043c\u0442\u00e6","name:pa":"\u0a2c\u0a39\u0a3e\u0a2e\u0a3e\u0a38","name:pam":"Bahamas","name:pap":"Bahamas","name:pi":"\u092c\u0939\u093e\u092e\u093e\u0938","name:pih":"Bahaamas","name:pl":"Bahamy","name:pms":"Le Bahamas","name:pnb":"\u0628\u0627\u06c1\u0627\u0645\u0627","name:pt":"Bahamas","name:qu":"Bahamakuna","name:rm":"Bahamas","name:rn":"Bahamasi","name:ro":"Bahamas","name:roa-rup":"Bahamas","name:ru":"\u0411\u0430\u0433\u0430\u043c\u044b","name:rue":"\u0411\u0430\u0433\u0430\u043c\u044b","name:rw":"Bahamasi","name:sa":"\u092c\u0939\u093e\u092e\u093e\u0938","name:sah":"\u0411\u0430\u0433\u0430\u043c\u0430 \u0425\u043e\u043b\u0431\u043e\u04bb\u0443\u0433\u0430","name:scn":"Li Bahamas","name:sco":"The Bahamas","name:se":"Bahamasullot","name:sg":"Bah\u00e2masa","name:sh":"Bahami","name:si":"\u0db6\u0dc4\u0db8\u0dcf\u0dc3\u0dca","name:sk":"Bahamy","name:sl":"Bahami","name:smn":"Bahamasuolluuh","name:sms":"Bahama","name:sn":"Bahama","name:so":"Bahaamas","name:sq":"Bahamet","name:sr":"\u0411\u0430\u0445\u0430\u043c\u0438","name:ss":"iBhahamasi","name:stq":"Do Bahamas","name:su":"Bahama","name:sv":"Bahamas","name:sw":"Bahama","name:szl":"Bahamy","name:ta":"\u0baa\u0bb9\u0bbe\u0bae\u0bbe\u0bb8\u0bcd","name:te":"\u0c2c\u0c39\u0c3e\u0c2e\u0c3e\u0c38\u0c4d","name:tet":"Bahamas","name:tg":"\u0411\u0430\u04b3\u0430\u043c\u0430\u0441","name:th":"\u0e1b\u0e23\u0e30\u0e40\u0e17\u0e28\u0e1a\u0e32\u0e2e\u0e32\u0e21\u0e32\u0e2a","name:ti":"\u1263\u1203\u121b\u1235","name:tk":"Bagama Adalary","name:tl":"Bahamas","name:to":"Pahama","name:tok":"ma Pawama","name:tr":"Bahamalar","name:tt":"\u0411\u0430\u0433\u0430\u043c\u0430\u043b\u0430\u0440","name:tzl":"Bahamas","name:ug":"\u0628\u0627\u06be\u0627\u0645\u0627","name:uk":"\u0411\u0430\u0433\u0430\u043c\u0441\u044c\u043a\u0456 \u041e\u0441\u0442\u0440\u043e\u0432\u0438","name:ur":"\u0628\u06c1\u0627\u0645\u0627\u0633","name:uz":"Bagam orollari","name:vec":"\u0141e Bahamas","name:vep":"Bagaman Sared","name:vi":"Bahamas","name:vo":"Bahamu\u00e4ns","name:vro":"Bahama","name:war":"Bahamas","name:wo":"Bahamas","name:wuu":"\u5df4\u54c8\u99ac","name:xal":"\u0411\u0430\u0433\u0430\u043c\u0443\u0434 \u0410\u0440\u043b\u0438\u043d \u041d\u0438\u0438\u0446\u04d9\u043d","name:xmf":"\u10d1\u10d0\u10f0\u10d0\u10db\u10d8\u10e8 \u10d9\u10dd\u10d9\u10d4\u10e4\u10d8","name:yi":"\u05d3\u05d9 \u05d1\u05d0\u05b7\u05d4\u05d0\u05b7\u05de\u05d0\u05b7\u05e1","name:yo":"Or\u00edl\u1eb9\u0301\u00e8de B\u00e0h\u00e1m\u00e1s\u00ec","name:yue":"\u5df4\u54c8\u99ac","name:za":"Bahamas","name:zea":"De Bahama's","name:zh":"\u5df4\u54c8\u9a6c \/ \u5df4\u54c8\u99ac","name:zh-Hans":"\u5df4\u54c8\u9a6c","name:zh-Hant":"\u5df4\u54c8\u99ac","name:zu":"i-Bahamas","official_name":"Commonwealth of The Bahamas","official_name:ace":"Peusema'muran Bahama","official_name:af":"Gemenebes van die Bahamas","official_name:als":"Commonwealth der Bahamas","official_name:am":"\u12e8\u1263\u1203\u121b\u1235 \u12e8\u130b\u122b \u1200\u1308\u122d","official_name:an":"Mancomunidat d'as Bahamas","official_name:ar":"\u0643\u0648\u0645\u0646\u0648\u0644\u062b \u062c\u0632\u0631 \u0627\u0644\u0628\u0647\u0627\u0645\u0627","official_name:arz":"\u0643\u0648\u0645\u0648\u0646\u0648\u064a\u0644\u062b \u0627\u0644\u0628\u0627\u0647\u0627\u0645\u0627\u0633","official_name:ast":"Mancomunid\u00e1 de Les Bahames","official_name:az":"Baham Adalar\u0131 Birliyi","official_name:ba":"\u0411\u0430\u0433\u0430\u043c\u0430 \u0423\u0442\u0440\u0430\u0443\u0499\u0430\u0440 \u0411\u0435\u0440\u043b\u0435\u0433\u0435","official_name:bar":"Commonwealth der Bahamas","official_name:bat-smg":"Bahamu Sondrauga","official_name:be":"\u0421\u0430\u0434\u0440\u0443\u0301\u0436\u043d\u0430\u0441\u0446\u044c \u0411\u0430\u0433\u0430\u0301\u043c\u0441\u043a\u0456\u0445 \u0410\u0441\u0442\u0440\u0430\u0432\u043e\u0301\u045e","official_name:be-tarask":"\u0421\u0430\u0434\u0440\u0443\u0436\u043d\u0430\u0441\u044c\u0446\u044c \u0411\u0430\u0433\u0430\u043c\u0430\u045e","official_name:bg":"\u0414\u0440\u0443\u0436\u0435\u0441\u0442\u0432\u043e \u0411\u0430\u0445\u0430\u043c\u0441\u043a\u0438 \u043e\u0441\u0442\u0440\u043e\u0432\u0438","official_name:bm":"Forobanafolo Bahamasi","official_name:bn":"\u09ac\u09be\u09b9\u09be\u09ae\u09be \u09a6\u09cd\u09ac\u09c0\u09aa\u09aa\u09c1\u099e\u09cd\u099c\u09c7\u09b0 \u0995\u09ae\u09a8\u0993\u09af\u09bc\u09c7\u09b2\u09a5","official_name:bpy":"\u0995\u09ae\u09a8\u09f1\u09c7\u09b2\u09a5 \u09ac\u09be\u09b9\u09be\u09ae\u09be","official_name:br":"Kenglad ar Bahamas","official_name:bxr":"\u0411\u0430\u0445\u0430\u043c\u044b\u043d \u041d\u04af\u0445\u044d\u0440\u043b\u044d\u043b","official_name:ce":"\u0411\u0430\u0433\u0430\u043c\u0430\u043d \u0433l\u0430\u0439\u0440\u0435\u043d\u0430\u0448","official_name:ckb":"\u06cc\u06d5\u06a9\u06cc\u06d5\u062a\u06cc\u06cc \u0647\u0627\u0648\u0642\u0627\u0632\u0627\u0646\u062c\u06cc \u0628\u06d5\u0647\u0627\u0645\u0627","official_name:cs":"Bahamsk\u00e9 spole\u010denstv\u00ed","official_name:cv":"\u041f\u0430\u0445\u0430\u043c \u0423\u0442\u0440\u0430\u0432\u0115\u0441\u0435\u043d \u041f\u0115\u0440\u043b\u0435\u0448\u04f3\u043b\u0115\u0445\u0115","official_name:cy":"Cymanwlad y Bahamas","official_name:de":"Commonwealth der Bahamas","official_name:dsb":"Zjadno\u015be\u0144stwo Bahamow","official_name:el":"\u039a\u03bf\u03b9\u03bd\u03bf\u03c0\u03bf\u03bb\u03b9\u03c4\u03b5\u03af\u03b1 \u03c4\u03c9\u03bd \u039c\u03c0\u03b1\u03c7\u03b1\u03bc\u03ce\u03bd","official_name:en":"Commonwealth of The Bahamas","official_name:eo":"Komunumo de Bahamaj Insuloj","official_name:es":"Mancomunidad de las Bahamas","official_name:et":"Bahama \u00dchendus","official_name:ext":"Mancomuni\u00e1 de las Baamas","official_name:fa":"\u0642\u0644\u0645\u0631\u0648 \u0647\u0645\u0633\u0648\u062f \u0628\u0627\u0647\u0627\u0645\u0627","official_name:fi":"Bahaman liittovaltio","official_name:fo":"Samveldi\u00f0 Bahamaoyggjar","official_name:fr":"Commonwealth des Bahamas","official_name:frr":"Commonwealth faan a Bahaamas","official_name:fy":"Mieneb\u00east fan de Bahama's","official_name:ga":"Comhlathas na mBah\u00e1ma\u00ed","official_name:gd":"na h-Eileanan Bhathama","official_name:gl":"Mancomunidade das Bahamas","official_name:gn":"Tet\u00e3 Va'ama","official_name:gv":"Co-unnaneys ny Bahamaghyn","official_name:he":"\u05e7\u05d4\u05d9\u05dc\u05d9\u05d9\u05ea \u05d0\u05d9\u05d9 \u05d1\u05d4\u05d0\u05de\u05d4","official_name:hi":"\u092c\u0939\u093e\u092e\u0938 \u0930\u093e\u0937\u094d\u091f\u094d\u0930\u092e\u0923\u094d\u0921\u0932","official_name:hif":"Commonwealth of The Bahamas","official_name:hr":"Zajednica Baham\u00e2","official_name:hsb":"Commonwealth Bahamow","official_name:hu":"Bahamai K\u00f6z\u00f6ss\u00e9g","official_name:hy":"\u0532\u0561\u0570\u0561\u0574\u0575\u0561\u0576 \u053f\u0572\u0566\u056b\u0576\u0565\u0580\u056b \u0538\u0576\u056f\u0565\u0580\u0561\u056f\u0581\u0578\u0582\u0569\u0575\u0578\u0582\u0576\u0568","official_name:ia":"Commonwealth del Bahamas","official_name:id":"Persemakmuran Bahama","official_name:ilo":"Mankomunidad ti Bahamas","official_name:is":"Samveldi Bahamaeyja","official_name:it":"Commonwealth delle Bahamas","official_name:ja":"\u30d0\u30cf\u30de\u56fd","official_name:jam":"Kamanwelt a di Ba'aamaz","official_name:ka":"\u10d1\u10d0\u10f0\u10d0\u10db\u10d8\u10e1 \u10d9\u10e3\u10dc\u10eb\u10e3\u10da\u10d4\u10d1\u10d8\u10e1 \u10d7\u10d0\u10dc\u10d0\u10db\u10d4\u10d2\u10dd\u10d1\u10e0\u10dd\u10d1\u10d0","official_name:kk":"\u0411\u0430\u0433\u0430\u043c \u0430\u0440\u0430\u043b\u0434\u0430\u0440\u044b \u0434\u043e\u0441\u0442\u0430\u0441\u0442\u044b\u0493\u044b","official_name:kn":"\u0cac\u0cb9\u0cbe\u0cae\u0cbe\u0cb8\u0ccd \u0c95\u0cbe\u0cae\u0ca8\u0ccd\u0cb5\u0cc6\u0cb2\u0ccd\u0ca4\u0ccd","official_name:ko":"\ubc14\ud558\ub9c8 \uc5f0\ubc29","official_name:ku":"Federasyona Bahamayan","official_name:ky":"\u0411\u0430\u0433\u0430\u043c\u0430 \u0410\u0440\u0430\u043b\u0434\u0430\u0440\u044b \u042b\u043d\u0442\u044b\u043c\u0430\u043a\u0442\u044b\u0433\u044b","official_name:la":"Insulae Bahamenses","official_name:li":"Gemaenebes van de Bahama's","official_name:lt":"Baham\u0173 Sandrauga","official_name:lv":"Bahamu Sadraudz\u012bba","official_name:mai":"\u092c\u0939\u093e\u092e\u0938 \u0930\u093e\u0937\u094d\u091f\u094d\u0930\u092e\u0923\u094d\u0921\u0932","official_name:mg":"Commonwealth an'i Bahamasy","official_name:mhr":"\u0411\u0430\u0433\u0430\u043c\u044b\u0441\u0435 \u043e\u0442\u0440\u043e-\u0432\u043b\u0430\u043a","official_name:mk":"\u0414\u0440\u0436\u0430\u0432\u043d\u0430 \u0417\u0430\u0435\u0434\u043d\u0438\u0446\u0430 \u0411\u0430\u0445\u0430\u043c\u0438","official_name:ml":"\u0d15\u0d4b\u0d2e\u0d7a\u0d35\u0d46\u0d7d\u0d24\u0d4d\u0d24\u0d4d \u0d13\u0d2b\u0d4d \u0d2c\u0d39\u0d3e\u0d2e\u0d3e\u0d38\u0d4d","official_name:mr":"\u092c\u0939\u093e\u092e\u093e\u0938\u091a\u0947 \u0930\u093e\u0937\u094d\u091f\u094d\u0930\u0915\u0941\u0932","official_name:ms":"Komanwel Bahamas","official_name:mt":"Commonwealth tal-Ba\u0127amas","official_name:my":"\u1018\u101f\u102c\u1038\u1019\u102c\u1038\u1005\u103a \u1013\u1014\u101e\u101f\u102c\u101a \u1014\u102d\u102f\u1004\u103a\u1004\u1036","official_name:mzn":"\u0628\u0627\u0647\u0627\u0645\u0627\u06cc \u0645\u0634\u062a\u0631\u06a9\u200c\u0627\u0644\u0645\u0646\u0627\u0641\u0639 \u0633\u0627\u0645\u0648\u0646","official_name:nan":"Bahamas Kok","official_name:nl":"Gemenebest van de Bahama's","official_name:nn":"Bahamassambandet","official_name:no":"Bahamassambandet","official_name:olo":"Bagaman suarin yhtymy","official_name:os":"\u0411\u0430\u0433\u0430\u043c\u044b \u0421\u0430\u043a\u044a\u0430\u0434\u00e6\u0445\u0442\u044b \u00c6\u043c\u0431\u0430\u043b\u0430\u0434","official_name:pa":"\u0a2c\u0a39\u0a3e\u0a2e\u0a3e\u0a38 \u0a26\u0a3e \u0a30\u0a3e\u0a38\u0a3c\u0a1f\u0a30\u0a2e\u0a70\u0a21\u0a32","official_name:pap":"Commonwealth di Bahamas","official_name:pl":"Wsp\u00f3lnota Baham\u00f3w","official_name:pt":"Comunidade das Bahamas","official_name:qu":"Bahamakunap Llaqta Tanta","official_name:ro":"Comunitatea Bahamas","official_name:roa-rup":"Commonwealth ali Bahamile","official_name:ru":"\u0421\u043e\u0434\u0440\u0443\u0436\u0435\u0441\u0442\u0432\u043e \u0411\u0430\u0433\u0430\u043c\u0441\u043a\u0438\u0445 \u041e\u0441\u0442\u0440\u043e\u0432\u043e\u0432","official_name:rue":"\u0411\u0430\u0433\u0430\u043c\u0441\u043a\u044b \u043e\u0441\u0442\u0440\u043e\u0432\u044b","official_name:sco":"Commonweel o the Bahamas","official_name:se":"Bahama riikkaidlihttu","official_name:sh":"Commonwealth Bahama","official_name:si":"\u0db6\u0dc4\u0dcf\u0db8\u0dcf\u0dc3\u0dca \u0db4\u0ddc\u0daf\u0dd4 \u0dbb\u0dcf\u0da2\u0dca\u200d\u0dba\u0dba","official_name:sk":"Bahamsk\u00e9 spolo\u010denstvo","official_name:sl":"Zveza Bahami","official_name:so":"Dalka Bahamas","official_name:sr":"\u041a\u043e\u043c\u043d\u043e\u0432\u0435\u043b\u0442 \u0411\u0430\u0445\u0430\u043c\u0430","official_name:su":"Pasamakmuran Bahama","official_name:sv":"Samv\u00e4ldet Bahamas","official_name:sw":"Jumuiya ya Bahamas","official_name:szl":"Sp\u016flnota Baham\u016fw","official_name:ta":"\u0baa\u0b95\u0bae\u0bbe\u0b9a\u0bc1 \u0baa\u0bca\u0ba4\u0bc1\u0ba8\u0bb2\u0bb5\u0bbe\u0baf\u0bae\u0bcd","official_name:te":"\u0c15\u0c3e\u0c2e\u0c28\u0c4d\u0c35\u0c46\u0c32\u0c4d\u0c24\u0c4d \u0c06\u0c2b\u0c4d \u0c26\u0c3f \u0c2c\u0c39\u0c3e\u0c2e\u0c3e\u0c38\u0c4d","official_name:tg":"\u04b6\u0430\u0437\u0438\u0440\u0430\u04b3\u043e\u0438 \u0411\u0430\u0433\u0430\u043c","official_name:th":"\u0e40\u0e04\u0e23\u0e37\u0e2d\u0e23\u0e31\u0e10\u0e1a\u0e32\u0e2e\u0e32\u0e21\u0e32\u0e2a","official_name:tl":"Komonwelt ng Bahamas","official_name:tr":"Bahama Milletler Toplulu\u011fu","official_name:uk":"\u0421\u043f\u0456\u0432\u0434\u0440\u0443\u0301\u0436\u043d\u0456\u0441\u0442\u044c \u0411\u0430\u0433\u0430\u0301\u043c\u0441\u044c\u043a\u0438\u0445 \u041e\u0441\u0442\u0440\u043e\u0432\u0456\u0301\u0432","official_name:ur":"\u062f\u0648\u0644\u062a\u0650 \u0645\u0634\u062a\u0631\u06a9\u06c1 \u0628\u06c1\u0627\u0645\u0627\u0633","official_name:uz":"Bagama Orollari Hamdo\u2018stligi","official_name:vec":"Commonwealth de\u0142e Bahamas","official_name:vep":"Bagaman Sariden \u00dchtnend","official_name:vi":"Th\u1ecbnh v\u01b0\u1ee3ng chung Bahamas","official_name:vro":"Bahama \u00dctis\u00fcs","official_name:wo":"Commonwealth bu Bahamas","official_name:wuu":"\u5df4\u54c8\u99ac\u570b","official_name:xal":"\u0411\u0430\u0433\u0430\u043c\u0443\u0434 \u0410\u0440\u043b\u0438\u043d \u041d\u0438\u0438\u0446\u04d9\u043d","official_name:xmf":"\u10d1\u10d0\u10f0\u10d0\u10db\u10d8\u10e8 \u10d9\u10dd\u10d9\u10d4\u10e4\u10d8\u10e8 \u10ec\u10dd\u10e0\u10dd\u10db\u10d0\u10f8\u10d0\u10da\u10dd\u10d1\u10d0","official_name:yo":"Or\u00edl\u1eb9\u0300-\u00e8d\u00e8 \u00c0j\u1ecdni il\u1eb9\u0300 aw\u1ecdn B\u00e0h\u00e1m\u00e0","official_name:yue":"\u5df4\u54c8\u99ac\u4fc2","official_name:zh":"\u5df4\u54c8\u99ac\u806f\u90a6","place":"archipelago","timezone":"America\/Nassau","type":"boundary","wikidata":"Q778","wikipedia":"en:The Bahamas"},"timestamp":1716078538,"representative_point":{"type":"Point","coordinates":[-77.37660747645887,24.0950414]}},"geometry":{"type":"Polygon","coordinates":[[[-72.549879,21.9486846],[-72.4990672,22.4427944],[-73.4413967,23.2177701],[-74.3235276,24.3050399],[-75.5141304,24.8210162],[-76.8182985,26.716638],[-77.4178236,27.1199784],[-78.4192239,27.4734551],[-79.3154214,27.0207532],[-79.3161401,26.0916269],[-79.5360838,25.6389807],[-79.3632415,25.0045198],[-80.0035862,24.2479669],[-80.5244457,24.1435641],[-80.7001941,23.9107149],[-80.4841931,23.5064206],[-79.5958801,23.3010425],[-78.7729586,22.8682739],[-77.2148263,22.0329712],[-73.6698043,20.7065694],[-73.0470567,20.7802226],[-72.6772905,21.540119],[-72.549879,21.9486846]]]}}