{"type":"Feature","properties":{"tags":{"ISO3166-1":"BT","ISO3166-1:alpha2":"BT","ISO3166-1:alpha3":"BTN","ISO3166-1:numeric":"064","admin_level":"2","alt_name:gd":"Butan","alt_name:it":"Butan","alt_name:nl":"Bhoetan","alt_name:uz":"Butan Qirolligi","alt_name:war":"Bhutan","boundary":"administrative","default_language":"dz","driving_side":"left","flag":"http:\/\/upload.wikimedia.org\/wikipedia\/commons\/9\/91\/Flag_of_Bhutan.svg","name":"\u0f60\u0f56\u0fb2\u0f74\u0f42\u0f61\u0f74\u0f63\u0f0b","name:ab":"\u0411\u0443\u0442\u0430\u043d","name:ace":"Bhutan","name:ady":"\u0411\u0443\u0442\u0430\u043d","name:af":"Bhoetan","name:ak":"Butan","name:als":"Bhutan","name:am":"\u1261\u1273\u1295","name:an":"But\u00e1n","name:ang":"Bhutan","name:ar":"\u0628\u0648\u062a\u0627\u0646","name:arz":"\u0628\u0648\u062a\u0627\u0646","name:as":"\u09ad\u09c2\u099f\u09be\u09a8","name:ast":"But\u00e1n","name:az":"Butan","name:az-Arab":"\u0628\u0648\u062a\u0627\u0646","name:azb":"\u0628\u0648\u062a\u0627\u0646","name:ba":"\u0411\u0443\u0442\u0430\u0301\u043d","name:bar":"Bhutan","name:bat-smg":"Butans","name:bcl":"Butan","name:be":"\u0411\u0443\u0442\u0430\u043d","name:be-tarask":"\u0411\u0443\u0442\u0430\u043d","name:bg":"\u0411\u0443\u0442\u0430\u043d","name:bh":"\u092d\u0942\u091f\u093e\u0928","name:bi":"Bhutan","name:bjn":"Bhutan","name:bn":"\u09ad\u09c1\u099f\u09be\u09a8","name:bo":"\u0f60\u0f56\u0fb2\u0f74\u0f42\u0f0b\u0f61\u0f74\u0f63\u0f0d","name:bpy":"\u09ad\u09c1\u099f\u09be\u09a8","name:br":"Bhoutan","name:bs":"Butan","name:bxr":"\u0411\u0443\u0442\u0430\u043d","name:ca":"Bhutan","name:cbk-zam":"But\u00e1n","name:cdo":"Bhutan","name:ce":"\u0411\u0443\u0442\u0430\u043d","name:ceb":"Bhutan","name:chr":"\u13ca\u13d4\u13c2","name:ckb":"\u0628\u0648\u0648\u062a\u0627\u0646","name:crh":"Butan","name:cs":"Bh\u00fat\u00e1n","name:csb":"Bhutan","name:cv":"\u0411\u0443\u0442\u0430\u043d","name:cy":"Bhwtan","name:da":"Bhutan","name:de":"Bhutan","name:din":"But\u025b\u0308n","name:diq":"Butan","name:dsb":"Bhutan","name:dty":"\u092d\u0942\u091f\u093e\u0928","name:dv":"\u0784\u07ab\u0793\u07a7\u0782\u07b0","name:dz":"\u0f60\u0f56\u0fb2\u0f74\u0f42\u0f61\u0f74\u0f63\u0f0b","name:el":"\u039c\u03c0\u03bf\u03c5\u03c4\u03ac\u03bd","name:en":"Bhutan","name:eo":"Butano","name:es":"But\u00e1n","name:et":"Bhutan","name:eu":"Bhutan","name:ext":"Bhut\u00e1n","name:fa":"\u0628\u0648\u062a\u0627\u0646","name:ff":"Butaan","name:fi":"Bhutan","name:fo":"Butan","name:fr":"Bhoutan","name:frp":"Botan","name:frr":"Bhuutaan","name:fur":"Bhutan","name:fy":"B\u00fbtan","name:ga":"an Bh\u00fat\u00e1in","name:gag":"Butan","name:gd":"But\u00e0n","name:gl":"But\u00e1n","name:gn":"Vut\u00e3","name:gom":"\u092d\u0942\u0924\u093e\u0928","name:grc":"\u0392\u1f41\u03c5\u03c4\u03ac\u03bd\u03b7","name:gu":"\u0aad\u0ac2\u0aa4\u0abe\u0aa8","name:gv":"yn Vutaan","name:ha":"Bhutan","name:hak":"Bhutan","name:haw":"Butana","name:he":"\u05d1\u05d4\u05d5\u05d8\u05df","name:hi":"\u092d\u0942\u091f\u093e\u0928","name:hif":"Bhutan","name:hr":"Butan","name:hsb":"Bhutan","name:ht":"Boutan","name:hu":"Bhut\u00e1n","name:hy":"\u0532\u0578\u0582\u0569\u0561\u0576","name:ia":"Bhutan","name:id":"Bhutan","name:ie":"Bhutan","name:ilo":"Butan","name:io":"Bhutan","name:is":"B\u00fatan","name:it":"Bhutan","name:ja":"\u30d6\u30fc\u30bf\u30f3","name:jam":"Buutan","name:jbo":"butyn","name:jv":"Bhutan","name:ka":"\u10d1\u10f0\u10e3\u10e2\u10d0\u10dc\u10d8","name:kaa":"Butan","name:kab":"Butan","name:kg":"Bhutan","name:ki":"Bhutan","name:kk":"\u0411\u0443\u0442\u0430\u043d","name:kl":"Bhutan","name:km":"\u1794\u17ca\u17bc\u178f\u17b6\u1793","name:kn":"\u0cad\u0cc2\u0ca4\u0cbe\u0ca8\u0ccd","name:ko":"\ubd80\ud0c4","name:ks":"\u0628\u0648\u0657\u0679\u0627\u0646","name:ksh":"Buttaan","name:ku":"B\u00fbtan","name:kv":"\u0411\u0443\u0442\u0430\u043d","name:kw":"Bhoutan","name:ky":"\u0411\u0443\u0442\u0430\u043d","name:la":"Butania","name:lb":"Bhutan","name:lez":"\u0411\u0443\u0442\u0430\u043d","name:lg":"Butaani","name:li":"Bhutan","name:lij":"Bhutan","name:lmo":"Bhutan","name:ln":"But\u00e1ni","name:lo":"\u0e9a\u0eb9\u0e95\u0eb2\u0e99","name:lrc":"\u0628\u0648\u0659\u062a\u0627\u0646","name:lt":"Butanas","name:lv":"But\u0101na","name:lzh":"\u4e0d\u4e39","name:mai":"\u092d\u0941\u091f\u093e\u0928","name:mg":"Bot\u00e0na","name:mi":"Put\u0101na","name:mk":"\u0411\u0443\u0442\u0430\u043d","name:ml":"\u0d2d\u0d42\u0d1f\u0d4d\u0d1f\u0d3e\u0d7b","name:mn":"\u0411\u0443\u0442\u0430\u043d","name:mr":"\u092d\u0942\u0924\u093e\u0928","name:ms":"Bhutan","name:mt":"Butan","name:mwl":"Buton","name:my":"\u1018\u1030\u1010\u1014\u103a\u1014\u102d\u102f\u1004\u103a\u1004\u1036","name:mzn":"\u0628\u0648\u062a\u0627\u0646","name:na":"Butan","name:nah":"Butan","name:nan":"Bhutan","name:nap":"Bhutan","name:nds":"Bhutan","name:ne":"\u092d\u0942\u091f\u093e\u0928","name:new":"\u092d\u0941\u091f\u093e\u0928","name:nl":"Bhutan","name:nn":"Bhutan","name:no":"Bhutan","name:nov":"Butan","name:nv":"Bik\u00e9yah","name:oc":"Botan","name:olo":"Butan","name:om":"Buutan","name:or":"\u0b2d\u0b41\u0b1f\u0b3e\u0b28","name:os":"\u0411\u0443\u0442\u0430\u043d","name:pa":"\u0a2d\u0a42\u0a1f\u0a3e\u0a28","name:pag":"Bhutan","name:pam":"Butan","name:pap":"Bhutan","name:pcd":"Bhoutan","name:pi":"\u092d\u0942\u091f\u093e\u0928","name:pih":"Buuten","name:pl":"Bhutan","name:pms":"Bhutan","name:pnb":"\u0628\u06be\u0648\u0679\u0627\u0646","name:ps":"\u0628\u0648\u062a\u0627\u0646","name:pt":"But\u00e3o","name:qu":"Butan","name:rm":"Bhutan","name:rn":"Butani","name:ro":"Bhutan","name:roa-rup":"Bhutan","name:ru":"\u0411\u0443\u0442\u0430\u043d","name:rue":"\u0411\u0433\u0443\u0442\u0430\u043d","name:rw":"Butani","name:sa":"\u092d\u0942\u091f\u093e\u0928","name:sah":"\u0411\u0443\u0442\u0430\u043d","name:scn":"Bhutan","name:sco":"Bhutan","name:se":"Bhutan","name:sg":"But\u00e4an","name:sh":"Butan","name:si":"\u0db7\u0dd6\u0dad\u0dcf\u0db1\u0dba","name:sk":"Bhut\u00e1n","name:sl":"Butan","name:smn":"Bhutan","name:sms":"Bhutaan","name:sn":"Bhutan","name:so":"Butaan","name:sq":"Butani","name:sr":"\u0411\u0443\u0442\u0430\u043d","name:srn":"Butankondre","name:ss":"iBhuthani","name:stq":"Bhutan","name:su":"Butan","name:sv":"Bhutan","name:sw":"Bhutan","name:szl":"Bhutan","name:ta":"\u0baa\u0bc2\u0b9f\u0bcd\u0b9f\u0bbe\u0ba9\u0bcd","name:tcy":"\u0cad\u0cc2\u0ca4\u0cbe\u0ca8\u0ccd","name:te":"\u0c2d\u0c42\u0c1f\u0c3e\u0c28\u0c4d","name:tet":"Butaun","name:tg":"\u0411\u0443\u0442\u0430\u043d","name:th":"\u0e1b\u0e23\u0e30\u0e40\u0e17\u0e28\u0e20\u0e39\u0e0f\u0e32\u0e19","name:ti":"\u1261\u1205\u1273\u1295","name:tk":"Butan","name:tl":"Butan","name:to":"P\u016btani","name:tpi":"Bhutan","name:tr":"Bhutan","name:tt":"\u0411\u0443\u0442\u0430\u043d","name:tum":"Bhutan","name:tw":"Butan","name:tzl":"Bhut\u00e0","name:udm":"\u0411\u0443\u0442\u0430\u043d","name:ug":"\u0628\u06c7\u062a\u0627\u0646","name:uk":"\u0411\u0443\u0442\u0430\u043d","name:ur":"\u0628\u06be\u0648\u0679\u0627\u0646","name:uz":"Butan","name:vec":"Butan","name:vep":"Butan","name:vi":"Bhutan","name:vo":"But\u00e4n","name:vro":"Bhutan","name:war":"Butan","name:wo":"Butaan","name:wuu":"\u4e0d\u4e39","name:xal":"\u0411\u0443\u0442\u0430\u043d\u043c\u0443\u0434\u0438\u043d \u041d\u0443\u0442\u0433","name:xmf":"\u10d1\u10f0\u10e3\u10e2\u10d0\u10dc\u10d8","name:yi":"\u05d1\u05d4\u05d5\u05d8\u05d0\u05df","name:yo":"Bh\u00f9t\u00e1n","name:yue":"\u4e0d\u4e39","name:za":"Budanh","name:zea":"Bhutan","name:zh":"\u4e0d\u4e39","name:zh-Hans":"\u4e0d\u4e39","name:zh-Hant":"\u4e0d\u4e39","name:zh-Latn-pinyin":"B\u00f9d\u0101n","name:zu":"i-Bhutan","official_name":"\u0f60\u0f56\u0fb2\u0f74\u0f42\u0f0b\u0f62\u0f92\u0fb1\u0f63\u0f0b\u0f41\u0f56\u0f0b","official_name:ab":"\u0411\u0443\u0442\u0430\u043d \u0430\u043a\u0440\u0430\u0301\u043b\u0440\u0430","official_name:ace":"Keurajeu\u00ebn Bhutan","official_name:ady":"\u041f\u0430\u0447\u044a\u044b\u0445\u044c\u044b\u0433\u044a\u043e\u0443 \u0411\u0443\u0442\u0430\u043d","official_name:af":"Koninkryk van Bhoetan","official_name:als":"K\u00f6nigreich Bhutan","official_name:am":"\u1261\u1273\u1295 \u1218\u1295\u130d\u1225\u1271","official_name:an":"Reino de But\u00e1n","official_name:ar":"\u0645\u0645\u0644\u0643\u0629 \u0628\u0648\u062a\u0627\u0646","official_name:arz":"\u0645\u0645\u0644\u0643\u0629 \u0628\u0648\u062a\u0627\u0646","official_name:as":"\u09ad\u09c1\u099f\u09be\u09a8 \u09b8\u09ae\u09cd\u09f0\u09be\u099c\u09cd\u09af","official_name:ast":"Reinu de But\u00e1n","official_name:az":"Butan Krall\u0131\u011f\u0131","official_name:az-Arab":"\u0628\u0648\u062a\u0627\u0646 \u0634\u0627\u0647\u0644\u06cc\u063a\u06cc","official_name:azb":"\u0628\u0648\u062a\u0627\u0646 \u0634\u0627\u0647\u0644\u06cc\u063a\u06cc","official_name:ba":"\u041a\u043e\u0440\u043e\u043b\u0435\u0432\u0441\u0442\u0432\u043e \u0411\u0443\u0442\u0430\u043d","official_name:bar":"Kenigreich Bhutan","official_name:bat-smg":"Butana Karal\u012bste","official_name:be":"\u041a\u0430\u0440\u0430\u043b\u0435\u045e\u0441\u0442\u0432\u0430 \u0411\u0443\u0442\u0430\u043d","official_name:be-tarask":"\u041a\u0430\u0440\u0430\u043b\u0435\u045e\u0441\u0442\u0432\u0430 \u0411\u0443\u0442\u0430\u043d","official_name:bg":"\u041a\u0440\u0430\u043b\u0441\u0442\u0432\u043e \u0411\u0443\u0442\u0430\u043d","official_name:bh":"\u092d\u0942\u091f\u093e\u0928 \u0930\u093e\u091c\u0924\u0902\u0924\u094d\u0930","official_name:bjn":"Karajaan Bhutan","official_name:bn":"\u09ad\u09c2\u099f\u09be\u09a8 \u09b8\u09be\u09ae\u09cd\u09b0\u09be\u099c\u09cd\u09af","official_name:bpy":"\u09b0\u09be\u099c\u09a4\u09be\u09a8\u09cd\u09a4\u09cd\u09b0\u09bf\u0995 \u09ad\u09c1\u099f\u09be\u09a8","official_name:bs":"Kraljevina Butan","official_name:bxr":"\u0411\u0443\u0442\u0430\u043d\u044b\u043d \u0412\u0430\u043d\u0442 \u0423\u043b\u0430\u0441","official_name:ceb":"Gingharian sa Bhutan","official_name:chr":"\u13a4\u13ac\u13eb\u13f3\u13af \u13a8\u13d2 \u13be\u13bf \u13ca\u13d4\u13c2","official_name:ckb":"\u0634\u0627\u0646\u0634\u06cc\u0646\u06cc \u0628\u0648\u0648\u062a\u0627\u0646","official_name:crh":"Butan Q\u0131rall\u0131\u011f\u0131","official_name:cs":"Bh\u00fat\u00e1nsk\u00e9 kr\u00e1lovstv\u00ed","official_name:cv":"\u0411\u0443\u0442\u0430\u043d \u043f\u0430\u0442\u0448\u0430\u043b\u0103\u0445\u0115","official_name:cy":"Teyrnas Bhwtan","official_name:da":"Konged\u00f8mmet Bhutan","official_name:de":"K\u00f6nigreich Bhutan","official_name:dsb":"Bhutanske kralojstwo","official_name:dty":"\u0930\u093e\u091c\u0924\u0928\u094d\u0924\u094d\u0930 \u092d\u0942\u091f\u093e\u0928","official_name:dz":"\u0f60\u0f56\u0fb2\u0f74\u0f42\u0f0b\u0f62\u0f92\u0fb1\u0f63\u0f0b\u0f41\u0f56\u0f0b","official_name:el":"\u0392\u03b1\u03c3\u03af\u03bb\u03b5\u03b9\u03bf \u03c4\u03bf\u03c5 \u039c\u03c0\u03bf\u03c5\u03c4\u03ac\u03bd","official_name:en":"Kingdom of Bhutan","official_name:eo":"Re\u011dlando Butano","official_name:es":"Reino de But\u00e1n","official_name:et":"Bhutani Kuningriik","official_name:eu":"Bhutango Erresuma","official_name:ext":"R\u00e9inu de But\u00e1n","official_name:fa":"\u067e\u0627\u062f\u0634\u0627\u0647\u06cc \u0628\u0648\u062a\u0627\u0646","official_name:fi":"Bhutanin kuningaskunta","official_name:fo":"Kongar\u00edki\u00f0 Bhutan","official_name:fr":"Royaume du Bhoutan","official_name:frr":"K\u00f6ningrik faan Bhuutaan","official_name:fy":"keninkryk B\u00fbtan","official_name:ga":"R\u00edocht na B\u00fat\u00e1ine","official_name:gd":"R\u00ecoghachd Bhut\u00e0in","official_name:gl":"Reino de But\u00e1n","official_name:gn":"Tet\u00e3 Vut\u00e3","official_name:gu":"\u0aad\u0ac2\u0aa4\u0abe\u0aa8\u0aa8\u0ac1\u0a82 \u0ab0\u0abe\u0a9c\u0acd\u0aaf","official_name:gv":"Reeriaght ny Butaan","official_name:hak":"Bhutan V\u00f2ng-koet","official_name:he":"\u05de\u05de\u05dc\u05db\u05ea \u05d1\u05b0\u05bc\u05d4\u05d5\u05bc\u05d8\u05b8\u05df","official_name:hi":"\u092d\u0942\u091f\u093e\u0928 \u0915\u093e \u0930\u093e\u091c\u0924\u0902\u0924\u094d\u0930","official_name:hr":"Kraljevina Butan","official_name:hsb":"Kralestwo Bhutan","official_name:hu":"Bhut\u00e1ni Kir\u00e1lys\u00e1g","official_name:hy":"\u0532\u0578\u0582\u0569\u0561\u0576\u056b \u0539\u0561\u0563\u0561\u057e\u0578\u0580\u0578\u0582\u0569\u0575\u0578\u0582\u0576","official_name:id":"Kerajaan Bhutan","official_name:ilo":"Pagarian ti Butan","official_name:is":"Konungsr\u00edki\u00f0 B\u00fatan","official_name:it":"Regno del Bhutan","official_name:ja":"\u30d6\u30fc\u30bf\u30f3\u738b\u56fd","official_name:jam":"Kindom ah Buutan","official_name:jv":"Karajan Bhutan","official_name:ka":"\u10d1\u10f0\u10e3\u10e2\u10d0\u10dc\u10d8\u10e1 \u10e1\u10d0\u10db\u10d4\u10e4\u10dd","official_name:kk":"\u0411\u0443\u0442\u0430\u043d \u043a\u043e\u0440\u043e\u043b\u044c\u0434\u0456\u0433\u0456","official_name:kn":"\u0cad\u0cc2\u0ca4\u0cbe\u0ca8\u0ccd \u0cb0\u0cbe\u0c9c\u0ccd\u0caf","official_name:ko":"\ubd80\ud0c4 \uc655\uad6d","official_name:ku":"Keyatiya B\u00fbtan\u00ea","official_name:kv":"\u0411\u0443\u0442\u0430\u043d \u043a\u043e\u0440\u043e\u043b\u044c\u0443\u0432","official_name:kw":"Rywvaneth Bhoutan","official_name:ky":"\u0411\u0443\u0442\u0430\u043d \u041a\u043e\u0440\u043e\u043b\u0434\u0443\u0433\u0443","official_name:la":"Regnum Butaniae","official_name:lb":"Kinnekr\u00e4ich Bhutan","official_name:lt":"Butano Karalyst\u0117","official_name:lv":"But\u0101nas Karaliste","official_name:lzh":"\u4e0d\u4e39\u738b\u570b","official_name:mk":"\u041a\u0440\u0430\u043b\u0441\u0442\u0432\u043e\u0442\u043e \u0411\u0443\u0442\u0430\u043d","official_name:mn":"\u0411\u0443\u0442\u0430\u043d\u044b \u0412\u0430\u043d\u0442 \u0423\u043b\u0441","official_name:mr":"\u092d\u0942\u0924\u093e\u0928\u091a\u0947 \u0930\u093e\u091c\u0938\u0924\u094d\u0924\u093e\u0915","official_name:ms":"Kerajaan Bhutan","official_name:mt":"Renju tal-Butan","official_name:mwl":"Reino de l Buton","official_name:my":"\u1018\u1030\u1010\u1014\u103a \u1018\u102f\u101b\u1004\u1037\u103a\u1014\u102d\u102f\u1004\u103a\u1004\u1036","official_name:mzn":"\u0628\u0648\u062a\u0627\u0646 \u0633\u0644\u0637\u0646\u062a","official_name:nah":"Hu\u0113yitlahtohc\u0101y\u014dtl Butan","official_name:nan":"Bhutan \u00d4ng-kok","official_name:nap":"Regno 'e Bhutan","official_name:new":"\u092d\u0941\u091f\u093e\u0928 \u0930\u093e\u091c\u0924\u0928\u094d\u0924\u094d\u0930","official_name:nl":"Koninkrijk Bhutan","official_name:no":"Kongeriket Bhutan","official_name:nv":"Ii\u02bcni\u02bc T\u0142\u02bciishtsoh Bik\u00e9yah","official_name:olo":"Kuningasvaldu Butan","official_name:pa":"\u0a2d\u0a42\u0a1f\u0a3e\u0a28 \u0a2c\u0a3e\u0a26\u0a38\u0a3c\u0a3e\u0a39\u0a40","official_name:pam":"Kaarian ning Bhutan","official_name:pcd":"Ro\u00e9y\u00f4me du Bhoutan","official_name:pl":"Kr\u00f3lestwo Bhutanu","official_name:ps":"\u062f \u0628\u0648\u062a\u0627\u0646 \u067e\u0627\u062f\u0634\u0627\u0647\u064a","official_name:pt":"Reino do But\u00e3o","official_name:qu":"Butan Qhapaq Suyu","official_name:ro":"Regatul Bhutanului","official_name:roa-rup":"V\u00e3silia Bhutan","official_name:ru":"\u041a\u043e\u0440\u043e\u043b\u0435\u0432\u0441\u0442\u0432\u043e \u0411\u0443\u0442\u0430\u043d","official_name:sah":"\u0411\u0443\u0442\u0430\u043d \u0425\u043e\u0440\u0443\u043e\u043b\u043b\u0443\u0433\u0430","official_name:sco":"Kinrick o Bhutan","official_name:se":"Bhutana gonagasriika","official_name:sh":"Kraljevina Butan","official_name:si":"\u0db7\u0dd6\u0dad\u0dcf\u0db1 \u0dbb\u0dcf\u0da2\u0db0\u0dcf\u0db1\u0dd2\u0dba","official_name:sk":"Bhut\u00e1nske kr\u00e1\u013eovstvo","official_name:sl":"Kraljevina Butan","official_name:so":"Boqortooyada Butaan","official_name:sq":"Mbret\u00ebria e Butanit","official_name:sr":"\u041a\u0440\u0430\u0459\u0435\u0432\u0438\u043d\u0430 \u0411\u0443\u0442\u0430\u043d","official_name:su":"Karajaan Butan","official_name:sv":"Konungariket Bhutan","official_name:sw":"Ufalme wa Bhutan","official_name:szl":"Kr\u016flestwo Bhutanu","official_name:ta":"\u0baa\u0bc2\u0b9f\u0bcd\u0b9f\u0bbe\u0ba9\u0bcd \u0b87\u0bb0\u0bbe\u0b9a\u0bcd\u0b9a\u0bbf\u0baf\u0bae\u0bcd","official_name:tcy":"\u0cad\u0cc2\u0ca4\u0cbe\u0ca8\u0ccd \u0cb0\u0cbe\u0c9c\u0ccd\u0caf","official_name:te":"\u0c2d\u0c42\u0c1f\u0c28\u0c4d \u0c30\u0c3e\u0c1c\u0c4d\u0c2f\u0c2e\u0c41","official_name:tg":"\u0428\u043e\u04b3\u0438\u0433\u0430\u0440\u0438\u0438 \u0411\u0443\u0442\u0430\u043d","official_name:th":"\u0e23\u0e32\u0e0a\u0e2d\u0e32\u0e13\u0e32\u0e08\u0e31\u0e01\u0e23\u0e20\u0e39\u0e0f\u0e32\u0e19","official_name:tk":"Butan Korollygy","official_name:tl":"Kaharian ng Bhutan","official_name:tr":"Bhutan Krall\u0131\u011f\u0131","official_name:tt":"\u0411\u0443\u0442\u0430\u043d \u041f\u0430\u0442\u0448\u0430\u043b\u044b\u0433\u044b","official_name:uk":"\u041a\u043e\u0440\u043e\u043b\u0456\u0432\u0441\u0442\u0432\u043e \u0411\u0443\u0442\u0430\u043d","official_name:ur":"\u0645\u0645\u0644\u06a9\u062a \u0628\u06be\u0648\u0679\u0627\u0646","official_name:uz":"Butan podsholigi","official_name:vec":"Regno de el Butan","official_name:vep":"Butanan Kunigahuz","official_name:vi":"V\u01b0\u01a1ng qu\u1ed1c Bhutan","official_name:vo":"Reg\u00e4n But\u00e4na","official_name:vro":"Bhutani Kuningriik","official_name:war":"Ginhadi-an han Bhutan","official_name:wo":"Ruwaayom bu Butaan","official_name:wuu":"\u4e0d\u4e39\u738b\u56fd","official_name:xmf":"\u10d1\u10f0\u10e3\u10e2\u10d0\u10dc\u10d8\u10e8 \u10dd\u10db\u10d0\u10e4\u10d4","official_name:yi":"\u05de\u05dc\u05db\u05d5\u05ea \u05e4\u05d5\u05df \u05d1\u05d4\u05d5\u05d8\u05d0\u05df","official_name:yo":"Il\u1eb9\u0300\u1ecdba il\u1eb9\u0300 Bh\u00f9t\u00e1n","official_name:yue":"\u4e0d\u4e39\u738b\u570b","official_name:zh":"\u4e0d\u4e39\u738b\u56fd \/ \u4e0d\u4e39\u738b\u570b","official_name:zh-Hans":"\u4e0d\u4e39\u738b\u56fd","official_name:zh-Hant":"\u4e0d\u4e39\u738b\u570b","timezone":"Asia\/Thimphu","type":"boundary","wikidata":"Q917","wikipedia":"dz:\u0f60\u0f56\u0fb2\u0f74\u0f42"},"timestamp":1716078538,"representative_point":{"type":"Point","coordinates":[90.38020459418944,27.47450615]}},"geometry":{"type":"Polygon","coordinates":[[[88.9055565,27.274088],[88.7464867,27.1429656],[88.8766694,26.9464608],[89.6490179,26.7175063],[90.3729559,26.9020802],[90.7176303,26.7689857],[92.1025286,26.8694964],[92.0187891,27.4784322],[91.651964,27.4833721],[91.5692856,27.8174117],[91.338926,28.065683],[90.8621758,27.8557186],[90.7936931,28.0482218],[89.7936631,28.246749],[89.2355281,27.802458],[89.0128469,27.50265],[89.0178618,27.2284128],[88.9055565,27.274088]]]}}