{"type":"Feature","properties":{"tags":{"ISO3166-1":"BZ","ISO3166-1:alpha2":"BZ","ISO3166-1:alpha3":"BLZ","ISO3166-1:numeric":"084","admin_level":"2","alt_name:bg":"\u0411\u0435\u043b\u0438\u0439\u0437","alt_name:fr":"B\u00e9lize","alt_name:gd":"A' Bheil\u00ecs;Bel\u00ecos","alt_name:gn":"Vel\u00edse","alt_name:mk":"\u0411\u0435\u043b\u0438\u0441\u0435","alt_name:mzn":"\u0628\u0644\u0632","alt_name:pa":"\u0a2c\u0a32\u0a40\u0a1c\u0a3c","alt_name:war":"Belice","border_type":"nation","boundary":"administrative","default_language":"en","description":"Belize is an independent and sovereign country located on the north eastern coast of Central America.","flag":"http:\/\/upload.wikimedia.org\/wikipedia\/commons\/e\/e7\/Flag_of_Belize.svg","name":"Belize","name:ace":"Belize","name:ady":"\u0411\u0435\u043b\u0438\u0437","name:af":"Belize","name:ak":"Beliz","name:als":"Belize","name:am":"\u1264\u120a\u12dd","name:an":"Belize","name:ang":"Bel\u012bs","name:ar":"\u0628\u0644\u064a\u0632","name:arz":"\u0628\u064a\u0644\u064a\u0632","name:ast":"Belize","name:ay":"Wilisi","name:az":"Beliz","name:azb":"\u0628\u0644\u06cc\u0632","name:ba":"\u0411\u0435\u043b\u0438\u0437","name:bar":"Belize","name:bat-smg":"Bel\u0117zos","name:bcl":"Belisa","name:be":"\u0411\u0435\u043b\u0456\u0301\u0437","name:be-tarask":"\u0411\u044d\u043b\u0456\u0437","name:bg":"\u0411\u0435\u043b\u0438\u0437","name:bm":"Belizi","name:bn":"\u09ac\u09c7\u09b2\u09bf\u099c","name:bo":"\u0f56\u0f7a\u0f0b\u0f63\u0f72\u0f0b\u0f5b\u0f72\u0f0d","name:bpy":"\u09ac\u09c7\u09b2\u09bf\u099c","name:br":"Belize","name:bs":"Beliz","name:bxr":"\u0411\u0435\u043b\u0438\u0437","name:ca":"Belize","name:cbk-zam":"Belice","name:cdo":"Belize","name:ce":"\u0411\u0435\u043b\u0438\u0301\u0437","name:ceb":"Belize","name:chr":"\u13c7\u13b5\u13cd","name:ckb":"\u0628\u06d5\u0644\u06cc\u0632","name:crh":"Beliz","name:cs":"Belize","name:cv":"\u0411\u0435\u043b\u0438\u0437","name:cy":"Bel\u00ees","name:da":"Belize","name:de":"Belize","name:diq":"Beliz","name:dsb":"Belize","name:dty":"\u092c\u0947\u0932\u093f\u091c","name:dv":"\u0784\u07ac\u078d\u07a9\u0792\u07aa","name:dz":"\u0f56\u0f7a\u0f0b\u0f63\u0f72\u0f5b\u0f0d","name:ee":"Belize","name:el":"\u039c\u03c0\u03b5\u03bb\u03af\u03b6","name:en":"Belize","name:eo":"Belizo","name:es":"Belice","name:et":"Belize","name:eu":"Belize","name:ext":"Belici","name:fa":"\u0628\u0644\u06cc\u0632","name:ff":"Beliise","name:fi":"Belize","name:fo":"Belis","name:fr":"Belize","name:frp":"Belize","name:frr":"Belize","name:fy":"Belize","name:ga":"an Bheil\u00eds","name:gag":"Beliz","name:gd":"Beilise","name:gl":"Belice","name:gn":"Mbelise","name:gom":"\u092c\u0947\u0932\u093f\u091d","name:gu":"\u0aac\u0ac7\u0ab2\u0ac0\u0a9d","name:gv":"yn Veleesh","name:ha":"Beliz","name:hak":"Belize","name:he":"\u05d1\u05dc\u05d9\u05d6","name:hi":"\u092c\u0947\u0932\u0940\u091c\u093c","name:hif":"Belize","name:hr":"Belize","name:hsb":"Belize","name:ht":"Beliz","name:hu":"Belize","name:hy":"\u0532\u0565\u056c\u056b\u0566","name:ia":"Belize","name:id":"Belize","name:ie":"Belize","name:ilo":"Belis","name:io":"Belize","name:is":"Bel\u00eds","name:it":"Belize","name:ja":"\u30d9\u30ea\u30fc\u30ba","name:jam":"Biliiz","name:jbo":"beliz","name:jv":"Belize","name:ka":"\u10d1\u10d4\u10da\u10d8\u10d6\u10d8","name:kaa":"Beliz","name:kab":"Belize","name:kbp":"Peliizi","name:kk":"\u0411\u0435\u043b\u0438\u0301\u0437","name:km":"\u1794\u17c1\u179b\u17b8\u17a0\u17d2\u179f","name:kn":"\u0cac\u0cc6\u0cb2\u0cc0\u0c9c\u0ccd","name:ko":"\ubca8\ub9ac\uc988","name:ks":"\u0628\u06cc\u0644\u0650\u062c","name:ku":"Bel\u00eeze","name:kw":"Belisa","name:ky":"\u0411\u0435\u043b\u0438\u0437","name:la":"Beliza","name:lad":"Belize","name:lb":"Belize","name:li":"Belize","name:lij":"Belize","name:lmo":"Belize","name:ln":"Belize","name:lo":"\u0ec0\u0e9a\u0e8a\u0eb5\u0ea7","name:lt":"Belizas","name:lv":"Beliza","name:lzh":"\u4f2f\u5229\u5179","name:mai":"\u092c\u0947\u0932\u093f\u091c","name:mg":"Belizy","name:mhr":"\u0411\u0435\u043b\u0438\u0437","name:mk":"\u0411\u0435\u043b\u0438\u0437\u0435","name:ml":"\u0d2c\u0d46\u0d32\u0d40\u0d38\u0d4d","name:mn":"\u0411\u0435\u043b\u0438\u0437","name:mr":"\u092c\u0947\u0932\u093f\u091d","name:mrj":"\u0411\u0435\u043b\u0438\u0437","name:ms":"Belize","name:mt":"Beli\u017ce","name:my":"\u1018\u101c\u102d\u1007\u103a","name:mzn":"\u0628\u0644\u06cc\u0632","name:na":"Berij","name:nah":"Belice","name:nan":"Belize","name:nds":"Belize","name:ne":"\u092c\u0947\u0932\u093f\u091c","name:new":"\u092c\u0947\u0932\u093f\u091c","name:nl":"Belize","name:nn":"Belize","name:no":"Belize","name:nov":"Beliz","name:oc":"Belize","name:olo":"Belize","name:om":"Beliiz","name:or":"\u0b2c\u0b47\u0b32\u0b3f\u0b1c","name:os":"\u0411\u0435\u043b\u0438\u0437","name:pa":"\u0a2c\u0a47\u0a32\u0a40\u0a1c\u0a3c","name:pam":"Belize","name:pap":"Belize","name:pi":"\u092c\u0947\u0932\u0940\u091c","name:pih":"Beles","name:pl":"Belize","name:pms":"Belize","name:pnb":"\u0628\u06cc\u0644\u06cc\u0632","name:ps":"\u0628\u06d0\u0644\u06cc\u0632","name:pt":"Belize","name:qu":"Bilisi","name:rm":"Belize","name:ro":"Belize","name:roa-rup":"Belize","name:ru":"\u0411\u0435\u043b\u0438\u0437","name:rue":"\u0411\u0435\u043b\u0456\u0437","name:rw":"Belize","name:sa":"\u092c\u0947\u0932\u0940\u091c","name:sah":"\u0411\u0435\u043b\u0438\u0437","name:sc":"Belize","name:scn":"Belizi","name:sco":"Belize","name:se":"Belize","name:sg":"Bel\u00eezi","name:sh":"Belize","name:si":"\u0db6\u0dd9\u0dbd\u0dd3\u0dc3\u0dca","name:simple":"Belize","name:sk":"Belize","name:sl":"Belize","name:sm":"Pelisi","name:smn":"Belize","name:sms":"Belize","name:sn":"Belize","name:so":"Belise","name:sq":"Beliza","name:sr":"\u0411\u0435\u043b\u0438\u0437\u0435","name:ss":"iBhelizi","name:su":"B\u00e9lis","name:sv":"Belize","name:sw":"Belize","name:szl":"Belize","name:ta":"\u0baa\u0bc6\u0bb2\u0bc0\u0b9a\u0bc1","name:te":"\u0c2c\u0c46\u0c32\u0c3f\u0c1c\u0c4d","name:tet":"Belize","name:tg":"\u0411\u0435\u043b\u045d\u0437","name:th":"\u0e40\u0e1a\u0e25\u0e35\u0e0b","name:ti":"\u1264\u120a\u12d8","name:tl":"Belise","name:to":"Pelise","name:tr":"Belize","name:tt":"\u0411\u0435\u043b\u0438\u0301\u0437","name:tzl":"Beli\u00e7a","name:ug":"\u0628\u06d0\u0644\u0649\u0632","name:uk":"\u0411\u0435\u043b\u0456\u0301\u0437","name:ur":"\u0628\u06cc\u0644\u06cc\u0632","name:uz":"Beliz","name:vec":"Belize","name:vep":"Beliz","name:vi":"Belize","name:vo":"Belis\u00e4n","name:vro":"Belize","name:war":"Belize","name:wo":"Beliis","name:wuu":"\u4f2f\u5229\u8332","name:xal":"\u0411\u0435\u043b\u0441\u0438\u043d","name:xmf":"\u10d1\u10d4\u10da\u10d8\u10d6\u10d8","name:yi":"\u05d1\u05e2\u05dc\u05d9\u05d6","name:yo":"B\u1eb9\u0300l\u00eds\u00e8","name:yue":"\u4f2f\u5229\u8332","name:za":"Belize","name:zea":"Belize","name:zh":"\u4f2f\u5229\u5179 \/ \u8c9d\u91cc\u65af","name:zh-HK":"\u4f2f\u5229\u5179","name:zh-Hans":"\u4f2f\u5229\u5179","name:zh-Hant":"\u4f2f\u5229\u5179 \/ \u8c9d\u91cc\u65af","name:zh-TW":"\u8c9d\u91cc\u65af","name:zu":"Belize","official_name":"Commonwealth of Belize","official_name:ay":"Wilisi Suyu","official_name:ckb":"\u06cc\u06d5\u06a9\u06cc\u06d5\u062a\u06cc\u06cc \u0647\u0627\u0648\u0642\u0627\u0632\u0627\u0646\u062c\u06cc \u0628\u06d5\u0644\u06cc\u0632","official_name:en":"Commonwealth of Belize","official_name:kk":"\u0411\u0435\u043b\u0438\u0437 \u0420\u0435\u0441\u043f\u0443\u0431\u043b\u0438\u043a\u0430\u0441\u044b","official_name:mn":"\u0411\u0435\u043b\u0438\u0437 \u0443\u043b\u0441","official_name:my":"\u1018\u101c\u102d\u1007\u103a\u1014\u102d\u102f\u1004\u103a\u1004\u1036","official_name:nah":"Tlacatlahtohcayotl Belice","official_name:xal":"\u0411\u0435\u043b\u0441\u0438\u043d \u041e\u0440\u043d","old_name:af":"Brits-Honduras","old_name:als":"britischi Chronkolonii","old_name:an":"Honduras Britanica","old_name:ang":"Bryttisc Honduras","old_name:ar":"\u0647\u0646\u062f\u0648\u0631\u0627\u0633 \u0627\u0644\u0628\u0631\u064a\u0637\u0627\u0646\u064a\u0629","old_name:ast":"Hondures Brit\u00e1nica","old_name:az":"Britaniya Honduras\u0131","old_name:ba":"\u0411\u0440\u0438\u0442\u0430\u043d\u0438\u044f \u0413\u043e\u043d\u0434\u0443\u0440\u0430\u0441\u044b","old_name:bar":"Britisch-Honduras","old_name:bg":"\u0411\u0440\u0438\u0442\u0430\u043d\u0441\u043a\u0438 \u0425\u043e\u043d\u0434\u0443\u0440\u0430\u0441","old_name:br":"Honduras Breizh-Veur","old_name:bs":"Britanski Honduras","old_name:ca":"Hondures Brit\u00e0nica","old_name:ce":"\u0411\u0440\u0438\u0442\u0430\u0301\u043d\u0441\u043a\u0438 \u0413\u043e\u043d\u0434\u0443\u0440\u0430\u0301\u0441","old_name:ceb":"British Honduras","old_name:ckb":"\u06be\u06c6\u0646\u062f\u0648\u0648\u0631\u0627\u0633\u06cc \u0628\u06d5\u0631\u06cc\u062a\u0627\u0646\u06cc","old_name:cs":"Britsk\u00fd Honduras","old_name:da":"Britisk Honduras","old_name:de":"Britisch-Honduras","old_name:el":"\u0392\u03c1\u03b5\u03c4\u03b1\u03bd\u03b9\u03ba\u03ae \u039f\u03bd\u03b4\u03bf\u03cd\u03c1\u03b1","old_name:eo":"Brita Honduro","old_name:es":"Honduras Brit\u00e1nica","old_name:et":"Briti Honduras","old_name:eu":"Britainiar Honduras","old_name:ext":"Honduras Brit\u00e1nica","old_name:fi":"Brittil\u00e4inen Honduras","old_name:fo":"Bretska Honduras","old_name:fr":"Honduras britannique","old_name:fy":"Britsk-Hond\u00fbras","old_name:gd":"Hond\u00f9ras Bhreatannaich","old_name:gl":"Honduras Brit\u00e1nica","old_name:he":"\u05d4\u05d5\u05e0\u05d3\u05d5\u05e8\u05e1 \u05d4\u05d1\u05e8\u05d9\u05d8\u05d9\u05ea","old_name:hif":"British Honduras","old_name:hr":"Britanski Honduras","old_name:hu":"Brit Honduras","old_name:ia":"Honduras Britannic","old_name:id":"Honduras Britania","old_name:ie":"Britannic Honduras","old_name:io":"Britaniana Honduras","old_name:is":"Breska Hond\u00faras","old_name:it":"Honduras Britannico","old_name:ja":"\u30a4\u30ae\u30ea\u30b9\u9818\u30db\u30f3\u30b8\u30e5\u30e9\u30b9","old_name:jv":"Honduras Britania","old_name:ku":"Hon\u00fbrasa Br\u00eetan\u00ee","old_name:la":"Honduria Britannica","old_name:li":"Brits Honduras","old_name:lij":"Honduras Britannego","old_name:lmo":"Honduras Brit\u00e0nich","old_name:lt":"Brit\u0173 Hond\u016bru","old_name:lv":"Britu Hondurasu","old_name:ml":"\u0d2c\u0d4d\u0d30\u0d3f\u0d1f\u0d4d\u0d1f\u0d40\u0d37\u0d4d \u0d39\u0d4b\u0d23\u0d4d\u0d1f\u0d41\u0d31\u0d3e\u0d38\u0d4d","old_name:ms":"Honduras British","old_name:nds":"Britisch-Honduras","old_name:nl":"Brits-Honduras","old_name:nn":"Britisk Honduras","old_name:no":"Britisk Honduras","old_name:nov":"Honduras Britanic","old_name:pl":"Honduras Brytyjski","old_name:pms":"Honduras Brit\u00e0nich","old_name:pt":"Honduras Brit\u00e2nicas","old_name:ro":"Hondurasul Britanic","old_name:ru":"\u0411\u0440\u0438\u0442\u0430\u043d\u0441\u043a\u0438\u0439 \u0413\u043e\u043d\u0434\u0443\u0440\u0430\u0441","old_name:sc":"Honduras Brit\u00e0nnicu","old_name:sco":"British Honduras","old_name:sh":"Britanski Honduras","old_name:sk":"Britsk\u00fd Honduras","old_name:sl":"Britanski Honduras","old_name:sq":"Hondurasi britanik","old_name:su":"Honduras Britania","old_name:sv":"Brittiska Honduras","old_name:sw":"Honduras ya Kiingereza","old_name:szl":"Brytyjski H\u016fnduras","old_name:tr":"Britanya Honduras\u0131","old_name:uk":"\u0411\u0440\u0438\u0442\u0430\u043d\u0441\u044c\u043a\u0438\u0439 \u0413\u043e\u043d\u0434\u0443\u0440\u0430\u0441","old_name:vep":"Britanijan Gonduras:aks","old_name:vi":"Honduras thu\u1ed9c Anh","old_name:wuu":"\u82f1\u5c6c\u6d2a\u90fd\u62c9\u65af","old_name:xmf":"\u10d1\u10e0\u10d8\u10e2\u10d0\u10dc\u10d4\u10d7\u10d8\u10e8 \u10f0\u10dd\u10dc\u10d3\u10e3\u10e0\u10d0\u10e1\u10d8","old_name:yue":"\u82f1\u5c6c\u6d2a\u90fd\u62c9\u65af","old_name:zea":"Brits-Honduras","old_name:zh":"\u82f1\u5c5e\u6d2a\u90fd\u62c9\u65af","timezone":"America\/Belize","type":"boundary","wikidata":"Q242","wikipedia":"en:Belize"},"timestamp":1716078538,"representative_point":{"type":"Point","coordinates":[-88.23457748871589,17.1999047]}},"geometry":{"type":"Polygon","coordinates":[[[-89.1519123,17.8155996],[-89.2250023,15.8880059],[-88.6083083,16.0723558],[-88.2134425,15.9342592],[-88.0738341,16.0279556],[-87.3251867,17.1641398],[-87.3049593,17.5651197],[-87.7436226,17.8719558],[-87.6267766,18.1869814],[-88.0311671,18.1675239],[-88.0303658,18.4147942],[-88.4768676,18.4940314],[-88.8597086,17.8944149],[-89.0436789,18.0032981],[-89.1519123,17.8155996]]]}}