{"type":"Feature","properties":{"tags":{"ISO3166-1":"CH","ISO3166-1:alpha2":"CH","ISO3166-1:alpha3":"CHE","ISO3166-1:numeric":"756","TMC:cid_58:tabcd_1:Class":"Area","TMC:cid_58:tabcd_1:LCLversion":"8.00","TMC:cid_58:tabcd_1:LocationCode":"6","admin_level":"2","alt_name:cs":"\u0160v\u00fdcarsk\u00e1 konfederace","alt_name:eo":"Svisio;Svisujo","alt_name:gsw":"Schwiz","boundary":"administrative","capital_city":"Bern","country_code_fips":"SZ","default_language":"de","flag":"https:\/\/upload.wikimedia.org\/wikipedia\/commons\/f\/f3\/Flag_of_Switzerland.svg","int_name":"Schweiz","land_area":"administrative","name":"Schweiz\/Suisse\/Svizzera\/Svizra","name:ace":"Swiss","name:af":"Switserland","name:als":"Schweiz","name:am":"\u1235\u12ca\u12d8\u122d\u120b\u1295\u12f5","name:an":"Suiza","name:ang":"S\u01bfissland","name:ar":"\u0633\u0648\u064a\u0633\u0631\u0627","name:arc":"\u0723\u0718\u071d\u0723\u072a\u0710","name:arz":"\u0633\u0648\u064a\u0633\u0631\u0627","name:ast":"Suiza","name:az":"\u0130sve\u00e7r\u0259","name:ba":"\u0428\u0432\u0435\u0439\u0446\u0430\u0440\u0438\u044f","name:bar":"Schweiz","name:bat-smg":"\u0160veicar\u0117j\u0117","name:bcl":"Suisa","name:be":"\u0428\u0432\u0435\u0439\u0446\u0430\u0440\u044b\u044f","name:be-tarask":"\u0428\u0432\u0435\u0439\u0446\u0430\u0440\u044b\u044f","name:bg":"\u0428\u0432\u0435\u0439\u0446\u0430\u0440\u0438\u044f","name:bi":"Switzerland","name:bn":"Switzerland","name:bo":"\u0f66\u0f74\u0f51\u0f0b\u0f66\u0f72\u0f0d","name:bpy":"\u09b8\u09c1\u0987\u099c\u09be\u09b0\u09b2\u09cd\u09af\u09be\u09a8\u09cd\u09a1","name:br":"Suis","name:bs":"\u0160vicarska","name:bug":"Swiss","name:bxr":"\u0428\u0432\u0435\u0439\u0446\u0430\u0440\u0438","name:ca":"Su\u00efssa","name:cdo":"S\u00f4\u0324i-s\u00ea\u0324\u1e73","name:ce":"\u0428\u0432\u0435\u0439\u0446\u0430\u0440\u0438","name:ceb":"Swisa","name:chr":"\u13cd\u13eb\u13e3\u13b3\u13c2","name:chy":"Switzerland","name:ckb":"\u0633\u0648\u06cc\u0633\u0631\u0627","name:co":"Svizzera","name:crh":"\u0130svi\u00e7re","name:cs":"\u0160v\u00fdcarsko","name:csb":"Szwajcarsk\u00f4","name:cu":"\u0421\u0432\u0438\u0446\u0454\u0440\u0430","name:cv":"\u0428\u0432\u0435\u0439\u0446\u0430\u0440\u0438","name:cy":"Y Swistir","name:da":"Schweiz","name:de":"Schweiz","name:diq":"\u0130swi\u00e7re","name:dsb":"\u0160wicarska","name:dv":"\u0790\u07aa\u0788\u07a8\u0792\u07a6\u078d\u07ad\u0782\u07b0\u0791\u07aa","name:dz":"\u0f66\u0f74\u0f60\u0f72\u0f4a\u0f0b\u0f5b\u0f62\u0f0b\u0f63\u0f7a\u0f53\u0f0b","name:ee":"Switzerland","name:el":"\u0395\u03bb\u03b2\u03b5\u03c4\u03af\u03b1","name:eml":"Sv\u00e9zzra","name:en":"Switzerland","name:eo":"Svislando","name:es":"Suiza","name:et":"\u0160veits","name:eu":"Suitza","name:ext":"Sui\u00e7a","name:fa":"\u0633\u0648\u0626\u06cc\u0633","name:fi":"Sveitsi","name:fo":"Sveis","name:fr":"Suisse","name:frp":"Suisse","name:frr":"Swaits","name:fur":"Svuizare","name:fy":"Switserl\u00e2n","name:ga":"An Eilbh\u00e9is","name:gag":"\u015evey\u021bariya","name:gd":"An Eilbheis","name:gl":"Su\u00edza","name:gn":"Suisa","name:gsw":"Schwiiz","name:gu":"\u0ab8\u0acd\u0ab5\u0abf\u0aa4\u0acd\u0a9d\u0ab0\u0ab2\u0ac7\u0aa8\u0acd\u0aa1","name:gv":"Yn Elveeish","name:hak":"Shu\u00ec-s\u1e73","name:haw":"Kuikilani","name:he":"\u05e9\u05d5\u05d5\u05d9\u05e5","name:hi":"\u0938\u094d\u0935\u093f\u091f\u094d\u091c\u093c\u0930\u0932\u0948\u0902\u0921","name:hif":"Switzerland","name:hr":"\u0160vicarska","name:hsb":"\u0160wicarska","name:ht":"Swis","name:hu":"Sv\u00e1jc","name:hy":"\u0547\u057e\u0565\u0575\u0581\u0561\u0580\u056b\u0561","name:ia":"Suissa","name:id":"Swiss","name:ie":"Svissia","name:ilo":"Switzerland","name:io":"Suisia","name:is":"Sviss","name:it":"Svizzera","name:ja":"\u30b9\u30a4\u30b9","name:jbo":"elvetias","name:jv":"Swiss","name:ka":"\u10e8\u10d5\u10d4\u10d8\u10ea\u10d0\u10e0\u10d8\u10d0","name:kaa":"Shveytsariya","name:kbd":"\u0428\u0443\u044d\u0446\u0430\u0440\u044d","name:kg":"Suisi","name:kk":"\u0428\u0432\u0435\u0439\u0446\u0430\u0440\u0438\u044f","name:kl":"Schweizi","name:kn":"\u0cb8\u0ccd\u0cb5\u0cbf\u0c9f\u0ccd\u0c9c\u0cb0\u0ccd\u0cb2\u0ccd\u0caf\u0cbe\u0c82\u0ca1\u0ccd","name:ko":"\uc2a4\uc704\uc2a4","name:koi":"\u0428\u0432\u0435\u0439\u0446\u0430\u0440\u043c\u0443","name:krc":"\u0428\u0432\u0435\u0439\u0446\u0430\u0440\u0438\u044f","name:ksh":"Shw\u00e4\u0133z","name:ku":"Sw\u00eesre","name:kv":"\u0428\u0432\u0435\u0439\u0446\u0430\u0440\u0438\u044f","name:kw":"Swistir","name:ky":"\u0428\u0432\u0435\u0439\u0446\u0430\u0440\u0438\u044f","name:la":"Helvetia","name:lad":"Suisa","name:lb":"Schw\u00e4iz","name:lez":"\u0428\u0432\u0435\u0439\u0446\u0430\u0440\u0438\u044f","name:li":"Zweitserland","name:lij":"Sviss\u00eba","name:lmo":"Sv\u00eczzera","name:ln":"Swisi","name:lt":"\u0160veicarija","name:ltg":"\u0160veicareja","name:lv":"\u0160veice","name:lzh":"\u745e\u58eb","name:mdf":"\u0428\u0432\u0435\u0439\u0446\u0430\u0440\u0438\u044f","name:mg":"Soisa","name:mhr":"\u0428\u0432\u0435\u0439\u0446\u0430\u0440\u0438\u0439","name:mi":"Huiterangi","name:mk":"\u0428\u0432\u0430\u0458\u0446\u0430\u0440\u0438\u0458\u0430","name:ml":"\u0d38\u0d4d\u0d35\u0d3f\u0d31\u0d4d\u0d31\u0d4d\u0d38\u0d30\u0d4d\u0d32\u0d3e\u0d28\u0d4d\u0d31\u0d4d","name:mn":"\u0428\u0432\u0435\u0439\u0446\u0430\u0440\u0438","name:mr":"\u0938\u094d\u0935\u093f\u0924\u094d\u091d\u0930\u094d\u0932\u0902\u0921","name:ms":"Switzerland","name:mt":"\u017bvizzera","name:my":"\u1006\u103d\u1005\u103a\u1007\u102c\u101c\u1014\u103a\u1014\u102d\u102f\u1004\u103a\u1004\u1036","name:na":"Switzerland","name:nah":"Suiza","name:nan":"S\u016bi-se","name:nap":"Sguizzera","name:nds":"Swiez","name:nds-nl":"Zwitserlaand","name:ne":"\u0938\u094d\u0935\u093f\u091c\u0930\u0932\u094d\u092f\u093e\u0923\u094d\u0921","name:new":"\u0938\u094d\u0935\u093f\u091f\u094d\u091c\u0930\u0932\u094d\u092f\u093e\u0923\u094d\u0921","name:nl":"Zwitserland","name:nn":"Sveits","name:no":"Sveits","name:nov":"Suisia","name:nrm":"Suisse","name:nv":"Swis Bik\u00e9yah","name:oc":"So\u00efssa","name:or":"\u0b38\u0b41\u0b07\u0b1c\u0b30\u0b32\u0b4d\u0b5f\u0b3e\u0b23\u0b4d\u0b21","name:os":"\u0428\u0432\u0435\u0439\u0446\u0430\u0440\u0438","name:pa":"\u0a38\u0a35\u0a3f\u0a1f\u0a1c\u0a3c\u0a30\u0a32\u0a48\u0a02\u0a21","name:pag":"Switzerland","name:pam":"Suiza","name:pap":"Suisa","name:pcd":"Suisse","name:pdc":"Schweiz","name:pfl":"Schwaiz","name:pih":"Switsaland","name:pl":"Szwajcaria","name:pms":"Sv\u00ecssera","name:pnb":"\u0633\u0648\u06cc\u0679\u0632\u0631\u0644\u06cc\u0646\u0688","name:pnt":"\u0395\u03bb\u03b2\u03b5\u03c4\u03af\u03b1","name:ps":"\u0633\u0648\u064a\u0633","name:pt":"Su\u00ed\u00e7a","name:qu":"Suwisa","name:rm":"Svizra","name:rmy":"Elveciya","name:ro":"Elve\u0163ia","name:roa-rup":"Shwaits\u00e3","name:roa-tara":"Svizzere","name:ru":"\u0428\u0432\u0435\u0439\u0446\u0430\u0440\u0438\u044f","name:rue":"\u0428\u0432\u0430\u0439\u0446","name:rw":"Ubusuwisi","name:sa":"\u0938\u094d\u0935\u093f\u091f\u091c\u0930\u0932\u0948\u0902\u0921","name:sah":"\u0428\u0432\u0435\u0439\u0446\u0430\u0440\u0438\u044f","name:sc":"Isv\u00ectzera","name:scn":"Sv\u00eczzira","name:sco":"Swisserland","name:se":"\u0160veica","name:sh":"\u0160vajcarska","name:si":"\u0dc3\u0dca\u0dc0\u0dd2\u0da7\u0dca\u0dc3\u0dbb\u0dca\u0dbd\u0db1\u0dca\u0dad\u0dba","name:sk":"\u0160vaj\u010diarsko","name:sl":"\u0160vica","name:smn":"Sveitsi","name:sms":"Svei\u02b9cc","name:so":"Iswiizerlaan","name:sq":"Zvicra","name:sr":"\u0428\u0432\u0430\u0458\u0446\u0430\u0440\u0441\u043a\u0430","name:ss":"ISwizalandi","name:stq":"Swaits","name:su":"Suis","name:sv":"Schweiz","name:sw":"Uswisi","name:szl":"Szwajcaryj\u014f","name:ta":"\u0b9a\u0bc1\u0bb5\u0bbf\u0b9f\u0bcd\u0b9a\u0bb0\u0bcd\u0bb2\u0bbe\u0ba8\u0bcd\u0ba4\u0bc1","name:te":"\u0c38\u0c4d\u0c35\u0c3f\u0c1f\u0c4d\u0c1c\u0c30\u0c4d\u0c32\u0c3e\u0c02\u0c21\u0c4d","name:tet":"Suisa","name:tg":"\u0428\u0432\u0435\u0439\u0442\u0441\u0430\u0440\u0438\u044f","name:th":"\u0e1b\u0e23\u0e30\u0e40\u0e17\u0e28\u0e2a\u0e27\u0e34\u0e15\u0e40\u0e0b\u0e2d\u0e23\u0e4c\u0e41\u0e25\u0e19\u0e14\u0e4c","name:tk":"\u015ewe\u00fdsari\u00fda","name:tl":"Suwisa","name:tok":"ma Suwasi","name:tpi":"Suwisalan","name:tr":"\u0130svi\u00e7re","name:tt":"\u0428\u0432\u0435\u0439\u0446\u0430\u0440\u0438\u044f","name:tzl":"Sui\u00e7a","name:udm":"\u0428\u0432\u0435\u0439\u0446\u0430\u0440\u0438\u044f","name:ug":"Shw\u00e9tsariye","name:uk":"\u0428\u0432\u0435\u0439\u0446\u0430\u0440\u0456\u044f","name:ur":"\u0633\u0648\u06cc\u0679\u0632\u0631 \u0644\u06cc\u0646\u0688","name:uz":"Shveysariya","name:vec":"Sv\u00eczera","name:vep":"\u0160veicarii","name:vi":"Th\u1ee5y S\u0129","name:vls":"Zwitserland","name:vo":"Jveiz\u00e4n","name:vro":"Sveits","name:war":"Swiza","name:wo":"Suwis","name:wuu":"\u745e\u58eb","name:xal":"\u0421\u0432\u0438\u0441\u043d \u04ba\u0430\u0437\u0440","name:xmf":"\u10e8\u10d5\u10d4\u10d8\u10ea\u10d0\u10e0\u10d8\u10d0","name:yi":"\u05e9\u05d5\u05d5\u05d9\u05d9\u05e5","name:yo":"Sw\u00edts\u00e0land\u00ec","name:yue":"\u745e\u58eb","name:za":"Nyeiqswq","name:zea":"Zwitserland","name:zh":"\u745e\u58eb","name:zh-Hans":"\u745e\u58eb","name:zh-Hant":"\u745e\u58eb","name:zh_pinyin":"Ru\u00ecsh\u00ec","official_name:ca":"Confederaci\u00f3 Helv\u00e8tica","official_name:cs":"\u0160v\u00fdcarsk\u00e1 konfederace","official_name:de":"Schweizerische Eidgenossenschaft","official_name:el":"\u0395\u03bb\u03b2\u03b5\u03c4\u03b9\u03ba\u03ae \u03a3\u03c5\u03bd\u03bf\u03bc\u03bf\u03c3\u03c0\u03bf\u03bd\u03b4\u03af\u03b1","official_name:en":"Swiss Confederation","official_name:eo":"Svisa Konfederacio","official_name:fi":"Sveitsin valaliitto","official_name:fr":"Conf\u00e9d\u00e9ration suisse","official_name:id":"Konfederasi Swiss","official_name:it":"Confederazione Svizzera","official_name:ja":"\u30b9\u30a4\u30b9\u9023\u90a6","official_name:la":"Confoederatio Helvetica","official_name:lb":"Schw\u00e4izeresch Eidgenossenschaft","official_name:lt":"\u0160veicarijos Konfederacija","official_name:rm":"Confederaziun svizra","official_name:sk":"\u0160vaj\u010diarska konfeder\u00e1cia","official_name:sv":"Schweiziska edsf\u00f6rbundet","official_name:vi":"Li\u00ean bang Th\u1ee5y S\u0129","official_name:zh":"\u745e\u58eb\u8054\u90a6 \/ \u745e\u58eb\u806f\u90a6","official_name:zh-Hans":"\u745e\u58eb\u8054\u90a6","official_name:zh-Hant":"\u745e\u58eb\u806f\u90a6","old_name:eo":"Helvetio;Helvetujo","ref:nuts":"CH0","ref:nuts:1":"CH0","source:name:oc":"ieo-bdtopoc","timezone":"Europe\/Zurich","type":"boundary","website":"https:\/\/www.ch.ch\/","wikidata":"Q39","wikipedia":"de:Schweiz"},"timestamp":1716078538,"representative_point":{"type":"Point","coordinates":[8.444756982113061,46.813331250000005]}},"geometry":{"type":"Polygon","coordinates":[[[7.5890388,47.5898969],[7.385599,47.431814],[6.9829674,47.494551],[6.8793259,47.3525796],[7.0569839,47.3343682],[6.4326552,46.9286841],[6.4524,46.7739825],[6.1104914,46.5764482],[6.1244671,46.2512533],[5.9637532,46.197217],[6.1742222,46.1578077],[6.2529745,46.3604259],[6.519124,46.4563726],[6.8210834,46.4271524],[6.7964688,46.1389454],[7.0452884,45.9223722],[7.8635632,45.9167004],[8.1540248,46.1462187],[8.0856718,46.2665507],[8.4381944,46.4642213],[8.4444634,46.2489583],[8.8520348,46.0756306],[8.7859221,45.9891496],[9.0316322,45.8209678],[9.2822285,46.4964792],[9.4635487,46.5088764],[9.5495379,46.3023421],[9.9527592,46.3793014],[10.1323004,46.2248788],[10.0439582,46.540118],[10.4715543,46.5428645],[10.4696542,46.8549127],[10.3893298,47.0005271],[10.1054563,46.8408629],[9.6070544,47.0607725],[9.4717767,47.0615162],[9.5307487,47.270581],[9.6738445,47.3838745],[9.550566,47.5371757],[8.5680281,47.8084597],[8.4055761,47.6741998],[8.582577,47.5961383],[7.5890388,47.5898969]],[[8.958586,45.9648006],[8.9668665,45.9841219],[8.9774152,45.9828986],[8.975739,45.9616225],[8.958586,45.9648006]],[[8.6585911,47.6913488],[8.7012698,47.7151988],[8.7178729,47.6906896],[8.6699501,47.6848539],[8.6585911,47.6913488]]]}}