{"type":"Feature","properties":{"tags":{"ISO3166-1":"CV","ISO3166-1:alpha2":"CV","ISO3166-1:alpha3":"CPV","ISO3166-1:numeric":"132","admin_level":"2","alt_name:eo":"Kabo-Verdo","alt_name:mk":"\u0417\u0435\u043b\u0435\u043d\u043e\u2019\u0440\u0442\u0441\u043a\u0438 \u041e\u0441\u0442\u0440\u043e\u0432\u0438","alt_name:sk":"Zelen\u00fd mys","boundary":"administrative","default_language":"pt","flag":"https:\/\/upload.wikimedia.org\/wikipedia\/commons\/3\/38\/Flag_of_Cape_Verde.svg","long_name":"Rep\u00fablica de Cabo Verde","name":"Cabo Verde","name:ar":"\u0627\u0644\u0631\u0623\u0633 \u0627\u0644\u0623\u062e\u0636\u0631","name:ckb":"\u06a9\u0627\u0628\u06c6\u06a4\u06ce\u0631\u062f\u06ce","name:cs":"Kapverdy","name:da":"Kap Verde","name:de":"Kap Verde","name:en":"Cape Verde","name:eo":"Kaboverdo","name:es":"Cabo Verde","name:fr":"Cap-Vert","name:fy":"Kaapverdje","name:gn":"K\u00e1vo V\u00e9yde","name:hr":"Zelenortski Otoci","name:hu":"Z\u00f6ld-foki K\u00f6zt\u00e1rsas\u00e1g","name:io":"Kabo Verda","name:is":"Gr\u00e6nh\u00f6f\u00f0aeyjar","name:it":"Capo Verde","name:ja":"\u30ab\u30fc\u30dc\u30d9\u30eb\u30c7","name:ko":"\uce74\ubcf4\ubca0\ub974\ub370","name:mi":"Te K\u016brae Matomato","name:mk":"\u0417\u0435\u043b\u0435\u043d \u2019\u0420\u0442","name:nl":"Kaapverdi\u00eb","name:no":"Kapp Verde","name:pl":"Republika Zielonego Przyl\u0105dka","name:pt":"Cabo Verde","name:ru":"\u041a\u0430\u0431\u043e-\u0412\u0435\u0440\u0434\u0435","name:se":"Kap Verde","name:sk":"Kapverdsk\u00e9 ostrovy","name:sl":"Zelenortski otoki","name:smn":"Kap Verde","name:sms":"Kap Verde","name:sr":"\u0417\u0435\u043b\u0435\u043d\u043e\u0440\u0442\u0441\u043a\u0430 \u041e\u0441\u0442\u0440\u0432\u0430","name:sv":"Kap Verde","name:ta":"\u0b95\u0bc7\u0baa\u0bcd \u0bb5\u0bb0\u0bcd\u0b9f\u0bbf","name:tr":"Ye\u015fil Burun Adalar\u0131","name:tzl":"Cap Virt","name:uk":"\u041a\u0430\u0431\u043e-\u0412\u0435\u0440\u0434\u0435","name:uz":"Kabo-Verde","name:vls":"Koapverdi\u00eb","name:vo":"Kabov\u00e4rdu\u00e4ns","name:zh":"\u4f5b\u5f97\u89d2 \/ \u7dad\u5fb7\u89d2","name:zh-Hans":"\u4f5b\u5f97\u89d2","name:zh-Hant":"\u7dad\u5fb7\u89d2","name:zh-Hant-CN":"\u4f5b\u5f97\u89d2","official_name:ckb":"\u06a9\u06c6\u0645\u0627\u0631\u06cc \u06a9\u0627\u0628\u06c6\u06a4\u06ce\u0631\u062f\u06ce","official_name:cs":"Kapverdsk\u00e1 republika","official_name:eo":"Kabo-Verda Respubliko","official_name:gn":"Tavakuairet\u00e3 K\u00e1vo V\u00e9yde","timezone":"Atlantic\/Cape_Verde","type":"boundary","wikidata":"Q1011","wikipedia":"pt:Cabo Verde"},"timestamp":1716078538,"representative_point":{"type":"Point","coordinates":[-23.570785533543493,16.02828255]}},"geometry":{"type":"Polygon","coordinates":[[[-25.5731073,17.0455687],[-25.4264532,16.7456626],[-24.5752149,16.3754203],[-24.9611276,14.8733953],[-24.8826409,14.672533],[-23.4609125,14.7035207],[-22.946524,15.023989],[-22.4576288,16.1178696],[-22.7724886,16.9947208],[-24.2863893,16.890653],[-25.0874298,17.407117],[-25.4668507,17.2526888],[-25.5731073,17.0455687]]]}}