{"type":"Feature","properties":{"tags":{"ISO3166-1":"CZ","ISO3166-1:alpha2":"CZ","ISO3166-1:alpha3":"CZE","ISO3166-1:numeric":"203","TMC:cid_58:tabcd_1:Class":"Area","TMC:cid_58:tabcd_1:LCLversion":"8.00","TMC:cid_58:tabcd_1:LocationCode":"7","admin_level":"2","alt_name:de":"Tschechei","alt_name:eo":"\u0108e\u0125ujo","boundary":"administrative","currency":"CZK","default_language":"cs","flag":"http:\/\/upload.wikimedia.org\/wikipedia\/commons\/c\/cb\/Flag_of_the_Czech_Republic.svg","int_name":"Czechia","land_area":"administrative","name":"\u010cesko","name:ab":"\u0427\u0435\u0445\u0438\u0430","name:ace":"R\u00e8publik C\u00e8k\u00f4","name:af":"Tsjeggi\u00eb","name:als":"Tschechien","name:am":"\u127c\u12ad \u122a\u1350\u1265\u120a\u12ad","name:an":"Republica Checa","name:ang":"Cecland","name:ar":"\u0627\u0644\u062a\u0634\u064a\u0643","name:arc":"\u072c\u072b\u071d\u071f","name:arz":"\u062a\u0634\u064a\u0643\u064a\u0627","name:ast":"Rep\u00fablica Checa","name:av":"\u0427\u0435\u0445\u0438\u044f","name:ay":"Chexya Ripublika","name:az":"\u00c7exiya","name:ba":"\u0427\u0435\u0445\u0438\u044f","name:bar":"Tschechische Republik","name:bat-smg":"\u010cek\u0117j\u0117","name:bcl":"Tsekang Republika","name:be":"\u0427\u044d\u0445\u0456\u044f","name:be-tarask":"\u0427\u044d\u0445\u0456\u044f","name:bg":"\u0427\u0435\u0448\u043a\u0430 \u0440\u0435\u043f\u0443\u0431\u043b\u0438\u043a\u0430","name:bh":"\u091a\u0947\u0915 \u0930\u093f\u092a\u092c\u094d\u0932\u093f\u0915","name:bi":"Czech Republic","name:bn":"\u099a\u09c7\u0995 \u09aa\u09cd\u09b0\u099c\u09be\u09a4\u09a8\u09cd\u09a4\u09cd\u09b0","name:bo":"\u0f45\u0f7a\u0f0b\u0f41\u0f7a\u0f0d","name:bpy":"\u099a\u09c7\u0995 \u09aa\u09cd\u09b0\u099c\u09be\u09a4\u09a8\u09cd\u09a4\u09cd\u09b0","name:br":"Tchekia","name:bs":"\u010ce\u0161ka","name:bxr":"\u0427\u0435\u0445","name:ca":"Tx\u00e8quia","name:cdo":"Ci\u00e9k-k\u00e1ik","name:ce":"\u0427\u0435\u0445\u0438","name:ceb":"Tsekya","name:ch":"Chekia","name:chr":"\u13e4\u13a9\u13a0","name:chy":"Czech Republic","name:ckb":"\u06a9\u06c6\u0645\u0627\u0631\u06cc \u0686\u06cc\u06a9","name:co":"Cechia","name:crh":"\u00c7ehiya","name:cs":"\u010cesko","name:csb":"Czesk\u00f4 Rep\u00f9blika","name:cu":"\u0427\u0454\u0448\u044c\u0441\u043a\u043e","name:cv":"\u0427\u0435\u0445 \u0420\u0435\u0441\u043f\u0443\u0431\u043b\u0438\u043a\u0438","name:cy":"Gweriniaeth Tsiec","name:da":"Tjekkiet","name:de":"Tschechien","name:diq":"\u00c7ek\u0131stan","name:dsb":"\u010ceska","name:dv":"\u0797\u07ac\u0786\u07b0 \u0796\u07aa\u0789\u07b0\u0780\u07ab\u0783\u07a8\u0787\u07b0\u0794\u07a7","name:dz":"\u0f45\u0f7a\u0f40\u0f0b\u0f62\u0f72\u0f0b\u0f54\u0f56\u0f0b\u0f63\u0f72\u0f40\u0f0b","name:ee":"Czech Republic","name:el":"\u03a4\u03c3\u03b5\u03c7\u03af\u03b1","name:en":"Czechia","name:eo":"\u0108e\u0125io","name:es":"Chequia","name:et":"T\u0161ehhi","name:eu":"Txekia","name:ext":"Rep\u00fabrica Checa","name:fa":"\u062c\u0645\u0647\u0648\u0631\u06cc \u0686\u06a9","name:ff":"Cekiya","name:fi":"T\u0161ekki","name:fo":"Kekkia","name:fr":"Tch\u00e9quie","name:frp":"R\u00e8publica tch\u00b7\u00e8ca","name:frr":"Tschechien","name:fur":"Republiche Ceche","name:fy":"Tsjechje","name:ga":"An tSeic","name:gag":"\u00c7ehiya","name:gd":"An t-Seic","name:gl":"Rep\u00fablica Checa","name:gn":"Cheko","name:gv":"Yn Phobblaght \u00c7heck","name:ha":"Kazech","name:haw":"Lepupalika \u2018o Tieka","name:he":"\u05e6\u05db\u05d9\u05d4","name:hi":"\u091a\u0947\u0915 \u0917\u0923\u0930\u093e\u091c\u094d\u092f","name:hif":"Czech Republic","name:hr":"\u010ce\u0161ka","name:hsb":"\u010c\u011bska","name:ht":"Repiblik tch\u00e8k","name:hu":"Csehorsz\u00e1g","name:hy":"\u0549\u0565\u056d\u056b\u0561","name:ia":"Republica Chec","name:id":"Republik Ceko","name:ie":"Tchechia","name:ig":"Chekia","name:ik":"Czech Republic","name:ilo":"Republika a Tseka","name:io":"Chekia","name:is":"T\u00e9kkland","name:it":"Repubblica Ceca","name:ja":"\u30c1\u30a7\u30b3","name:jbo":"tcesk.zei gubyseltru","name:jv":"C\u00e9ko","name:ka":"\u10e9\u10d4\u10ee\u10d4\u10d7\u10d8","name:kaa":"Shexiya","name:kbd":"\u0427\u0435\u0445","name:kg":"R\u00e9publique tch\u00e8que","name:kk":"\u0427\u0435\u0445\u0438\u044f","name:kl":"Tjekkia","name:kn":"\u0c9c\u0cc6\u0c95\u0ccd \u0c97\u0ca3\u0cb0\u0cbe\u0c9c\u0ccd\u0caf","name:ko":"\uccb4\ucf54","name:koi":"\u0427\u0435\u0441\u043a\u043e","name:krc":"\u0427\u0435\u0445\u0438\u044f","name:ku":"Komara \u00c7ek\u00ee","name:kv":"\u0427\u0435\u0445\u0438\u044f","name:kw":"Pow Chek","name:ky":"\u0427\u0435\u0445\u0438\u044f","name:la":"Cechia","name:lad":"Chekia","name:lb":"Tschechien","name:li":"Tsjechi\u00eb","name:lij":"Repubbrica Ceca","name:lmo":"Rep\u00fcblica Ceca","name:ln":"Republ\u00edki Sheki","name:lo":"\u0eaa\u0eb2\u0e97\u0eb2\u0ea5\u0eb0\u0e99\u0eb0\u0ea5\u0eb1\u0e94\u0ec1\u0e8a\u0eb1\u0e81","name:lt":"\u010cekija","name:ltg":"\u010cekeja","name:lv":"\u010cehija","name:lzh":"\u6377\u514b","name:ma":"T\u012bekia","name:mdf":"\u0427\u0435\u0445\u043c\u0430\u0441\u0442\u043e\u0440","name:mg":"Tsekia","name:mhr":"\u0427\u0435\u0445\u0438\u0439","name:mi":"T\u012bekia","name:mk":"\u0427\u0435\u0448\u043a\u0430","name:ml":"\u0d1a\u0d46\u0d15\u0d4d\u0d15\u0d4d \u0d31\u0d3f\u0d2a\u0d4d\u0d2a\u0d2c\u0d4d\u0d32\u0d3f\u0d15\u0d4d\u0d15\u0d4d","name:mn":"\u0411\u04af\u0433\u0434 \u041d\u0430\u0439\u0440\u0430\u043c\u0434\u0430\u0445 \u0427\u0435\u0445 \u0423\u043b\u0441","name:mr":"\u091a\u0947\u0915 \u092a\u094d\u0930\u091c\u093e\u0938\u0924\u094d\u0924\u093e\u0915","name:ms":"Republik Czech","name:mt":"Repubblika \u010aeka","name:my":"\u1001\u103b\u1000\u103a\u101e\u1019\u1039\u1019\u1010\u1014\u102d\u102f\u1004\u103a\u1004\u1036","name:mzn":"\u0686\u06a9 \u062c\u0645\u0647\u0648\u0631\u06cc","name:na":"Ripubrikin Tsiek","name:nah":"Chequia","name:nan":"\u010cesko","name:nds":"Tschechien","name:nds-nl":"Tsjechie","name:ne":"\u091a\u0947\u0915 \u0917\u0923\u0924\u0928\u094d\u0924\u094d\u0930","name:new":"\u091a\u0947\u0915 \u0917\u0923\u0924\u0928\u094d\u0924\u094d\u0930","name:nl":"Tsjechi\u00eb","name:nn":"Tsjekkia","name:no":"Tsjekkia","name:nov":"Chekia","name:nrm":"R\u00e9publyique Tch\u00e8que","name:nv":"Chek Bik\u00e9yah","name:oc":"Republica Ch\u00e8ca","name:om":"Cheekiyaa","name:or":"\u0b1a\u0b47\u0b15 \u0b30\u0b3f\u0b2a\u0b2c\u0b4d\u0b32\u0b3f\u0b15","name:os":"\u0427\u0435\u0445\u0438","name:pa":"\u0a1a\u0a48\u0a71\u0a15 \u0a17\u0a23\u0a30\u0a3e\u0a1c","name:pag":"Republika na Jheka","name:pam":"Republika ning Tseka","name:pap":"Czech Republic","name:pcd":"R\u00e9publike tch\u00e8ke","name:pdc":"Tschecherei","name:pfl":"Tschechie","name:pi":"\u091a\u0947\u0915 \u0930\u093f\u092a\u092c\u094d\u0932\u093f\u0915","name:pih":"Chek Repablik","name:pl":"Czechy","name:pms":"Rep\u00f9blica Ceca","name:pnb":"\u0686\u06cc\u06a9 \u0644\u0648\u06a9\u0631\u0627\u062c","name:pnt":"\u03a4\u03c3\u03b5\u03c7\u03af\u03b1","name:ps":"\u0686\u06d0\u06a9 \u062c\u0645\u0647\u0648\u0631\u064a\u062a","name:pt":"Tcheca","name:qu":"Chiksuyu","name:rm":"Tschechia","name:rmy":"Chexiya","name:ro":"Cehia","name:roa-rup":"Cehia","name:roa-tara":"Repubbleche Ceche","name:ru":"\u0427\u0435\u0445\u0438\u044f","name:rue":"\u0427\u0435\u0441\u044c\u043a\u043e","name:rw":"Cekiya","name:sa":"\u091c\u093c\u0947\u0915\u094d \u0930\u093f\u092a\u092c\u094d\u0932\u093f\u0915","name:sah":"\u0427\u0435\u0445\u0438\u044f","name:sc":"Rep\u00f9blica Ceca","name:scn":"Rip\u00f9bblica Ceca","name:sco":"Czech Republic","name:sd":"\u062c\u0645\u0647\u0648\u0631\u064a\u0647 \u0686\u064a\u06aa","name:se":"\u010ceahkka","name:sh":"\u010ce\u0161ka Republika","name:si":"\u0da0\u0dd9\u0d9a\u0dca \u0da2\u0db1\u0dbb\u0da2\u0dba","name:sk":"\u010cesko","name:sl":"\u010ce\u0161ka","name:sm":"Czechs Republic","name:smn":"T\u0161ekki","name:sms":"T\u0161ekk","name:sn":"Czechia","name:so":"Jamhuuriyadda Tashik","name:sq":"Republika \u00c7eke","name:sr":"\u0427\u0435\u0448\u043a\u0430","name:srn":"Tsjekikondre","name:ss":"Shekhi","name:stq":"Tschechien","name:su":"C\u00e9ko","name:sv":"Tjeckien","name:sw":"Ucheki","name:szl":"Czechy","name:ta":"\u0b9a\u0bc6\u0b95\u0bcd \u0b95\u0bc1\u0b9f\u0bbf\u0baf\u0bb0\u0b9a\u0bc1","name:te":"\u0c1a\u0c46\u0c15\u0c4d \u0c30\u0c3f\u0c2a\u0c2c\u0c4d\u0c32\u0c3f\u0c15\u0c4d","name:tet":"Rep\u00fablika Xeka","name:tg":"\u0427\u0435\u0445\u0438\u044f","name:th":"\u0e1b\u0e23\u0e30\u0e40\u0e17\u0e28\u0e40\u0e0a\u0e47\u0e01\u0e40\u0e01\u0e35\u0e22","name:tk":"\u00c7ehi\u00fda","name:tl":"Republikang Tseko","name:tok":"ma Seki","name:tpi":"Sek Ripablik","name:tr":"\u00c7ek Cumhuriyeti","name:ts":"Czech Republic","name:tt":"\u0427\u0435\u0445\u0438\u044f","name:ty":"Czech Republic","name:udm":"\u0427\u0435\u0445\u0438\u044f","name:ug":"\u0686\u06d0\u062e \u062c\u06c7\u0645\u06be\u06c7\u0631\u0649\u064a\u06d5\u062a\u0649","name:uk":"\u0427\u0435\u0445\u0456\u044f","name:ur":"\u0686\u06cc\u06a9 \u062c\u0645\u06c1\u0648\u0631\u06cc\u06c1","name:uz":"Chexiya","name:vec":"Republica Ceca","name:vep":"\u010cehanma","name:vi":"C\u1ed9ng h\u00f2a S\u00e9c","name:vls":"Tsjechi\u00eb","name:vo":"Tsyeg\u00e4n","name:vro":"Tsehhi Vabariik","name:wa":"Tchekeye","name:war":"Republika Czeka","name:wo":"R\u00e9ewum Cek","name:wuu":"\u6377\u514b","name:xal":"\u0427\u0435\u043a\u043c\u0443\u0434\u0438\u043d \u041e\u0440\u043d","name:xmf":"\u10e9\u10d4\u10ee\u10d4\u10d7\u10d8","name:yi":"\u05d8\u05e9\u05e2\u05db\u05d9\u05d9","name:yo":"Ts\u1eb9\u0301k\u00ec Ol\u00f3m\u00ecnira","name:yue":"\u6377\u514b","name:za":"Ciethaek","name:zea":"Tsjehhi\u00eb","name:zh":"\u6377\u514b","name:zh-Hans":"\u6377\u514b","name:zh-Hant":"\u6377\u514b","name:zh_pinyin":"Ji\u00e9k\u00e8","name:zu":"ITsheki","note":"geograpical vs political name see http:\/\/en.wikipedia.org\/wiki\/Name_of_the_Czech_Republic","official_name":"\u010cesk\u00e1 republika","official_name:ar":"\u062c\u0645\u0647\u0648\u0631\u064a\u0629 \u0627\u0644\u062a\u0634\u064a\u0643","official_name:ast":"Rep\u00fablica Checa","official_name:br":"Republik Tchek","official_name:ca":"Rep\u00fablica Txeca","official_name:cs":"\u010cesk\u00e1 republika","official_name:de":"Tschechische Republik","official_name:el":"\u03a4\u03c3\u03b5\u03c7\u03b9\u03ba\u03ae \u0394\u03b7\u03bc\u03bf\u03ba\u03c1\u03b1\u03c4\u03af\u03b1","official_name:en":"Czech Republic","official_name:eo":"\u0108e\u0125a Respubliko","official_name:es":"Rep\u00fablica Checa","official_name:eu":"Txekiar Errepublika","official_name:fa":"\u062c\u0645\u0647\u0648\u0631\u06cc \u0686\u06a9","official_name:fi":"T\u0161ekin tasavalta","official_name:fr":"R\u00e9publique tch\u00e8que","official_name:ga":"Poblacht na Seice","official_name:hsb":"\u010c\u011bska republika","official_name:it":"Repubblica Ceca","official_name:ja":"\u30c1\u30a7\u30b3\u5171\u548c\u56fd","official_name:lb":"Tschechesch Republik","official_name:lt":"\u010cekijos Respublika","official_name:lv":"\u010cehijas Republika","official_name:mi":"Whenua T\u012beke","official_name:pl":"Republika Czeska","official_name:pt":"Rep\u00fablica Checa","official_name:ru":"\u0427\u0435\u0448\u0441\u043a\u0430\u044f \u0420\u0435\u0441\u043f\u0443\u0431\u043b\u0438\u043a\u0430","official_name:sk":"\u010cesk\u00e1 republika","official_name:sl":"Rep\u00fablika \u010c\u00e9\u0161ka;Republika \u010ce\u0161ka","official_name:sr":"\u0420\u0435\u043f\u0443\u0431\u043b\u0438\u043a\u0430 \u0427\u0435\u0448\u043a\u0430;\u0427\u0435\u0448\u043a\u0430 \u0420\u0435\u043f\u0443\u0431\u043b\u0438\u043a\u0430","official_name:sv":"Republiken Tjeckien;Tjeckiska republiken","official_name:th":"\u0e2a\u0e32\u0e18\u0e32\u0e23\u0e13\u0e23\u0e31\u0e10\u0e40\u0e0a\u0e47\u0e01","official_name:tr":"\u00c7ek Cumhuriyeti","official_name:uk":"\u0427\u0435\u0441\u044c\u043a\u0430 \u0420\u0435\u0441\u043f\u0443\u0431\u043b\u0456\u043a\u0430","official_name:ur":"\u0686\u06cc\u06a9 \u062c\u0645\u06c1\u0648\u0631\u06cc\u06c1","official_name:uz":"Chexiya Respublikasi","population":"10516707","population:date":"2022-01-01","ref:nuts":"CZ0","ref:nuts:1":"CZ0","source:population":"https:\/\/www.czso.cz\/documents\/10180\/165603907\/1300722201.pdf\/ede48847-506c-4628-8010-a5d0c445f187?version=1.1","timezone":"Europe\/Prague","type":"boundary","wikidata":"Q213","wikipedia":"en:Czech Republic"},"timestamp":1716078538,"representative_point":{"type":"Point","coordinates":[15.527861780023347,49.8039321]}},"geometry":{"type":"Polygon","coordinates":[[[14.8233506,50.8705701],[14.3020938,51.0550957],[14.3881391,50.8992738],[12.9480934,50.4042513],[12.5120317,50.3972595],[12.3353562,50.1719707],[12.1008052,50.3180315],[12.5476758,49.920496],[12.4005551,49.7538049],[12.6555517,49.4347994],[13.8395522,48.7716181],[14.066963,48.5948589],[14.7012613,48.5826123],[14.8086608,48.7788018],[14.9795006,48.7722608],[15.0209813,49.0205212],[16.1026915,48.7454173],[16.5407301,48.8142868],[16.9401953,48.6165408],[17.19228,48.874699],[17.885311,48.927677],[18.1840259,49.2869962],[18.8509071,49.5171489],[18.5729087,49.9216209],[17.7773447,50.0203005],[17.5926847,50.1599766],[17.758456,50.2065719],[17.7130322,50.3225592],[17.3508321,50.2637238],[16.8984995,50.4477153],[17.0283129,50.2299894],[16.6893084,50.0984673],[16.1957111,50.4321315],[16.4449071,50.5795696],[16.3430806,50.6615084],[16.0248323,50.5986228],[15.3747614,50.777621],[15.1718461,51.0200298],[14.8233506,50.8705701]]]}}