{"type":"Feature","properties":{"tags":{"ISO3166-1":"DZ","ISO3166-1:alpha2":"DZ","ISO3166-1:alpha3":"DZA","ISO3166-1:numeric":"012","admin_level":"2","alt_name":"El Djaza\u00efr","alt_name:ceb":"Arhelya","alt_name:ckb":"\u062c\u06d5\u0632\u0627\u06cc\u0631","alt_name:csb":"Algiersk\u00f4","alt_name:fr":"El Djaza\u00efr","alt_name:ilo":"Demokrata ken Popular a Republika ti Arhelia","alt_name:kab":"Dzayer","alt_name:qu":"Arhilya","alt_name:sc":"Jas\u00ecria","alt_name:so":"Jasaa'ir","border_type":"nation","boundary":"administrative","currency":"DZD","default_language":"ar","flag":"http:\/\/upload.wikimedia.org\/wikipedia\/commons\/7\/77\/Flag_of_Algeria.svg","name":"Alg\u00e9rie \u2d4d\u2d63\u2d63\u2d30\u2d62\u2d3b\u2d54 \u0627\u0644\u062c\u0632\u0627\u0626\u0631","name:ace":"Aljazair","name:ady":"\u0410\u043b\u0436\u0438\u0440","name:af":"Algeri\u00eb","name:ak":"Algeria","name:als":"Algerie","name:am":"\u12a0\u120d\u1304\u122a\u12eb","name:an":"Alcheria","name:ang":"Algeria","name:ar":"\u0627\u0644\u062c\u0632\u0627\u0626\u0631","name:arc":"\u0713\u0719\u0710\u0710\u072a","name:ary":"\u0627\u0644\u062c\u0632\u0627\u0626\u0631","name:arz":"\u0627\u0644\u062c\u0632\u0627\u064a\u0631","name:as":"\u0986\u09b2\u099c\u09c7\u09f0\u09bf\u09af\u09bc\u09be","name:ast":"Arxelia","name:avk":"Jazaira","name:ay":"Alhirya","name:az":"\u018flc\u0259zair","name:azb":"\u0627\u064e\u0644\u062c\u064e\u0632\u0627\u06cc\u06cc\u0631","name:ba":"\u0410\u043b\u0436\u0438\u0301\u0440","name:ban":"Aljazair","name:bar":"Algerien","name:bat-smg":"Al\u017e\u012brs","name:bcl":"Algerya","name:be":"\u0410\u043b\u0436\u044b\u0440","name:be-tarask":"\u0410\u043b\u044c\u0436\u044b\u0440","name:ber":"\u2d4d\u2d63\u2d63\u2d30\u2d62\u2d3b\u2d54","name:bg":"\u0410\u043b\u0436\u045d\u0440","name:bh":"\u0905\u0932\u094d\u091c\u0940\u0930\u093f\u092f\u093e","name:bjn":"Aljajair","name:bm":"Algeri","name:bn":"\u0986\u09b2\u099c\u09c7\u09b0\u09bf\u09af\u09bc\u09be","name:bo":"\u0f68\u0f71\u0f63\u0f0b\u0f47\u0f72\u0f0b\u0f62\u0f72\u0f0b\u0f61\u0f0d","name:bpy":"\u0986\u09b2\u099c\u09c7\u09b0\u09bf\u09af\u09bc\u09be","name:br":"Aljeria","name:bs":"Al\u017eir","name:bug":"Aljazair","name:bxr":"\u0410\u043b\u0436\u0438\u0440","name:ca":"Alg\u00e8ria","name:cbk-zam":"Argelia","name:cdo":"Algeria","name:ce":"\u0410\u043b\u0436\u0438\u0301\u0440","name:ceb":"Arhelya","name:chr":"\u13a0\u13b5\u13e5\u13b5\u13ef","name:ckb":"\u062c\u06d5\u0632\u0627\u0626\u06cc\u0631","name:crh":"Cezair","name:cs":"Al\u017e\u00edrsko","name:csb":"Algieri\u00f4","name:cv":"\u0410\u043b\u0436\u0438\u0440","name:cy":"Algeria","name:da":"Algeriet","name:de":"Algerien","name:din":"Algeria","name:diq":"Cezayir","name:dsb":"Algeriska","name:dty":"\u0905\u0932\u094d\u091c\u0947\u0930\u093f\u092f\u093e","name:dv":"\u0796\u07a6\u0792\u07a7\u0787\u07a8\u0783\u07aa","name:dz":"\u0f68\u0f71\u0f63\u0f0b\u0f47\u0f72\u0f0b\u0f62\u0f72\u0f0b\u0f61","name:ee":"\u0186ldzeria","name:el":"\u0391\u03bb\u03b3\u03b5\u03c1\u03af\u03b1","name:en":"Algeria","name:eo":"Al\u011derio","name:es":"Argelia","name:et":"Al\u017eeeria","name:eu":"Aljeria","name:ext":"Arg\u00e9lia","name:fa":"\u0627\u0644\u062c\u0632\u0627\u06cc\u0631","name:ff":"Aljeri","name:fi":"Algeria","name:fo":"Algeria","name:fr":"Alg\u00e9rie","name:frp":"Alg\u00b7\u00e8rie","name:frr":"Algeerien","name:fur":"Alzerie","name:fy":"Algerije","name:ga":"An Ailg\u00e9ir","name:gag":"Aljir","name:gcr":"Lalj\u00e9ri","name:gd":"Aildiria","name:gl":"Alxeria","name:gn":"Ayhelia","name:gom":"\u0906\u0932\u094d\u091c\u0947\u0930\u093f\u092f\u093e","name:gor":"Aljazair","name:grc":"\u039d\u03bf\u03c5\u03bc\u03b9\u03b4\u03af\u03b1","name:gu":"\u0a85\u0ab2\u0acd\u0a9c\u0ac0\u0ab0\u0abf\u0aaf\u0abe","name:gv":"Yn Algear","name:ha":"Aljeriya","name:hak":"Algeria","name:haw":"\u02bbAlekelia","name:he":"\u05d0\u05dc\u05d2'\u05d9\u05e8\u05d9\u05d4","name:hi":"\u0905\u0932\u094d\u091c\u0940\u0930\u093f\u092f\u093e","name:hif":"Algeria","name:hr":"Al\u017eir","name:hsb":"Algeriska","name:ht":"Aljeri","name:hu":"Alg\u00e9ria","name:hy":"\u0531\u056c\u056a\u056b\u0580","name:hyw":"\u0531\u056c\u0573\u0565\u0580\u056b\u0561","name:ia":"Algeria","name:id":"Aljazair","name:ie":"Algeria","name:ig":"Algeria","name:ilo":"Arhelia","name:inh":"\u0410\u043b\u0436\u0438\u0440","name:io":"Aljeria","name:is":"Als\u00edr","name:it":"Algeria","name:ja":"\u30a2\u30eb\u30b8\u30a7\u30ea\u30a2","name:jam":"Aljiiria","name:jbo":"gugdeduzu","name:jv":"Aljazair","name:ka":"\u10d0\u10da\u10df\u10d8\u10e0\u10d8","name:kaa":"Aljir","name:kab":"Dzayer","name:kbd":"\u0410\u043b\u0434\u0436\u0430\u0437\u0430\u0438\u0440","name:kg":"Algeria","name:ki":"Algeria","name:kk":"\u0410\u043b\u0436\u0438\u0440","name:kl":"Algeriet","name:km":"\u1794\u17d2\u179a\u1791\u17c1\u179f\u17a2\u17b6\u179b\u17cb\u17a0\u17d2\u179f\u17c1\u179a\u17b8","name:kn":"\u0c85\u0cb2\u0ccd\u0c9c\u0cc0\u0cb0\u0cbf\u0caf","name:ko":"\uc54c\uc81c\ub9ac","name:krc":"\u0410\u043b\u0436\u0438\u0301\u0440","name:ks":"\u0627\u066e\u06ea\u0644\u062c\u06cc\u0631\u0650\u06cc\u0627","name:ksh":"Alljeerije","name:ku":"Cezayir","name:kw":"Aljeri","name:ky":"\u0410\u043b\u0436\u0438\u0440","name:la":"Algerium","name:lad":"Arjelia","name:lb":"Algerien","name:lez":"\u0410\u043b\u0436\u0438\u0440","name:lfn":"Jazair","name:lg":"Algeria","name:li":"Algerie\u00eb","name:lij":"Alger\u00eea","name:lld":"Algeria","name:lmo":"Algeria","name:ln":"Aljeria","name:lo":"\u0ec1\u0ead\u0ea5\u0e88\u0eb4\u0ec0\u0ea5\u0e8d","name:lt":"Al\u017eyras","name:lv":"Al\u017e\u012brija","name:lzh":"\u963f\u723e\u53ca\u5229\u4e9e","name:mai":"\u0905\u0932\u094d\u091c\u0947\u0930\u093f\u092f\u093e","name:map-bms":"Aljazair","name:mdf":"\u0410\u043b\u0436\u0438\u0440","name:mg":"Aljeria","name:mhr":"\u0410\u043b\u0436\u0438\u0301\u0440","name:mi":"Aratiria","name:min":"Aljazair","name:mk":"\u0410\u043b\u0436\u0438\u0440","name:ml":"\u0d05\u0d7e\u0d1c\u0d40\u0d31\u0d3f\u0d2f","name:mn":"\u0410\u043b\u0436\u0438\u0440","name:mr":"\u0905\u0932\u094d\u091c\u0940\u0930\u093f\u092f\u093e","name:mrj":"\u0410\u043b\u0436\u0438\u0440","name:ms":"Algeria","name:mt":"Al\u0121erija","name:my":"\u1021\u101a\u103a\u101c\u103a\u1002\u103b\u102e\u1038\u101b\u102e\u1038\u101a\u102c\u1038\u1014\u102d\u102f\u1004\u103a\u1004\u1036","name:myv":"\u0410\u043b\u0436\u0438\u0301\u0440","name:mzn":"\u0627\u0644\u062c\u0632\u0627\u06cc\u0631","name:na":"Ardjiriya","name:nah":"Argelia","name:nan":"Algeria","name:nds":"Algerien","name:ne":"\u0905\u0932\u094d\u091c\u0947\u0930\u093f\u092f\u093e","name:new":"\u0905\u0932\u094d\u091c\u0947\u0930\u093f\u092f\u093e","name:nl":"Algerije","name:nn":"Algerie","name:no":"Algerie","name:nov":"Algeria","name:nso":"Algeria","name:nv":"Alj\u00ed\u00edya","name:ny":"Algeria","name:oc":"Argeria","name:olo":"Al\u017eir","name:om":"Aljeeriyaa","name:or":"\u0b06\u0b32\u0b1c\u0b47\u0b30\u0b3f\u0b06","name:os":"\u0410\u043b\u0436\u0438\u0440","name:pa":"\u0a05\u0a32\u0a1c\u0a40\u0a30\u0a40\u0a06","name:pam":"Algeria","name:pap":"Algeria","name:pcd":"Alg\u00e9rie","name:pdc":"Altschieri","name:pi":"\u0905\u0932\u094d\u091c\u0940\u0930\u093f\u092f\u093e","name:pih":"Algeria","name:pl":"Algieria","name:pms":"Alger\u00eca","name:pnb":"\u0627\u0644\u062c\u0632\u0627\u0626\u0631","name:ps":"\u0627\u0644\u062c\u0632\u0627\u064a\u0631","name:pt":"Arg\u00e9lia","name:qu":"Alhirya","name:rm":"Algeria","name:rn":"Alijeriya","name:ro":"Algeria","name:roa-rup":"Algheria","name:roa-tara":"Algerie","name:ru":"\u0410\u043b\u0436\u0438\u0440","name:rue":"\u0410\u043b\u0436\u0456\u0440","name:rw":"Aligeriya","name:sa":"\u0905\u0932\u094d\u091c\u0940\u0930\u093f\u092f\u093e","name:sah":"\u0410\u043b\u0436\u0438\u0440","name:sat":"\u1c5f\u1c5e\u1c61\u1c6e\u1c79\u1c68\u1c64\u1c6d\u1c5f","name:sc":"Alger\u00eca","name:scn":"Algir\u00eca","name:sco":"Algerie","name:sd":"\u0627\u0644\u062c\u0632\u0627\u0626\u0631","name:se":"Algeria","name:sg":"Alaz\u00ebri","name:sh":"Al\u017eir","name:shn":"\u1019\u102d\u1030\u1004\u103a\u1038\u1022\u1084\u1038\u1075\u103b\u102e\u1038\u101b\u102e\u1038\u101a\u1083\u1038","name:si":"\u0d87\u0dbd\u0dca\u0da2\u0dd3\u0dbb\u0dd2\u0dba\u0dcf\u0dc0","name:sk":"Al\u017e\u00edrsko","name:sl":"Al\u017eirija","name:sm":"Algeria","name:smn":"Algeria","name:sms":"Algeria","name:sn":"Algeria","name:so":"Aljeeriya","name:sq":"Algjeria","name:sr":"\u0410\u043b\u0436\u0438\u0440","name:ss":"i-Alijeriya","name:st":"Algeria","name:stq":"Algerien","name:su":"Aljazair","name:sv":"Algeriet","name:sw":"Algeria","name:szl":"Algeryj\u014f","name:szy":"Algeria","name:ta":"\u0b85\u0bb2\u0bcd\u0b9a\u0bc0\u0bb0\u0bbf\u0baf\u0bbe","name:te":"\u0c05\u0c32\u0c4d\u0c1c\u0c40\u0c30\u0c3f\u0c2f\u0c3e","name:tg":"\u0410\u043b\u04b7\u0430\u0437\u043e\u0438\u0440","name:th":"\u0e1b\u0e23\u0e30\u0e40\u0e17\u0e28\u0e41\u0e2d\u0e25\u0e08\u0e35\u0e40\u0e23\u0e35\u0e22","name:ti":"\u12a0\u120d\u1300\u122a\u12eb","name:tk":"Al\u017eir","name:tl":"Arhelya","name:to":"\u02bbAisilia","name:tok":"ma Sasali","name:tr":"Cezayir","name:ts":"Algeriya","name:tt":"\u04d8\u043b\u0497\u04d9\u0437\u0430\u0438\u0301\u0440","name:tw":"Algeria","name:tzl":"Eschaieir","name:udm":"\u0410\u043b\u0436\u0438\u0440","name:ug":"\u0626\u0627\u0644\u062c\u0649\u0631\u0649\u064a\u06d5","name:uk":"\u0410\u043b\u0436\u0438\u0440","name:ur":"\u0627\u0644\u062c\u0632\u0627\u0626\u0631","name:uz":"Jazoir","name:vec":"Algeria","name:vep":"Al\u017eir","name:vi":"Alg\u00e9rie","name:vls":"Algereye","name:vo":"Laljer\u00e4n","name:vro":"Al\u017eeeri\u00e4","name:wa":"Aldjereye","name:war":"Alherya","name:wo":"Alseeri","name:wuu":"\u963f\u5c14\u53ca\u5229\u4e9a","name:xal":"\u0410\u043b\u0497\u0438\u0440\u043c\u0443\u0434\u0438\u043d \u0423\u043b\u0441 \u041e\u0440\u043d","name:xh":"I-Algeria","name:xmf":"\u10d0\u10da\u10df\u10d8\u10e0\u10d8","name:yi":"\u05d0\u05b7\u05dc\u05d6\u05e9\u05d9\u05e8","name:yo":"\u00c0lg\u00e9r\u00ed\u00e0","name:yue":"\u963f\u723e\u53ca\u5229\u4e9e","name:za":"Algeria","name:zea":"Alherije","name:zgh":"\u2d37\u2d65\u2d30\u2d62\u2d3b\u2d54","name:zh":"\u963f\u5c14\u53ca\u5229\u4e9a \/ \u963f\u723e\u53ca\u5229\u4e9e","name:zh-Hans":"\u963f\u5c14\u53ca\u5229\u4e9a","name:zh-Hant":"\u963f\u723e\u53ca\u5229\u4e9e","name:zh_pinyin":"\u0100\u011brj\u00edl\u00ecy\u00e0","name:zu":"iAljiriya","official_name":"R\u00e9publique alg\u00e9rienne d\u00e9mocratique et populaire","official_name:ace":"Republik Demokratik Rakyat Aljazair","official_name:ady":"\u0410\u043b\u0436\u0438\u0440 \u0420\u0435\u0441\u043f\u0443\u0431\u043b\u0438\u043a\u044d","official_name:af":"Demokratiese Volksrepubliek van Algeri\u00eb","official_name:als":"Demokratischi Volksrepublik Algerie","official_name:am":"\u12e8\u12a0\u120d\u1304\u122a\u12eb \u1215\u12dd\u1263\u12ca \u12f2\u121e\u12ad\u122b\u1232\u12eb\u12ca \u122a\u1350\u1265\u120a\u12ad","official_name:ar":"\u0627\u0644\u062c\u0645\u0647\u0648\u0631\u064a\u0629 \u0627\u0644\u062c\u0632\u0627\u0626\u0631\u064a\u0629 \u0627\u0644\u062f\u064a\u0645\u0642\u0631\u0627\u0637\u064a\u0629 \u0627\u0644\u0634\u0639\u0628\u064a\u0629","official_name:arc":"\u0729\u0718\u071b\u0722\u071d\u0718\u072c\u0710 \u0713\u0719\u0710\u0710\u072a\u071d\u072c\u0710 \u0715\u071d\u0721\u0718\u0729\u072a\u071b\u071d\u072c\u0710 \u0725\u0721\u0721\u071d\u072c\u0710","official_name:ary":"\u0627\u0644\u062c\u0645\u0647\u0648\u0631\u064a\u0629 \u0627\u0644\u062c\u0632\u0627\u0626\u0631\u064a\u0629 \u0627\u0644\u062f\u064a\u0645\u0648\u0642\u0631\u0627\u0637\u064a\u0629 \u0627\u0644\u0634\u0639\u0628\u064a\u0629","official_name:arz":"\u0627\u0644\u062c\u0645\u0647\u0648\u0631\u064a\u0629 \u0627\u0644\u062c\u0632\u0627\u0626\u0631\u064a\u0629 \u0627\u0644\u062f\u064a\u0645\u0648\u0642\u0631\u0627\u0637\u064a\u0629 \u0627\u0644\u0634\u0639\u0628\u064a\u0629","official_name:ast":"Rep\u00fablica Democr\u00e1tica Popular d'Arxelia","official_name:az":"\u018flc\u0259zair Xalq Demokratik Respublikas\u0131","official_name:ba":"\u0410\u043b\u0436\u0438\u0440 \u0425\u0430\u043b\u044b\u04a1 \u0414\u0435\u043c\u043e\u043a\u0440\u0430\u0442\u0438\u043a \u0420\u0435\u0441\u043f\u0443\u0431\u043b\u0438\u043a\u0430\u04bb\u044b","official_name:ban":"Republik Demokratik Rakyat Aljazair","official_name:bar":"Demokratische Volksrepublik Algerien","official_name:bat-smg":"Al\u017e\u012bra Demuokrat\u0117n\u0117 Liaud\u0117is Respobl\u0117ka","official_name:be":"\u0410\u043b\u0436\u044b\u0440\u0441\u043a\u0430\u044f \u041d\u0430\u0440\u043e\u0434\u043d\u0430\u044f \u0414\u044d\u043c\u0430\u043a\u0440\u0430\u0442\u044b\u0447\u043d\u0430\u044f \u0420\u044d\u0441\u043f\u0443\u0431\u043b\u0456\u043a\u0430","official_name:be-tarask":"\u041d\u0430\u0440\u043e\u0434\u043d\u0430\u044f \u0414\u044d\u043c\u0430\u043a\u0440\u0430\u0442\u044b\u0447\u043d\u0430\u044f \u0420\u044d\u0441\u043f\u0443\u0431\u043b\u0456\u043a\u0430 \u0410\u043b\u044c\u0436\u044b\u0440","official_name:ber":"\u2d5c\u2d30\u2d33\u2d37\u2d53\u2d37\u2d30 \u2d5c\u2d30\u2d4e\u2d3b\u2d33\u2d37\u2d30\u2d62\u2d5c \u2d5c\u2d30\u2d56\u2d3b\u2d54\u2d3c\u2d30\u2d4f\u2d5c \u2d5c\u2d30\u2d63\u2d63\u2d30\u2d62\u2d54\u2d49\u2d5c","official_name:bg":"\u0410\u043b\u0436\u0438\u0440\u0441\u043a\u0430 \u043d\u0430\u0440\u043e\u0434\u043d\u043e-\u0434\u0435\u043c\u043e\u043a\u0440\u0430\u0442\u0438\u0447\u043d\u0430 \u0440\u0435\u043f\u0443\u0431\u043b\u0438\u043a\u0430","official_name:bh":"\u092a\u0940\u092a\u0932\u094d\u0938 \u0921\u0947\u092e\u094b\u0915\u094d\u0930\u0947\u091f\u093f\u0915 \u0930\u093f\u092a\u092c\u094d\u0932\u093f\u0915 \u0911\u092b \u0905\u0932\u094d\u091c\u0940\u0930\u093f\u092f\u093e","official_name:bm":"Alizeri ka Foroba B\u025bj\u025bfanga Fasojamana","official_name:bn":"\u0997\u09a3\u09aa\u09cd\u09b0\u099c\u09be\u09a4\u09a8\u09cd\u09a4\u09cd\u09b0\u09c0 \u0986\u09b2\u099c\u09c7\u09b0\u09bf\u09af\u09bc\u09be","official_name:bpy":"\u0997\u09a3-\u0997\u09a8\u09a4\u09be\u09a8\u09cd\u09a4\u09cd\u09b0\u09bf\u0995 \u09aa\u09cd\u09b0\u099c\u09be\u09a4\u09a8\u09cd\u09a4\u09cd\u09b0\u09bf \u0986\u09b2\u099c\u09c7\u09b0\u09bf\u09af\u09bc\u09be","official_name:br":"Republik Aljerian Demokratel ha Poblel","official_name:bs":"Narodna Demokratska Republika Al\u017eir","official_name:bxr":"\u0411\u04af\u0433\u044d\u0434\u044d \u041d\u0430\u0439\u0440\u0430\u043c\u0434\u0430\u0445\u0430 \u0410\u0440\u0430\u0434\u0448\u0430\u043b\u0430\u04bb\u0430\u043d \u0410\u043b\u0436\u0438\u0440 \u0410\u0440\u0430\u0434 \u0423\u043b\u0430\u0441","official_name:ca":"Rep\u00fablica Democr\u00e0tica Popular d'Alg\u00e8ria","official_name:cbk-zam":"Rep\u00fablica Argelina Democr\u00e1tica y Popular","official_name:cdo":"Algeria \u00ccng-m\u00ecng M\u00ecng-ci\u014d G\u00ea\u0324\u1e73ng-hu\u00f2-gu\u00f3k","official_name:ce":"\u0410\u043b\u0436\u0438\u0440 \u0425\u0430\u043b\u043a\u044a\u0430 \u043a\u0443\u044c\u0439\u0433\u0430\u043b\u043b\u0438\u0439\u0446\u0430 \u0439\u043e\u043b\u0443 \u041f\u0430\u0447\u0445\u044c\u0430\u043b\u043a\u0445","official_name:chr":"\u13f4\u13eb \u13a4\u13be\u13e4\u13b5 \u13e5\u13c8\u13cd\u13d7 \u13a0\u13be\u13d3\u13c5\u13d6\u13d2\u13ac \u13cd\u13a6\u13da\u13a9 \u13c0\u13bf \u13a0\u13b5\u13e5\u13b5\u13ef","official_name:ckb":"\u06a9\u06c6\u0645\u0627\u0631\u06cc \u062f\u06cc\u0645\u0648\u06a9\u0631\u0627\u062a\u06cc\u06cc \u06af\u06d5\u0644\u06cc \u062c\u06d5\u0632\u0627\u0626\u06cc\u0631","official_name:cs":"Al\u017e\u00edrsk\u00e1 demokratick\u00e1 a lidov\u00e1 republika","official_name:cy":"Gweriniaeth Ddemocrataidd Pobl Algeria","official_name:da":"Den Demokratiske Folkerepublik Algeriet","official_name:de":"Demokratische Volksrepublik Algerien","official_name:din":"Paank\u0254c Ci\u025bl de Algeria","official_name:dsb":"Algeriska ludowa demokratiska republika","official_name:el":"\u039b\u03b1\u03ca\u03ba\u03ae \u0394\u03b7\u03bc\u03bf\u03ba\u03c1\u03b1\u03c4\u03af\u03b1 \u03c4\u03b7\u03c2 \u0391\u03bb\u03b3\u03b5\u03c1\u03af\u03b1\u03c2","official_name:en":"People's Democratic Republic of Algeria","official_name:eo":"Demokrata Popolrespubliko Al\u011derio","official_name:es":"Rep\u00fablica Argelina Democr\u00e1tica y Popular","official_name:et":"Al\u017eeeria Demokraatlik Rahvavabariik","official_name:eu":"Aljeriako Herri Errepublika Demokratikoa","official_name:ext":"Rep\u00fabrica Argelina Democr\u00e1tica i Populal","official_name:fa":"\u062c\u0645\u0647\u0648\u0631\u06cc \u062f\u0645\u0648\u06a9\u0631\u0627\u062a\u06cc\u06a9 \u062e\u0644\u0642 \u0627\u0644\u062c\u0632\u0627\u06cc\u0631","official_name:fi":"Algerian demokraattinen kansantasavalta","official_name:fr":"R\u00e9publique alg\u00e9rienne d\u00e9mocratique et populaire","official_name:frp":"R\u00e8publica alg\u00b7\u00e8ri\u00e8na d\u00e8mocratica et popul\u00e8ra","official_name:frr":"Demokraatisk Fulksrepubliik faan Algeerien","official_name:fy":"Demokratyske Folksrepublyk Algerije","official_name:ga":"Daonphoblacht Dhaonlathach na hAilg\u00e9ire","official_name:gcr":"r\u00e9piblik alj\u00e9ryen d\u00e9mokratik k\u00e9 popil\u00e8r","official_name:gd":"Sluagh-phoblachd Dheamocratach Aildiria","official_name:gl":"Rep\u00fablica Democr\u00e1tica e Popular de Alxeria","official_name:gn":"Tavakuairet\u00e3 Ah\u00e9lia Tekoha ha Jekopytyjoj\u00e1va","official_name:gu":"\u0a85\u0ab2\u0acd\u0a9c\u0ac0\u0ab0\u0abf\u0aaf\u0abe\u0aa8\u0ac1\u0a82 \u0ab2\u0acb\u0a95\u0aa4\u0abe\u0a82\u0aa4\u0acd\u0ab0\u0abf\u0a95 \u0a97\u0aa3\u0ab0\u0abe\u0a9c\u0acd\u0aaf","official_name:gv":"Deynphobblaght Gheynlagh ny h-Algear","official_name:ha":"Jamhuriyar aljeriya","official_name:hak":"Algeria Ng\u00ecn-m\u00ecn M\u00ecn-ch\u00fa Khiung-f\u00f2-koet","official_name:haw":"Lepupalika Kemokalaka o ka Po\u02bbe o \u02bbAlekelia","official_name:he":"\u05d4\u05e8\u05e4\u05d5\u05d1\u05dc\u05d9\u05e7\u05d4 \u05d4\u05d0\u05dc\u05d2'\u05d9\u05e8\u05d0\u05d9\u05ea \u05d4\u05d3\u05de\u05d5\u05e7\u05e8\u05d8\u05d9\u05ea \u05d4\u05e2\u05de\u05de\u05d9\u05ea","official_name:hi":"\u0905\u0932\u094d\u091c\u0940\u0930\u093f\u092f\u093e \u0915\u093e \u091c\u0928-\u0932\u094b\u0915\u0924\u0902\u0924\u094d\u0930\u0940\u092f \u0917\u0923\u0930\u093e\u091c\u094d\u092f","official_name:hif":"People's Democratic Republic of Algeria","official_name:hr":"Al\u017eirska Narodna Demokratska Republika","official_name:hsb":"Algeriska demokratiska a ludowa republika","official_name:hu":"Alg\u00e9riai N\u00e9pi Demokratikus K\u00f6zt\u00e1rsas\u00e1g","official_name:hy":"\u0531\u056c\u056a\u056b\u0580\u056b \u053a\u0578\u0572\u0578\u057e\u0580\u0564\u0561\u056f\u0561\u0576 \u053a\u0578\u0572\u0578\u057e\u0580\u0564\u0561\u057e\u0561\u0580\u0561\u056f\u0561\u0576 \u0540\u0561\u0576\u0580\u0561\u057a\u0565\u057f\u0578\u0582\u0569\u0575\u0578\u0582\u0576","official_name:hyw":"\u0531\u056c\u0573\u0565\u0580\u056b\u0578\u0575 \u053a\u0578\u0572\u0578\u057e\u0580\u0564\u0561\u056f\u0561\u0576 \u053a\u0578\u0572\u0578\u057e\u0580\u0564\u0561\u057e\u0561\u0580\u0561\u056f\u0561\u0576 \u0540\u0561\u0576\u0580\u0561\u057a\u0565\u057f\u0578\u0582\u0569\u056b\u0582\u0576","official_name:id":"Republik Demokratik Rakyat Aljazair","official_name:ie":"Republica Algerian Democratic e Popular de","official_name:ilo":"Demokratiko a Republika ti Tattao ti Arhelia","official_name:inh":"\u0410\u043b\u0436\u0438\u0301\u0440\u0438\u0439 \u0425\u0430\u043b\u043a\u044a\u0430\u043d \u0414\u0435\u043c\u043e\u043a\u0440\u0430\u0442\u0438\u0301\u0447\u0435\u0441\u043a\u0438 \u0420\u0435\u0441\u043f\u0443\u0301\u0431\u043b\u0438\u043a\u0430","official_name:io":"Populala Demokratiala Republio di Aljeria","official_name:is":"Al\u00fe\u00fd\u00f0ul\u00fd\u00f0veldi\u00f0 Als\u00edr","official_name:it":"Repubblica Algerina Democratica e Popolare","official_name:ja":"\u30a2\u30eb\u30b8\u30a7\u30ea\u30a2\u6c11\u4e3b\u4eba\u6c11\u5171\u548c\u56fd","official_name:jam":"Piipl Dimokratik Ripoblik a hAljiiria","official_name:jbo":"jerxo prenu bo roltrusi'o gubyseltru","official_name:jv":"R\u00e9publik D\u00e9mokratik Rakyat Aljazair","official_name:ka":"\u10d0\u10da\u10df\u10d8\u10e0\u10d8\u10e1 \u10e1\u10d0\u10ee\u10d0\u10da\u10ee\u10dd \u10d3\u10d4\u10db\u10dd\u10d9\u10e0\u10d0\u10e2\u10d8\u10e3\u10da\u10d8 \u10e0\u10d4\u10e1\u10de\u10e3\u10d1\u10da\u10d8\u10d9\u10d0","official_name:kab":"Tagduda tamegdayt ta\u0263erfant tazzayrit","official_name:kbd":"\u0410\u043b\u0434\u0436\u0430\u0437\u0430\u0438\u0440 \u0414\u0436\u044b\u043b\u044d\u0440 \u0414\u0435\u043c\u043e\u043a\u0440\u0430\u0442 \u0420\u0435\u0441\u043f\u0443\u0431\u043b\u0438\u043a\u044d","official_name:kk":"\u0410\u043b\u0436\u0438\u0440 \u0425\u0430\u043b\u044b\u049b \u0414\u0435\u043c\u043e\u043a\u0440\u0430\u0442\u0438\u044f\u043b\u044b\u049b \u0420\u0435\u0441\u043f\u0443\u0431\u043b\u0438\u043a\u0430\u0441\u044b","official_name:kn":"\u0c85\u0cb2\u0ccd\u0c9c\u0cc0\u0cb0\u0cbf\u0caf \u0c9c\u0ca8 \u0caa\u0ccd\u0cb0\u0c9c\u0cbe\u0ca4\u0cbe\u0c82\u0ca4\u0ccd\u0cb0\u0cbf\u0c95 \u0c97\u0ca3\u0cb0\u0cbe\u0c9c\u0ccd\u0caf","official_name:ko":"\uc54c\uc81c\ub9ac \uc778\ubbfc\ubbfc\uc8fc\uacf5\ud654\uad6d","official_name:krc":"\u0410\u043b\u0436\u0438\u0440 \u0425\u0430\u043b\u043a\u044a \u0414\u0435\u043c\u043e\u043a\u0440\u0430\u0442 \u0420\u0435\u0441\u043f\u0443\u0431\u043b\u0438\u043a\u0430","official_name:ku":"Komara Cezayira Demokrat\u00eek a Xelk","official_name:ky":"\u0410\u043b\u0436\u0438\u0440 \u042d\u043b \u0414\u0435\u043c\u043e\u043a\u0440\u0430\u0442\u0438\u044f\u043b\u044b\u043a \u0420\u0435\u0441\u043f\u0443\u0431\u043b\u0438\u043a\u0430\u0441\u044b","official_name:la":"Res Publica Popularis Democratica Algerii","official_name:lad":"Repuvlika Popular i Demokratika de Arjelia","official_name:lb":"Demokratesch Volleksrepublik Algerien","official_name:lez":"\u0410\u043b\u0436\u0438\u0440\u0434\u0438\u043d \u0425\u0430\u043b\u043a\u044c\u0434\u0438\u043d \u0414\u0435\u043c\u043e\u043a\u0440\u0430\u0442\u0438\u044f\u0434\u0438\u043d \u0420\u0435\u0441\u043f\u0443\u0431\u043b\u0438\u043a\u0430","official_name:lfn":"Republica de Jazair Democratal e Popular","official_name:lt":"Al\u017eyro Liaudies Demokratin\u0117 Respublika","official_name:lv":"Al\u017e\u012brijas Tautas Demokr\u0101tisk\u0101 Republika","official_name:lzh":"\u963f\u723e\u53ca\u5229\u4e9e\u6c11\u4e3b\u4eba\u6c11\u5171\u548c\u570b","official_name:mai":"\u0905\u0932\u094d\u091c\u0947\u0930\u093f\u092f\u093e \u0915\u093d \u091c\u0928-\u0932\u094b\u0915\u0924\u0928\u094d\u0924\u094d\u0930\u0940\u092f \u0917\u0923\u0930\u093e\u091c\u094d\u092f","official_name:mg":"Repoblika Aljeriana dem\u00f4kratika sy entim-bahoaka","official_name:mhr":"\u0410\u043b\u0436\u0438\u0301\u0440 \u041a\u0430\u2018\u043b\u044b\u043a \u0414\u0435\u043c\u043e\u043a\u0440\u0430\u0301\u0442\u0438\u0439 \u0420\u0435\u0441\u043f\u0443\u0301\u0431\u043b\u0438\u043a","official_name:mk":"\u041d\u0430\u0440\u043e\u0434\u043d\u0430 \u0414\u0435\u043c\u043e\u043a\u0440\u0430\u0442\u0441\u043a\u0430 \u0420\u0435\u043f\u0443\u0431\u043b\u0438\u043a\u0430 \u0410\u043b\u0436\u0438\u0440","official_name:ml":"\u0d2a\u0d40\u0d2a\u0d4d\u0d2a\u0d3f\u0d7e\u0d38\u0d4d \u0d21\u0d46\u0d2e\u0d4b\u0d15\u0d4d\u0d30\u0d3e\u0d31\u0d4d\u0d31\u0d3f\u0d15\u0d4d\u0d15\u0d4d \u0d31\u0d3f\u0d2a\u0d4d\u0d2a\u0d2c\u0d4d\u0d32\u0d3f\u0d15\u0d4d\u0d15\u0d4d \u0d13\u0d2b\u0d4d \u0d05\u0d7e\u0d1c\u0d40\u0d30\u0d3f\u0d2f","official_name:mn":"\u0411\u04af\u0433\u0434 \u041d\u0430\u0439\u0440\u0430\u043c\u0434\u0430\u0445 \u0410\u0440\u0434\u0447\u0438\u043b\u0441\u0430\u043d \u0410\u043b\u0436\u0438\u0440 \u0410\u0440\u0434 \u0423\u043b\u0441","official_name:mr":"\u0905\u0932\u094d\u091c\u0940\u0930\u093f\u092f\u093e\u091a\u0947 \u091c\u0928\u0924\u0947\u091a\u0947 \u092a\u094d\u0930\u091c\u093e\u0938\u0924\u094d\u0924\u093e\u0915","official_name:ms":"Republik Demokratik Rakyat Algeria","official_name:mt":"Repubblika Demokratika Popolari tal-Al\u0121erija","official_name:my":"\u1021\u101a\u103a\u101c\u103a\u1002\u103b\u102e\u1038\u101b\u102e\u1038\u101a\u102c\u1038 \u1012\u102e\u1019\u102d\u102f\u1000\u101b\u1000\u103a\u1010\u1005\u103a \u1015\u103c\u100a\u103a\u101e\u1030\u1037\u101e\u1019\u1039\u1019\u1010 \u1014\u102d\u102f\u1004\u103a\u1004\u1036","official_name:myv":"\u0410\u043b\u0436\u0438\u0440\u043e\u043d\u044c \u0420\u0430\u0441\u044c\u043a\u0435\u043d\u044c \u0414\u0435\u043c\u043e\u043a\u0440\u0430\u0442\u0438\u044f\u043d\u044c \u0420\u0435\u0441\u043f\u0443\u0431\u043b\u0438\u043a\u0430\u0441\u044c","official_name:mzn":"\u0627\u0644\u062c\u0645\u0647\u0648\u0631\u064a\u0629 \u0627\u0644\u062c\u0632\u0627\u0626\u0631\u064a\u0629 \u0627\u0644\u062f\u064a\u0645\u0642\u0631\u0627\u0637\u064a\u0629 \u0627\u0644\u0634\u0651\u0639\u0628\u064a\u0629","official_name:nah":"Argeliatl\u0101catlahtohc\u0101y\u014dtl Tl\u0101cat\u0113pacholiztli \u012bhu\u0101n \u0100ltep\u0113huahc\u0101y\u014dtl","official_name:nan":"Algeria J\u00een-b\u00een B\u00een-ch\u00fa Ki\u014dng-h\u00f4-kok","official_name:nds":"Demokraatsche Volksrepublik Algerien","official_name:ne":"\u091c\u0928\u0935\u093e\u0926\u0940 \u092a\u094d\u0930\u091c\u093e\u0924\u093e\u0928\u094d\u0924\u094d\u0930\u093f\u0915 \u0917\u0923\u0924\u0928\u094d\u0924\u094d\u0930 \u0905\u0932\u094d\u091c\u0947\u0930\u093f\u092f\u093e","official_name:new":"\u092a\u094d\u0930\u091c\u093e\u0924\u093e\u0928\u094d\u0924\u094d\u0930\u093f\u0915 \u0935 \u0932\u094b\u0915\u0902\u0939\u094d\u0935\u093e\u0917\u0941 \u0917\u0923\u0924\u0928\u094d\u0924\u094d\u0930 \u0905\u0932\u094d\u091c\u0947\u0930\u093f\u092f\u093e","official_name:nl":"Democratische Volksrepubliek Algerije","official_name:nn":"Den demokratiske folkerepublikken Algerie","official_name:no":"Den demokratiske folkerepublikk Algerie","official_name:nso":"People's Democratic Republiki ya Algeria","official_name:nv":"Gh\u0105\u0301\u0105\u0301\u02bcask\u02bcidii Bi\u0142ikahii Bik\u00e9yah Ntsaa\u00edg\u00ed\u00ed","official_name:ny":"Jamhuri ya Muungano wa Algeriais","official_name:oc":"Republica Argeriana Democratica e Populara","official_name:olo":"Al\u017eiran Rahvahan Demokrattine Tazavaldu","official_name:os":"\u0410\u043b\u0436\u0438\u0440\u044b \u0410\u0434\u00e6\u043c\u043e\u043d \u0414\u0435\u043c\u043e\u043a\u0440\u0430\u0442\u0438\u043e\u043d \u0420\u0435\u0441\u043f\u0443\u0431\u043b\u0438\u043a\u00e6","official_name:pa":"\u0a05\u0a32\u0a1c\u0a40\u0a30\u0a40\u0a06 \u0a26\u0a3e \u0a1c\u0a28-\u0a32\u0a4b\u0a15\u0a24\u0a70\u0a24\u0a30\u0a40 \u0a17\u0a23\u0a30\u0a3e\u0a1c","official_name:pam":"Ing Pangmaldang Democraticung Republica ning Algeria","official_name:pcd":"R\u00e9publike alg\u00e9rienne d\u00e9mocratike pi populo\u00e8re","official_name:pl":"Algierska Republika Ludowo-Demokratyczna","official_name:pnb":"\u0627\u0644\u062c\u0645\u0647\u0648\u0631\u064a\u0629 \u0627\u0644\u062c\u0632\u0627\u0626\u0631\u064a\u0629 \u0627\u0644\u062f\u064a\u0645\u0642\u0631\u0627\u0637\u064a\u0629 \u0627\u0644\u0634\u0639\u0628\u064a\u0629","official_name:ps":"\u0627\u0644\u062c\u0632\u0627\u064a\u0631 \u062f \u062e\u0644\u06a9\u0648 \u0689\u064a\u0645\u0648\u06a9\u0631\u0627\u067c\u064a\u06a9 \u062c\u0645\u0647\u0648\u0631\u064a\u062a","official_name:pt":"Rep\u00fablica Argelina Democr\u00e1tica e Popular","official_name:qu":"Runallaqtap Runakamay Kaq Alhirya Ripuwlika","official_name:ro":"Republica Algerian\u0103 Democratic\u0103 \u0219i Popular\u0103","official_name:roa-rup":"Republica Popular\u00e3 Democratic\u00e3 Algheria","official_name:roa-tara":"Repubbleche Democrateche Populare de Algerie","official_name:ru":"\u0410\u043b\u0436\u0438\u0440\u0441\u043a\u0430\u044f \u041d\u0430\u0440\u043e\u0434\u043d\u0430\u044f \u0414\u0435\u043c\u043e\u043a\u0440\u0430\u0442\u0438\u0447\u0435\u0441\u043a\u0430\u044f \u0420\u0435\u0441\u043f\u0443\u0431\u043b\u0438\u043a\u0430","official_name:rue":"\u0410\u043b\u0436\u0456\u0440\u0441\u043a\u0430 \u0434\u0435\u043c\u043e\u043a\u0440\u0430\u0442\u0456\u0447\u043d\u0430 \u0456 \u043b\u044e\u0434\u043e\u0432\u0430 \u0440\u0435\u043f\u0443\u0431\u043b\u0456\u043a\u0430","official_name:sah":"\u0410\u043b\u0436\u0438\u0440 \u0414\u044c\u043e\u043d \u0414\u0435\u043c\u043e\u043a\u0440\u0430\u0442 \u0420\u0435\u0441\u043f\u0443\u0431\u043b\u0438\u043a\u0430\u0442\u0430","official_name:sc":"Rep\u00f9brica Populare Democr\u00e0tiga Jasira","official_name:sco":"Fowkdemocratic Republic o Algerie","official_name:sd":"\u067e\u064a\u067e\u0644\u0632 \u068a\u064a\u0645\u0648\u06aa\u0631\u064a\u067d\u06aa \u0631\u064a\u067e\u0628\u0644\u06aa \u0622\u0641 \u0627\u0644\u062c\u064a\u0631\u064a\u0627","official_name:se":"Algeria demokr\u00e1htala\u0161 \u00e1lbmotd\u00e1ssev\u00e1ldi","official_name:sg":"Alaz\u00ebri K\u00f6d\u00f6r\u00f6s\u00ease","official_name:sh":"Narodna Demokratska Republika Al\u017eir","official_name:shn":"\u1019\u102d\u1030\u1004\u103a\u1038\u1078\u103d\u1019\u103a\u1015\u103d\u1004\u103a\u1078\u102d\u102f\u1004\u103a\u1088 \u1075\u1030\u107c\u103a\u1038\u1019\u102d\u1030\u1004\u103a\u1038 \u1010\u102e\u1087\u1019\u1030\u101d\u103a\u1087\u1075\u101b\u1085\u1010\u103a\u1089\u1010\u102d\u1010\u103a\u1089 \u1022\u1084\u1038\u1075\u103b\u102e\u1038\u101b\u102e\u1038\u101a\u1083\u1038","official_name:si":"\u0d87\u0dbd\u0dca\u0da2\u0dd2\u0dbb\u0dd2\u0dba\u0dcf \u0db4\u0dca\u200d\u0dbb\u0da2\u0dcf\u0dad\u0db1\u0dca\u0dad\u0dca\u200d\u0dbb\u0dc0\u0dcf\u0daf\u0dd2 \u0db8\u0dc4\u0da2\u0db1 \u0dc3\u0db8\u0dd6\u0dc4\u0dcf\u0dab\u0dca\u0da9\u0dd4\u0dc0","official_name:sk":"Al\u017e\u00edrska demokratick\u00e1 a \u013eudov\u00e1 republika","official_name:sl":"Ljudska demokrati\u010dna republika Al\u017eirija","official_name:sm":"Sha\u2019b\u012byah R\u00e9publique Alg\u00e9rienne D\u00e9mocratique et Populaire","official_name:smn":"Algeria demokraatl\u00e2\u0161 aalmugt\u00e4siv\u00e4ldi","official_name:so":"Jamhuuriyadda Dadweynaha ee Aljeeriya","official_name:sr":"\u041d\u0430\u0440\u043e\u0434\u043d\u0430 \u0414\u0435\u043c\u043e\u043a\u0440\u0430\u0442\u0441\u043a\u0430 \u0420\u0435\u043f\u0443\u0431\u043b\u0438\u043a\u0430 \u0410\u043b\u0436\u0438\u0440","official_name:stq":"Demokratiske Foulksrepublik Algerien","official_name:su":"R\u00e9publik D\u00e9mokratik Rahayat Aljazair","official_name:sv":"Demokratiska folkrepubliken Algeriet","official_name:sw":"Jamhuri ya kidemokrasia ya watu wa Algeria","official_name:szl":"Algersk\u014f Republika Ludowo-Dymokratyczn\u014f","official_name:ta":"\u0b85\u0bb2\u0bcd\u0b9c\u0bc0\u0bb0\u0bbf\u0baf \u0bae\u0b95\u0bcd\u0b95\u0bb3\u0bcd \u0b9a\u0ba9\u0ba8\u0bbe\u0baf\u0b95 \u0b95\u0bc1\u0b9f\u0bbf\u0baf\u0bb0\u0b9a\u0bc1","official_name:te":"\u0c2a\u0c4d\u0c30\u0c1c\u0c3e\u0c38\u0c4d\u0c35\u0c3e\u0c2e\u0c4d\u0c2f \u0c17\u0c23\u0c24\u0c02\u0c24\u0c4d\u0c30\u0c4d\u0c2f \u0c05\u0c32\u0c4d\u0c1c\u0c40\u0c30\u0c3f\u0c2f\u0c3e","official_name:tg":"\u04b6\u0443\u043c\u04b3\u0443\u0440\u0438\u0438 \u0425\u0430\u043b\u049b\u0438\u0438 \u0414\u0435\u043c\u043e\u043a\u0440\u0430\u0442\u0438\u0438 \u0410\u043b\u04b7\u0430\u0437\u043e\u0438\u0440","official_name:th":"\u0e2a\u0e32\u0e18\u0e32\u0e23\u0e13\u0e23\u0e31\u0e10\u0e1b\u0e23\u0e30\u0e0a\u0e32\u0e18\u0e34\u0e1b\u0e44\u0e15\u0e22\u0e1b\u0e23\u0e30\u0e0a\u0e32\u0e0a\u0e19\u0e41\u0e2d\u0e25\u0e08\u0e35\u0e40\u0e23\u0e35\u0e22","official_name:tk":"Al\u017eir Halk Demokratik Respublikasy","official_name:tl":"Demokratikong Republikang Bayan ng Algeria","official_name:tr":"Cezayir Demokratik Halk Cumhuriyeti","official_name:tt":"\u04d8\u043b\u0497\u04d9\u0437\u0430\u0438\u0301\u0440 \u0425\u0430\u043b\u044b\u0301\u043a \u0414\u0435\u043c\u043e\u043a\u0440\u0430\u0442\u0438\u0301\u043a \u0496\u04e9\u043c\u04bb\u04af\u0440\u0438\u044f\u0301\u0442\u0435","official_name:udm":"\u0410\u043b\u0436\u0438\u0440 \u041a\u0430\u043b\u044b\u043a \u0414\u0435\u043c\u043e\u043a\u0440\u0430\u0442\u0438 \u0420\u0435\u0441\u043f\u0443\u0431\u043b\u0438\u043a\u0430","official_name:ug":"\u0626\u0627\u0644\u062c\u0649\u0631\u0649\u064a\u06d5 \u062f\u0649\u0645\u0648\u0643\u0631\u0627\u062a\u0649\u0643 \u062e\u06d5\u0644\u0642 \u062c\u06c7\u0645\u06be\u06c7\u0631\u0649\u064a\u0649\u062a\u0649","official_name:uk":"\u0410\u043b\u0436\u0438\u0301\u0440\u0441\u044c\u043a\u0430 \u041d\u0430\u0440\u043e\u0301\u0434\u043d\u0430 \u0414\u0435\u043c\u043e\u043a\u0440\u0430\u0442\u0438\u0301\u0447\u043d\u0430 \u0420\u0435\u0441\u043f\u0443\u0301\u0431\u043b\u0456\u043a\u0430","official_name:ur":"\u0639\u0648\u0627\u0645\u06cc \u062c\u0645\u06c1\u0648\u0631\u06cc \u062c\u0645\u06c1\u0648\u0631\u06cc\u06c1 \u0627\u0644\u062c\u0632\u0627\u0626\u0631","official_name:uz":"Jazoir Demokratik va Xalq Respublikasi","official_name:vec":"Republica Popolare Democratica de l'Algeria","official_name:vep":"Al\u017eiran Rahvahaline Demokratine Tazovaldkund","official_name:vi":"C\u1ed9ng ho\u00e0 D\u00e2n ch\u1ee7 Nh\u00e2n d\u00e2n Alg\u00e9rie","official_name:vls":"Democratische Volksrepubliek Algereye","official_name:vro":"Al\u017eeeri\u00e4 Demokraatlin\u00f5 Rahvavabariik","official_name:wa":"Republike Aldjeryinne Democratike et Populaire","official_name:wo":"Republik Popileer Demokaraatik bu Alseeri","official_name:xh":"urhulumente olawulwa sisininzi sabantu base-Algeria","official_name:xmf":"\u10d0\u10da\u10df\u10d8\u10e0\u10d8\u10e8 \u10ef\u10d0\u10e0\u10d0\u10da\u10e3\u10d0\u10e8 \u10d3\u10d4\u10db\u10dd\u10d9\u10e0\u10d0\u10e2\u10d8\u10e3\u10da\u10d8 \u10e0\u10d4\u10e1\u10de\u10e3\u10d1\u10da\u10d8\u10d9\u10d0","official_name:yi":"\u05e4\u05bf\u05d0\u05b8\u05dc\u05e7\u05e1 \u05d3\u05e2\u05de\u05d0\u05e7\u05e8\u05d0\u05d8\u05d9\u05e9\u05e2 \u05e8\u05e2\u05e4\u05d5\u05d1\u05dc\u05d9\u05e7 \u05e4\u05bf\u05d5\u05df \u05d0\u05dc\u05d6\u05e9\u05d9\u05e8","official_name:yo":"Orile-ede Olominira Toseluarailu awon Eniyan ile Algeria","official_name:yue":"\u963f\u723e\u53ca\u5229\u4e9e\u4eba\u6c11\u6c11\u4e3b\u5171\u548c\u570b","official_name:zh":"\u963f\u723e\u53ca\u5229\u4e9e\u4eba\u6c11\u6c11\u4e3b\u5171\u548c\u570b","official_name:zu":"IRiphabliki Labantu yase-Aljiriya","short_name":"RADP","short_name:br":"R.A.D.P.","short_name:fr":"RADP","short_name:inh":"\u0410\u0425\u0414\u0420","short_name:myv":"\u0410\u0420\u0414\u0420","short_name:ru":"\u0410\u041d\u0414\u0420","timezone":"Africa\/Algiers","type":"boundary","wikidata":"Q262","wikipedia":"fr:Alg\u00e9rie"},"timestamp":1716078538,"representative_point":{"type":"Point","coordinates":[0.6055386723357143,28.1420115]}},"geometry":{"type":"Polygon","coordinates":[[[-2.2064219,35.3372157],[-2.2183682,35.0479882],[-1.7388849,34.7430184],[-1.8538264,34.6162286],[-1.6877315,34.4931273],[-1.7324754,33.701108],[-1.5947088,33.6054857],[-1.6702666,33.2840801],[-1.464804,33.053446],[-1.543783,32.957761],[-0.999014,32.516899],[-1.2463324,32.3294915],[-1.2985709,32.1613901],[-1.1523608,32.1110738],[-2.873435,32.111359],[-2.8206956,31.7936425],[-3.664666,31.633535],[-3.790699,31.236217],[-3.542002,31.038604],[-3.6539312,30.6746955],[-4.296337,30.536312],[-4.936618,30.140473],[-5.55833,29.478686],[-5.8136751,29.6077195],[-7.6102231,29.3674409],[-8.6687494,28.6671925],[-8.6662523,27.6706253],[-8.668117,27.314942],[-4.8333344,25.0000001],[1.1665556,21.1163645],[1.16515,20.736148],[1.599572,20.596081],[1.797805,20.297876],[2.214543,20.318726],[2.375423,20.028382],[2.6844751,20.1011687],[3.254628,19.834791],[3.11468,19.155678],[3.29562,19.002023],[4.266708,19.1441458],[5.8117693,19.4440824],[7.459686,20.842495],[11.997337,23.517178],[11.604258,24.264727],[11.422523,24.200501],[10.899041,24.555136],[10.216372,24.650641],[10.032093,25.359573],[9.398983,26.195638],[9.863299,26.519911],[9.925362,26.861947],[9.782025,27.26162],[9.962578,27.866574],[9.832934,28.28595],[9.902313,28.759132],[9.779948,29.424757],[9.407538,30.065861],[9.5592065,30.229061],[9.0763986,32.0845929],[8.35683,32.502602],[8.322605,32.823472],[7.8321519,33.1881161],[7.5244707,33.7975738],[7.5333699,34.0694027],[8.3242071,34.73281],[8.245209,34.9210544],[8.4765307,35.239755],[8.311548,35.3150642],[8.2534837,35.8864685],[8.4096565,36.4118603],[8.1536515,36.4968636],[8.6706814,36.8184981],[8.5904911,37.1430333],[6.4183002,37.2914879],[5.5432997,36.9873356],[3.8707194,37.1264595],[1.2756163,36.746363],[-1.2397573,35.9084279],[-1.6621127,35.4633962],[-2.2064219,35.3372157]]]}}