{"type":"Feature","properties":{"tags":{"ISO3166-1":"EG","ISO3166-1:alpha2":"EG","ISO3166-1:alpha3":"EGY","ISO3166-1:numeric":"818","admin_level":"2","alt_name:ace":"Mesir","alt_name:ady":"\u0415\u0433\u0438\u043f\u0435\u0442","alt_name:as":"\u09ae\u09bf\u099b\u09f0","alt_name:ba":"\u0415\u0433\u0438\u043f\u0435\u0442","alt_name:bar":"\u00c4gypten","alt_name:bat-smg":"Egipts","alt_name:be-tarask":"\u042d\u0491\u0456\u0301\u043f\u0435\u0442","alt_name:bh":"\u0907\u091c\u093f\u092a\u094d\u091f","alt_name:br":"Ejipt","alt_name:ce":"\u0415\u0433\u0438\u0301\u043f\u0435\u0442","alt_name:da":"\u00c6gypten","alt_name:ee":"Egipte","alt_name:eo":"Egiptujo;Egipto","alt_name:gd":"\u00c8iphit","alt_name:gu":"\u0aae\u0abf\u0ab8\u0ab0","alt_name:gv":"Eajipt","alt_name:hif":"Misr","alt_name:is":"Egiptaland","alt_name:kab":"Igibt","alt_name:kg":"Ngipiti","alt_name:ky":"\u041c\u0438\u0441\u0438\u0440","alt_name:lfn":"Egipte","alt_name:ln":"Ejipiti;Misiri","alt_name:qu":"Misir","alt_name:rn":"Misiri","alt_name:scn":"Agittu","alt_name:sl":"Misr","alt_name:sq":"Misiri","alt_name:th":"\u0e2d\u0e35\u0e22\u0e34\u0e1b\u0e15\u0e4c","alt_name:ts":"Egypt","alt_name:ty":"Egipt","alt_name:wo":"Ejipt","boundary":"administrative","default_language":"ar","flag":"http:\/\/upload.wikimedia.org\/wikipedia\/commons\/f\/fe\/Flag_of_Egypt.svg","name":"\u0645\u0635\u0631","name:ab":"\u041c\u044b\u0301\u0441\u0440\u044b","name:ace":"Meus\u00e9","name:ady":"\u041c\u044b\u0441\u044b\u0440","name:af":"Egipte","name:ak":"Igyipt","name:als":"\u00c4gypte","name:am":"\u130d\u1265\u1345","name:an":"Echipto","name:ang":"\u01e2gypte","name:ar":"\u0645\u0635\u0631","name:ar-Latn":"Mi\u1e63r","name:arc":"\u0721\u0728\u072a\u071d\u0722","name:ary":"\u0645\u0635\u0631","name:arz":"\u0645\u0635\u0631","name:as":"\u0987\u099c\u09bf\u09aa\u09cd\u09a4","name:ast":"Exiptu","name:av":"\u0415\u0433\u0438\u0301\u043f\u0435\u0442","name:avk":"Misra","name:ay":"Iqiqtu","name:az":"Misir","name:azb":"\u0645\u06cc\u0635\u0631","name:ba":"\u041c\u044b\u0441\u044b\u0440","name:ban":"Mesir","name:bar":"Egyptn","name:bat-smg":"Eg\u0117pts","name:bcl":"Ehipto","name:be":"\u0415\u0433\u0456\u0301\u043f\u0435\u0442","name:be-tarask":"\u042d\u0433\u0456\u043f\u0435\u0442","name:ber":"\u2d4e\u2d49\u2d59\u2d54","name:bg":"\u0415\u0433\u0438\u043f\u0435\u0442","name:bh":"\u092e\u093f\u0938\u094d\u0930","name:bjn":"Mesir","name:bm":"Misra","name:bn":"\u09ae\u09bf\u09b6\u09b0","name:bo":"\u0f68\u0f60\u0f72\u0f0b\u0f45\u0f72\u0f0d","name:bpy":"\u09ae\u09bf\u09b6\u09b0","name:br":"Egipt","name:bs":"Egipat","name:bug":"Mesir","name:bxr":"\u0415\u0433\u0438\u043f\u0435\u0442","name:ca":"Egipte","name:cbk-zam":"Egipto","name:cdo":"\u0102i-g\u012dk","name:ce":"\u041c\u0438\u0441\u0430\u0440","name:ceb":"Ehipto","name:ch":"Ehiptu","name:chr":"\u13a2\u13e5\u13c8\u13a2","name:chy":"Egypt","name:ckb":"\u0645\u06cc\u0633\u0631","name:cop":"\u2cad\u2c8f\u2c99\u2c93","name:crh":"M\u0131s\u0131r","name:cs":"Egypt","name:csb":"Egipt","name:cu":"\u0404\u0433\u0477\u043f\u0442\u044a","name:cy":"Yr Aifft","name:da":"Egypten","name:de":"\u00c4gypten","name:din":"Ijip","name:diq":"M\u0131s\u0131r","name:dsb":"Egyptojska","name:dty":"\u0907\u091c\u093f\u092a\u094d\u091f","name:dv":"\u0789\u07a8\u079e\u07b0\u0783\u07aa","name:ee":"Edzipti","name:el":"\u0391\u03af\u03b3\u03c5\u03c0\u03c4\u03bf\u03c2","name:en":"Egypt","name:eo":"Egiptio","name:es":"Egipto","name:et":"Egiptus","name:eu":"Egipto","name:ext":"Egitu","name:fa":"\u0645\u0635\u0631","name:ff":"Ejipt","name:fi":"Egypti","name:fj":"Ijipta","name:fo":"Egyptaland","name:fr":"\u00c9gypte","name:frp":"\u00c8g\u00b7ipte","name:frr":"\u00c4gypten","name:fur":"Egjit","name:fy":"Egypte","name:ga":"An \u00c9igipt","name:gag":"Egipet","name:gan":"\u57c3\u53ca","name:gcr":"L\u00e9jip","name:gd":"An \u00c8ipheit","name:gl":"Exipto","name:gn":"Ehipto","name:gom":"\u0908\u091c\u093f\u092a\u094d\u0924","name:gor":"Mesir","name:got":"\ud800\udf30\ud800\udf39\ud800\udf32\ud800\udf45\ud800\udf40\ud800\udf44\ud800\udf30\ud800\udf3f","name:grc":"\u0391\u1f34\u03b3\u03c5\u03c0\u03c4\u03bf\u03c2","name:gu":"\u0a87\u0a9c\u0abf\u0aaa\u0acd\u0aa4","name:gv":"Yn Egypt","name:ha":"Misra","name:hak":"\u00c2i-khi\u030dp","name:haw":"\u2018Aikupika","name:he":"\u05de\u05e6\u05e8\u05d9\u05dd","name:hi":"\u092e\u093f\u0938\u094d\u0930","name:hif":"Egypt","name:hr":"Egipat","name:hsb":"Egyptowska","name:ht":"Ejip","name:hu":"Egyiptom","name:hy":"\u0535\u0563\u056b\u057a\u057f\u0578\u057d","name:hyw":"\u0535\u0563\u056b\u057a\u057f\u0578\u057d","name:ia":"Egypto","name:id":"Mesir","name:ie":"Egiptia","name:ig":"Egypt","name:ilo":"Eh\u00edpto","name:inh":"\u041c\u0438\u0441\u0430\u0440\u0435","name:io":"Egiptia","name:is":"Egyptaland","name:it":"Egitto","name:ja":"\u30a8\u30b8\u30d7\u30c8","name:jam":"Iijip","name:jbo":"misrygu'e","name:jv":"Mesir","name:ka":"\u10d4\u10d2\u10d5\u10d8\u10de\u10e2\u10d4","name:kaa":"M\u0131s\u0131r","name:kab":"Ma\u1e63er","name:kab-Tfng":"\u2d4e\u2d49\u2d59\u2d54","name:kbp":"Egipiti","name:kg":"Misiri","name:ki":"Egypt","name:kk":"\u041c\u044b\u0441\u044b\u0440","name:kl":"Egypt","name:km":"\u17a2\u17c1\u17a0\u17ca\u17d2\u179f\u17b8\u1794","name:kn":"\u0c88\u0c9c\u0cbf\u0caa\u0ccd\u0c9f\u0ccd","name:ko":"\uc774\uc9d1\ud2b8","name:ks":"\u0645\u0650\u0633\u0631","name:ksh":"\u00c4j\u00fcpte","name:ku":"Misir","name:kv":"\u0415\u0433\u0438\u043f\u0435\u0442","name:kw":"Ejyp","name:ky":"\u0415\u0433\u0438\u043f\u0435\u0442","name:la":"Aegyptus","name:lad":"Ayifto","name:lb":"Egypten","name:lbe":"\u041c\u0438\u0441\u0440\u0438","name:lez":"\u041c\u0438\u0441\u0440\u0438","name:lfn":"Misre","name:lg":"Egypt","name:li":"Egypte","name:lij":"Egitto","name:lld":"Egit","name:lmo":"Egit","name:ln":"Ejipte","name:lo":"\u0ead\u0eb5\u0ea2\u0eb4\u0e9a","name:lt":"Egiptas","name:lv":"\u0112\u0123ipte","name:lzh":"\u57c3\u53ca","name:mai":"\u092e\u093f\u0938\u094d\u0930","name:map-bms":"Mesir","name:mdf":"\u0415\u0433\u0438\u043f\u0435\u0442","name:mg":"Ejipta","name:mi":"\u012ahipa","name:min":"Masia","name:mk":"\u0415\u0433\u0438\u043f\u0435\u0442","name:ml":"\u0d08\u0d1c\u0d3f\u0d2a\u0d4d\u0d24\u0d4d","name:mn":"\u0415\u0433\u0438\u043f\u0435\u0442","name:mr":"\u0907\u091c\u093f\u092a\u094d\u0924","name:mrj":"\u0415\u0433\u0438\u043f\u0435\u0442","name:ms":"Mesir","name:mt":"E\u0121ittu","name:my":"\u1021\u102e\u1002\u103b\u1005\u103a\u1014\u102d\u102f\u1004\u103a\u1004\u1036","name:myv":"\u0415\u0433\u0438\u043f\u0435\u0442 \u041c\u0430\u0441\u0442\u043e\u0440","name:mzn":"\u0645\u0635\u0631","name:na":"Idjipt","name:nah":"Egipto","name:nan":"Ai-ki\u030dp","name:nap":"Naggitto","name:nds":"\u00c4gypten","name:nds-nl":"Egypte","name:ne":"\u092e\u093f\u0936\u094d\u0930","name:new":"\u092e\u093f\u0938\u094d\u0930","name:nl":"Egypte","name:nn":"Egypt","name:no":"Egypt","name:nov":"Egiptia","name:nrm":"\u00cagypte","name:nso":"Egypt","name:nv":"\u00cd\u00edjip","name:oc":"Egipte","name:olo":"Jegiptu","name:om":"Ijiipti","name:or":"\u0b07\u0b1c\u0b3f\u0b2a\u0b4d\u0b1f","name:os":"\u041c\u044b\u0441\u044b\u0440","name:pa":"\u0a2e\u0a3f\u0a38\u0a30","name:pam":"Ejiptu","name:pap":"Egipto","name:pcd":"\u00c9djipe","name:pi":"\u0908\u091c\u093f\u092a\u094d\u091f","name:pih":"Ejiipt","name:pl":"Egipt","name:pms":"Egit","name:pnb":"\u0645\u0635\u0631","name:pnt":"\u0391\u03af\u03b3\u03c5\u03c0\u03c4\u03bf\u03c2","name:ps":"\u0645\u0635\u0631","name:pt":"Egito","name:pt-BR":"Egito","name:qu":"Ihiptu","name:rm":"Egipta","name:rmy":"M\u00easire","name:rn":"Egipto","name:ro":"Egipt","name:roa-tara":"Egitte","name:ru":"\u0415\u0433\u0438\u043f\u0435\u0442","name:rue":"\u0415\u0491\u0456\u043f\u0435\u0442","name:sa":"\u0908\u091c\u093f\u092a\u094d\u0924\u0926\u0947\u0936\u0903","name:sah":"\u042d\u0433\u0438\u0438\u043f\u044d\u0442","name:sat":"\u1c62\u1c64\u1c65\u1c5a\u1c68","name:sc":"Egittu","name:scn":"Eggittu","name:sco":"Egyp","name:sd":"\u0645\u0635\u0631","name:se":"Egypta","name:sg":"K\u00e2mit\u00e2","name:sh":"Egipat","name:shn":"\u1019\u102d\u1030\u1004\u103a\u1038\u1022\u102e\u1038\u1075\u103b\u102d\u1015\u103a\u1088","name:si":"\u0d8a\u0da2\u0dd3\u0db4\u0dca\u0dad\u0dd4\u0dc0","name:sk":"Egypt","name:sl":"Egipt","name:sm":"Aikupito","name:smn":"Egypti","name:sms":"Egyptt","name:sn":"Egypt","name:so":"Masar","name:sq":"Egjipti","name:sr":"\u0415\u0433\u0438\u043f\u0430\u0442","name:srn":"Egiptakondre","name:ss":"iGibhithe","name:st":"Egepeta","name:stq":"\u00c4gypten","name:su":"Mesir","name:sv":"Egypten","name:sw":"Misri","name:syc":"\u0721\u0728\u072a\u071d\u0722","name:szl":"Egipt","name:szy":"Egypt","name:ta":"\u0b8e\u0b95\u0bbf\u0baa\u0bcd\u0ba4\u0bc1","name:te":"\u0c08\u0c1c\u0c3f\u0c2a\u0c4d\u0c1f\u0c41","name:tet":"Ejitu","name:tg":"\u041c\u0438\u0441\u0440","name:th":"\u0e1b\u0e23\u0e30\u0e40\u0e17\u0e28\u0e2d\u0e35\u0e22\u0e34\u0e1b\u0e15\u0e4c","name:ti":"\u130d\u1265\u133d","name:tk":"M\u00fcs\u00fcr","name:tl":"Ehipto","name:to":"\u02bbIsipite","name:tok":"ma Masu","name:tpi":"Ijip","name:tr":"M\u0131s\u0131r","name:ts":"Gibita","name:tt":"\u041c\u0438\u0441\u044b\u0301\u0440","name:tum":"Egypt","name:tw":"Egypt","name:ty":"\u2019Aifiti","name:tyv":"\u0415\u0433\u0438\u043f\u0435\u0442","name:tzl":"Misiria","name:udm":"\u0415\u0433\u0438\u043f\u0435\u0442","name:ug":"\u0645\u0649\u0633\u0649\u0631","name:uk":"\u0404\u0433\u0438\u0301\u043f\u0435\u0442","name:ur":"\u0645\u0635\u0631","name:uz":"Misr","name:vec":"Egito","name:vep":"Egipt","name:vi":"Ai C\u1eadp","name:vls":"Egypte","name:vo":"L\u00e4g\u00fcpt\u00e4n","name:vro":"Eg\u00fcpt\u00fcs","name:wa":"Edjipe","name:war":"Ehipto","name:wo":"Isipt","name:wuu":"\u57c3\u53ca","name:xal":"\u0418\u0497\u0438\u0431\u0434\u0438\u043d \u0410\u0440\u0430\u0431 \u041e\u0440\u043d","name:xmf":"\u10d4\u10d2\u10d5\u10d8\u10de\u10e2\u10d4","name:yi":"\u05e2\u05d2\u05d9\u05e4\u05d8\u05df","name:yo":"\u1eb8\u0301g\u00edpt\u00ec","name:yue":"\u57c3\u53ca","name:za":"Aehciz","name:zea":"Ehypte","name:zgh":"\u2d4e\u2d49\u2d59\u2d54","name:zh":"\u57c3\u53ca","name:zh-Hans":"\u57c3\u53ca","name:zh-Hant":"\u57c3\u53ca","name:zh_pinyin":"\u0100ij\u00ed","name:zu":"iGibhithe","official_name":"\u062c\u064f\u0645\u0647\u0648\u0631\u0650\u064a\u0629\u064f \u0645\u0650\u0635\u0631\u064e \u0627\u0644\u0639\u064e\u0631\u064e\u0628\u064a\u0629\u0650","official_name:ab":"\u0410\u0440\u0430\u0301\u04a7 \u0420\u0435\u0441\u043f\u0443\u0301\u0431\u043b\u0438\u043a\u0430 \u041c\u044b\u0301\u0441\u0440","official_name:af":"Arabiese Republiek van Egipte","official_name:als":"Arabischi Republik \u00c4gypte","official_name:am":"\u12e8\u130d\u1265\u1345 \u12d0\u1228\u1265 \u122a\u1350\u1265\u120a\u12ad","official_name:an":"Republica Arabe d'Echipto","official_name:ar":"\u062c\u064f\u0645\u0647\u0648\u0631\u0650\u064a\u0629\u064f \u0645\u0650\u0635\u0631\u064e \u0627\u0644\u0639\u064e\u0631\u064e\u0628\u064a\u0629\u0650","official_name:arc":"\u0729\u0718\u071b\u0722\u071d\u0718\u072c\u0710 \u0725\u072a\u0712\u071d\u072c\u0710 \u0715\u0721\u0728\u072a\u071d\u0722","official_name:arz":"\u062c\u0645\u0647\u0648\u0631\u064a\u0629 \u0645\u0635\u0631 \u0627\u0644\u0639\u0631\u0628\u064a\u0629","official_name:as":"\u09ae\u09bf\u099a\u09f0 \u0986\u09f0\u09ac \u09aa\u09cd\u09b0\u099c\u09be\u09a4\u09a8\u09cd\u09a4\u09cd\u09b0","official_name:ast":"Rep\u00fablica \u00c1rabe d'Exiptu","official_name:av":"\u0415\u0433\u0438\u0301\u043f\u0435\u0442\u0430\u043b\u044a\u0443\u043b \u0413Ia\u0440\u0430\u0301\u0431 \u0416\u0443\u043c\u0433\u044c\u0443\u0440\u0438\u044f\u0442","official_name:ay":"Iqiqtu Ripublika Arabi","official_name:az":"Misir \u018fr\u0259b Respublikas\u0131","official_name:azb":"\u0645\u06cc\u0635\u0631 \u0639\u0631\u0628 \u062c\u0645\u0647\u0648\u0631\u06cc\u200c\u0633\u06cc","official_name:ba":"\u041c\u044b\u0441\u044b\u0440 \u0493\u04d9\u0440\u04d9\u043f \u0440\u0435\u0441\u043f\u0443\u0431\u043b\u0438\u043a\u0430\u04bb\u044b","official_name:bat-smg":"Eg\u0117pta Arabu Respobl\u0117ka","official_name:bcl":"Republikang Arabo nin Ehipto","official_name:be":"\u0410\u0440\u0430\u0301\u0431\u0441\u043a\u0430\u044f \u0420\u044d\u0441\u043f\u0443\u0301\u0431\u043b\u0456\u043a\u0430 \u0415\u0433\u0456\u0301\u043f\u0435\u0442","official_name:be-tarask":"\u0410\u0440\u0430\u0301\u0431\u0441\u043a\u0430\u044f \u0420\u044d\u0441\u043f\u0443\u0301\u0431\u043b\u0456\u043a\u0430 \u042d\u0491\u0456\u0301\u043f\u0435\u0442","official_name:bg":"\u0410\u0440\u0430\u0431\u0441\u043a\u0430 \u0440\u0435\u043f\u0443\u0431\u043b\u0438\u043a\u0430 \u0415\u0433\u0438\u043f\u0435\u0442","official_name:bh":"\u091c\u093c\u092e\u094d\u0939\u0942\u0930\u093f\u092f\u0924 \u092e\u093f\u0938\u094d\u0930 \u0905\u0932 \u0905\u0930\u092c\u093f\u092f\u093e","official_name:bjn":"Republik Arab Mesir","official_name:bm":"Misra ka Arabu Fasojamana","official_name:bn":"\u09ae\u09bf\u09b6\u09b0 \u0986\u09b0\u09ac \u09aa\u09cd\u09b0\u099c\u09be\u09a4\u09a8\u09cd\u09a4\u09cd\u09b0","official_name:bpy":"\u0986\u09b0\u09ac \u09aa\u09cd\u09b0\u099c\u09be\u09a4\u09a8\u09cd\u09a4\u09cd\u09b0\u09bf \u09ae\u09bf\u09b6\u09b0","official_name:br":"Republik arab Egipt","official_name:bs":"Arapska Republika Egipat","official_name:bxr":"\u0410\u0440\u0430\u0431 \u0411\u04af\u0433\u044d\u0434\u044d \u041d\u0430\u0439\u0440\u0430\u043c\u0434\u0430\u0445\u0430 \u0415\u0433\u0438\u043f\u0435\u0442 \u0423\u043b\u0430\u0441","official_name:ca":"Rep\u00fablica \u00c0rab d'Egipte","official_name:cdo":"\u0102i-g\u012dk \u0100-l\u00e1-b\u00e1ik G\u00ea\u0324\u1e73ng-hu\u00f2-gu\u00f3k","official_name:ce":"\u04c0\u0430\u044c\u0440\u0431\u0438\u0439\u043d \u0420\u0435\u0441\u043f\u0443\u0431\u043b\u0438\u043a\u0430 \u041c\u0438\u0441\u0430\u0440","official_name:chr":"\u13c3\u13f4 \u13a0\u13c1\u13af \u13cd\u13a6\u13da\u13a9 \u13be\u13bf \u13a2\u13e5\u13c8\u13a2","official_name:ckb":"\u06a9\u06c6\u0645\u0627\u0631\u06cc \u0645\u06cc\u0633\u0695\u06cc \u0639\u06d5\u0631\u06d5\u0628\u06cc","official_name:crh":"M\u0131s\u0131r Arap Cumhuriyeti","official_name:cs":"Egyptsk\u00e1 arabsk\u00e1 republika","official_name:cu":"\u0404\u0433\u0477\u043f\u0442\u044c\u0441\u043a\u0430 \u0410\u0440\u0430\u0301\u0432\u044c\u0441\u043a\u0430 \u0414\u0438\u043c\u043e\u043a\u0440\u0430\u0442\u0456\u0301\ua657","official_name:cy":"Gweriniaeth Arabaidd yr Aifft","official_name:da":"Den Arabiske Republik Egypten","official_name:de":"Arabische Republik \u00c4gypten","official_name:dsb":"Egyptojska arabska republika","official_name:el":"\u0391\u03c1\u03b1\u03b2\u03b9\u03ba\u03ae \u0394\u03b7\u03bc\u03bf\u03ba\u03c1\u03b1\u03c4\u03af\u03b1 \u03c4\u03b7\u03c2 \u0391\u03b9\u03b3\u03cd\u03c0\u03c4\u03bf\u03c5","official_name:en":"Arab Republic of Egypt","official_name:eo":"Araba Respubliko Egiptio","official_name:es":"Rep\u00fablica \u00c1rabe de Egipto","official_name:et":"Egiptuse Araabia Vabariik","official_name:eu":"Egiptoko Arabiar Errepublika","official_name:ext":"Rep\u00fabrica \u00c1rabi de Egitu","official_name:fa":"\u062c\u0645\u0647\u0648\u0631\u06cc \u0639\u0631\u0628\u06cc \u0645\u0635\u0631","official_name:fi":"Egyptin arabitasavalta","official_name:fr":"R\u00e9publique arabe d'\u00c9gypte","official_name:frr":"Araabisk Republiik faan Egypten","official_name:fur":"Republiche Arabe dal Egjit","official_name:fy":"Arabysk Republyk Egypte","official_name:ga":"Poblacht Arabach na h\u00c9igipte","official_name:gan":"\u57c3\u53ca\u963f\u62c9\u4f2f\u5171\u548c\u570b","official_name:gcr":"R\u00e9piblik arab di L\u00e9jip","official_name:gl":"Rep\u00fablica \u00c1rabe de Exipto","official_name:gn":"Eh\u00edto Tavakuairet\u00e3 \u00c1rave","official_name:gu":"\u0aae\u0abf\u0ab8\u0ab0\u0aa8\u0ac1\u0a82 \u0a86\u0ab0\u0aac \u0a97\u0aa3\u0ab0\u0abe\u0a9c\u0acd\u0aaf","official_name:gv":"Pobblaght Arabagh ny h-Egypt","official_name:hak":"\u00c2i-khi\u030dp \u00c2-l\u00e2-pak Khiung-f\u00f2-koet","official_name:he":"\u05e8\u05e4\u05d5\u05d1\u05dc\u05d9\u05e7\u05ea \u05de\u05e6\u05e8\u05d9\u05dd \u05d4\u05e2\u05e8\u05d1\u05d9\u05ea","official_name:hi":"\u092e\u093f\u0938\u094d\u0930 \u0905\u0930\u092c \u0917\u0923\u0930\u093e\u091c\u094d\u092f","official_name:hr":"Arapska Republika Egipat","official_name:hsb":"Egyptowska arabska republika","official_name:hu":"Egyiptomi Arab K\u00f6zt\u00e1rsas\u00e1g","official_name:hy":"\u0535\u0563\u056b\u057a\u057f\u0578\u057d\u056b \u0531\u0580\u0561\u0562\u0561\u056f\u0561\u0576 \u0540\u0561\u0576\u0580\u0561\u057a\u0565\u057f\u0578\u0582\u0569\u0575\u0578\u0582\u0576","official_name:hyw":"\u0535\u0563\u056b\u057a\u057f\u0578\u057d\u056b \u0531\u0580\u0561\u0562\u0561\u056f\u0561\u0576 \u0540\u0561\u0576\u0580\u0561\u057a\u0565\u057f\u0578\u0582\u0569\u056b\u0582\u0576","official_name:ia":"Republica Arabe de Egypto","official_name:id":"Republik Arab Mesir","official_name:ilo":"Arabo a Republika iti Ehipto","official_name:inh":"I\u0430\u0440\u0431\u0438\u0439 \u0420\u0435\u0441\u043f\u0443\u0301\u0431\u043b\u0438\u043a\u0430 \u041c\u0438\u0441\u0430\u0440\u0435","official_name:is":"Arab\u00edska feministaf\u00e9lagi\u00f0 Egyptaland","official_name:it":"Repubblica araba d'Egitto","official_name:ja":"\u30a8\u30b8\u30d7\u30c8\u30fb\u30a2\u30e9\u30d6\u5171\u548c\u56fd","official_name:jam":"Arabik Ripoblik a Iijip","official_name:jbo":"misrygu'e xrabo gubyseltru","official_name:jv":"R\u00e9publik Arab Mesir","official_name:ka":"\u10d4\u10d2\u10d5\u10d8\u10de\u10e2\u10d8\u10e1 \u10d0\u10e0\u10d0\u10d1\u10e3\u10da\u10d8 \u10e0\u10d4\u10e1\u10de\u10e3\u10d1\u10da\u10d8\u10d9\u10d0","official_name:kab":"Tagduda Ta\u025brabt n Ma\u1e63er","official_name:kg":"Repubilika Arabi ya Misiri","official_name:kk":"\u041c\u044b\u0441\u044b\u0440 \u0410\u0440\u0430\u0431 \u0420\u0435\u0441\u043f\u0443\u0431\u043b\u0438\u043a\u0430\u0441\u044b","official_name:kl":"Den arabiske republikken Egypt","official_name:km":"\u179f\u17b6\u1792\u17b6\u179a\u178e\u17c7\u179a\u178a\u17d2\u178b\u17a2\u17b6\u179a\u17c9\u17b6\u1794\u17cb\u17a2\u17c1\u179f\u17ca\u17b8\u1794","official_name:kn":"\u0c88\u0c9c\u0cbf\u0caa\u0ccd\u0c9f\u0ccd \u0c85\u0cb0\u0cac\u0ccd \u0c97\u0ca3\u0cb0\u0cbe\u0c9c\u0ccd\u0caf","official_name:ko":"\uc774\uc9d1\ud2b8 \uc544\ub78d \uacf5\ud654\uad6d","official_name:ku":"Komara Ereb\u00ee ya Misr\u00ea","official_name:kv":"\u0415\u0433\u0438\u043f\u0435\u0442 \u0410\u0440\u0430\u0431 \u0420\u0435\u0441\u043f\u0443\u0431\u043b\u0438\u043a\u0430","official_name:ky":"\u041c\u0438\u0441\u0438\u0440 \u0410\u0440\u0430\u0431 \u0420\u0435\u0441\u043f\u0443\u0431\u043b\u0438\u043a\u0430\u0441\u044b","official_name:la":"Res publica Arabica Aegypti","official_name:lad":"Repuvlika Araba de Ayifto","official_name:lb":"Arabesch Republik vun Egypten","official_name:lez":"\u0410\u0440\u0430\u0301\u0431 \u0420\u0435\u0441\u043f\u0443\u0301\u0431\u043b\u0438\u043a\u0430 \u0415\u0433\u0438\u0301\u043f\u0435\u0442","official_name:lfn":"Republica Arabi de Misre","official_name:li":"Arabische Rippebliek Egypte","official_name:ln":"Rebubliki Arabe ya Ejipte","official_name:lt":"Egipto Arab\u0173 Respublika","official_name:lv":"\u0112\u0123iptes Ar\u0101bu Republika","official_name:lzh":"\u963f\u62c9\u4f2f\u5bc6\u601d\u5152\u5171\u548c\u570b","official_name:mai":"\u092e\u093f\u0938\u094d\u0930 \u0905\u0930\u092c \u0917\u0923\u0924\u0928\u094d\u0924\u094d\u0930","official_name:min":"Republik Arab Masia","official_name:mk":"\u0410\u0440\u0430\u043f\u0441\u043a\u0430 \u0420\u0435\u043f\u0443\u0431\u043b\u0438\u043a\u0430 \u0415\u0433\u0438\u043f\u0435\u0442","official_name:ml":"\u0d05\u0d31\u0d2c\u0d4d \u0d31\u0d3f\u0d2a\u0d4d\u0d2a\u0d2c\u0d4d\u0d32\u0d3f\u0d15\u0d4d\u0d15\u0d4d \u0d13\u0d2b\u0d4d \u0d08\u0d1c\u0d3f\u0d2a\u0d4d\u0d24\u0d4d","official_name:mn":"\u0410\u0440\u0430\u0431\u044b\u043d \u0411\u04af\u0433\u0434 \u041d\u0430\u0439\u0440\u0430\u043c\u0434\u0430\u0445 \u0415\u0433\u0438\u043f\u0435\u0442 \u0423\u043b\u0441","official_name:mr":"\u0907\u091c\u093f\u092a\u094d\u0924\u091a\u0947 \u0905\u0930\u092c \u0917\u0923\u0930\u093e\u091c\u094d\u092f","official_name:ms":"Republik Arab Mesir","official_name:mt":"Repubblika G\u0127arbija tal-E\u0121ittu","official_name:my":"\u1021\u102e\u1002\u103b\u1005\u103a\u1021\u102c\u101b\u1015\u103a\u101e\u1019\u1039\u1019\u1010\u1014\u102d\u102f\u1004\u103a\u1004\u1036","official_name:myv":"\u0410\u0440\u0430\u0301\u0431\u0441\u043a\u0430\u044f \u0420\u0435\u0441\u043f\u0443\u0301\u0431\u043b\u0438\u043a\u0430 \u0415\u0433\u0438\u0301\u043f\u0435\u0442","official_name:mzn":"\u062c\u0645\u0647\u0648\u0631\u06cc\u0629 \u0645\u0635\u0631 \u0627\u0644\u0639\u0631\u0628\u06cc\u0629","official_name:nah":"Arabiatl\u0101catlahtohc\u0101y\u014dtl Egipto","official_name:nan":"Ai-ki\u030dp A-la-pek Ki\u014dng-h\u00f4-kok","official_name:nap":"Repubbreca Araba 'e Naggitto","official_name:nds":"Araabsch Republiek \u00c4gypten","official_name:nds-nl":"Arabische Rippebliek Egypte","official_name:ne":"\u0905\u0930\u092c \u0917\u0923\u0924\u0928\u094d\u0924\u094d\u0930 \u092e\u093f\u0936\u094d\u0930","official_name:new":"\u0905\u0930\u092c \u0917\u0923\u0924\u0928\u094d\u0924\u094d\u0930 \u092e\u093f\u0936\u094d\u0930","official_name:nl":"Arabische Republiek Egypte","official_name:nn":"Den Arabiske Republikken Egypt","official_name:no":"Den arabiske republikken Egypt","official_name:oc":"Republica Ar\u00e0bia d'Egipte","official_name:olo":"Jegiptan islamilaine tazavaldu","official_name:om":"Rippabiliika Arabaa Ijiipti","official_name:os":"\u041c\u044b\u0441\u044b\u0440\u044b \u0410\u0440\u0430\u0431\u0431\u0430\u0433 \u0420\u0435\u0441\u043f\u0443\u0431\u043b\u0438\u043a\u00e6","official_name:pa":"\u0a05\u0a30\u0a2c \u0a17\u0a23\u0a30\u0a3e\u0a1c \u0a2e\u0a3f\u0a38\u0a30","official_name:pam":"Arab Republica ning Ejiptu","official_name:pcd":"R\u00e9publike arabe \u00c9djipe","official_name:pl":"Arabska Republika Egiptu","official_name:pnb":"\u062c\u0645\u0647\u0648\u0631\u064a\u0629 \u0645\u0635\u0631 \u0627\u0644\u0639\u0631\u0628\u064a\u0629","official_name:ps":"\u062f \u0645\u0635\u0631 \u062c\u0645\u0647\u0648\u0631\u06cc \u062f\u0648\u0644\u062a","official_name:pt":"Rep\u00fablica \u00c1rabe do Egito","official_name:qu":"Arabya Ripuwlika Ihiptu","official_name:rm":"Republica araba da l'Egipta","official_name:rmy":"Arabikane Republika M\u00easire","official_name:ro":"Republica Arab\u0103 a Egiptului","official_name:roa-tara":"Repubbleche Arabe d'Egitte","official_name:ru":"\u0410\u0440\u0430\u0431\u0441\u043a\u0430\u044f \u0420\u0435\u0441\u043f\u0443\u0431\u043b\u0438\u043a\u0430 \u0415\u0433\u0438\u043f\u0435\u0442","official_name:sah":"\u042d\u0433\u0438\u0438\u043f\u044d\u0442 \u0410\u0440\u0430\u0431 \u04e8\u0440\u04e9\u0441\u043f\u04af\u04af\u0431\u04af\u043b\u04af\u043a\u044d\u0442\u044d","official_name:scn":"rip\u00f9bbirca \u00e0rabba d'Eggittu","official_name:sco":"Arab Republic o Egyp","official_name:sd":"\u0639\u0631\u0628 \u062c\u0645\u06be\u0648\u0631\u064a\u06c1 \u0645\u0635\u0631","official_name:se":"Egyptta ar\u00e1bad\u00e1ssev\u00e1ldi","official_name:sg":"Ar\u00e2bo K\u00f6d\u00f6r\u00f6s\u00ease t\u00ee K\u00e2mit\u00e2","official_name:sh":"Arapska Republika Egipat","official_name:shn":"\u1019\u102d\u1030\u1004\u103a\u1038\u1078\u103d\u1019\u103a\u1015\u103d\u1004\u103a\u1078\u102d\u102f\u1004\u103a\u1088\u1022\u1083\u1087\u101b\u1062\u1015\u103a\u1088 \u1022\u102e\u1038\u1075\u103b\u102d\u1015\u103a\u1088","official_name:si":"\u0d85\u0dbb\u0dcf\u0db6\u0dd2\u0dba\u0dda \u0db8\u0dd2\u0dc3\u0dca\u0dbb\u0dca \u0da2\u0db1\u0dbb\u0da2\u0dba","official_name:sk":"Egyptsk\u00e1 arabsk\u00e1 republika","official_name:sl":"Arabska republika Egipt","official_name:smn":"Egypti arabit\u00e4siv\u00e4ldi","official_name:so":"Jamhuuriyada Masar ee Carabta","official_name:sq":"Republika Arabe e Egjiptit","official_name:sr":"\u0410\u0440\u0430\u043f\u0441\u043a\u0430 \u0420\u0435\u043f\u0443\u0431\u043b\u0438\u043a\u0430 \u0415\u0433\u0438\u043f\u0430\u0442","official_name:stq":"Arabiske Republik \u00c4gypten","official_name:su":"R\u00e9publik Arab Mesir","official_name:sv":"Arabrepubliken Egypten","official_name:sw":"Jamhuri ya Kiarabu ya Misri","official_name:szl":"Arabsk\u014f Republika Egiptu","official_name:ta":"\u0b8e\u0b95\u0bbf\u0baa\u0bcd\u0ba4\u0bc1 \u0b85\u0bb0\u0baa\u0bc1\u0b95\u0bcd \u0b95\u0bc1\u0b9f\u0bbf\u0baf\u0bb0\u0b9a\u0bc1","official_name:te":"\u0c05\u0c30\u0c2c\u0c4d \u0c30\u0c3f\u0c2a\u0c2c\u0c4d\u0c32\u0c3f\u0c15\u0c4d \u0c06\u0c2b\u0c4d \u0c08\u0c1c\u0c3f\u0c2a\u0c4d\u0c1f\u0c4d","official_name:tet":"Rep\u00fablika Arabi Ejitu niam","official_name:tg":"\u041c\u0438\u0441\u0440\u0438 \u0410\u0440\u0430\u0431","official_name:th":"\u0e2a\u0e32\u0e18\u0e32\u0e23\u0e13\u0e23\u0e31\u0e10\u0e2d\u0e32\u0e2b\u0e23\u0e31\u0e1a\u0e2d\u0e35\u0e22\u0e34\u0e1b\u0e15\u0e4c","official_name:tk":"M\u00fcs\u00fcr Arap Respublikasy","official_name:tl":"Republikang Arabo ng Ehipto","official_name:tpi":"Arabik Ripablik bilong Ijip","official_name:tr":"M\u0131s\u0131r Arap Cumhuriyeti","official_name:tt":"\u0413\u0430\u0440\u04d9\u0301\u0431 \u041c\u0438\u0441\u044b\u0301\u0440 \u0496\u04e9\u043c\u04bb\u04af\u0440\u0438\u044f\u0442\u0435\u0301","official_name:udm":"\u0415\u0433\u0438\u043f\u0435\u0442 \u0410\u0440\u0430\u0431 \u0420\u0435\u0441\u043f\u0443\u0431\u043b\u0438\u043a\u0430","official_name:ug":"\u0645\u0649\u0633\u0649\u0631 \u0626\u06d5\u0631\u06d5\u0628 \u062c\u06c7\u0645\u06be\u06c7\u0631\u0649\u064a\u0649\u062a\u0649","official_name:uk":"\u0410\u0440\u0430\u0301\u0431\u0441\u044c\u043a\u0430 \u0420\u0435\u0441\u043f\u0443\u0301\u0431\u043b\u0456\u043a\u0430 \u0404\u0433\u0438\u0301\u043f\u0435\u0442","official_name:ur":"\u0639\u0631\u0628 \u062c\u0645\u06c1\u0648\u0631\u06cc\u06c1 \u0645\u0635\u0631","official_name:uz":"Misr Arab Respublikasi","official_name:vec":"Republica Araba d'Egito","official_name:vep":"Egiptan Arabine Tazovaldkund","official_name:vi":"C\u1ed9ng h\u00f2a \u1ea2 R\u1eadp Ai C\u1eadp","official_name:vro":"Eg\u00fcpt\u00fcse Araabia Vabariik","official_name:war":"Arabo nga Republka han Ehipto","official_name:wo":"Gawu Araab bu Ejipt","official_name:xal":"\u0418\u0497\u0438\u0431\u0434\u0438\u043d \u0410\u0440\u0430\u0431 \u041e\u0440\u043d","official_name:xmf":"\u10d4\u10d2\u10d5\u10d8\u10de\u10e2\u10d4\u10e8 \u10d0\u10e0\u10d0\u10d1\u10e3\u10da\u10d8 \u10e0\u10d4\u10e1\u10de\u10e3\u10d1\u10da\u10d8\u10d9\u10d0","official_name:yi":"\u05d0\u05e8\u05d0\u05d1\u05d9\u05e9\u05e2 \u05e8\u05e2\u05e4\u05d5\u05d1\u05dc\u05d9\u05e7 \u05e4\u05d5\u05df \u05e2\u05d2\u05d9\u05e4\u05d8\u05df","official_name:yo":"Orile-ede Olominira Arabu ile Egipti","official_name:yue":"\u57c3\u53ca\u963f\u62c9\u4f2f\u5171\u548c\u570b","official_name:zea":"Araobische Republiek Ehypte","official_name:zh":"\u963f\u62c9\u4f2f\u57c3\u53ca\u5171\u548c\u56fd \/ \u963f\u62c9\u4f2f\u57c3\u53ca\u5171\u548c\u570b","official_name:zh-Hans":"\u963f\u62c9\u4f2f\u57c3\u53ca\u5171\u548c\u56fd","official_name:zh-Hant":"\u963f\u62c9\u4f2f\u57c3\u53ca\u5171\u548c\u570b","official_name:zu":"iRiphabliki Arabhu weGibhithe","old_name:fi":"Yhdistynyt arabitasavalta","population":"112716599","source:population":"https:\/\/en.wikipedia.org\/wiki\/List_of_countries_by_population_(United_Nations)","timezone":"Africa\/Cairo","type":"boundary","wikidata":"Q79","wikipedia":"ar:\u0645\u0635\u0631"},"timestamp":1716078538,"representative_point":{"type":"Point","coordinates":[29.62026916779603,26.9072225]}},"geometry":{"type":"MultiPolygon","coordinates":[[[[25.3770629,31.721822],[24.8520613,31.3934907],[25.0107462,30.7764611],[24.6499112,30.1263685],[24.997778,29.248889],[25,22],[31.315029,22],[31.469795,22.224918],[31.398882,22],[33.1666667,22],[34.0798633,22.000021],[37.0905195,22],[37.0105359,22.3576238],[36.5543112,22.9577511],[36.5379076,23.6561142],[35.984663,24.0270224],[35.823517,24.378842],[35.4099561,24.7153056],[34.4970333,26.1933968],[34.2167061,27.1772378],[34.5190343,27.7135302],[34.4634781,28.0132072],[34.8844372,29.3751955],[34.921211,29.4533796],[34.2674994,31.2201289],[34.0546906,31.466843],[32.6541734,31.2928292],[31.991902,31.7206137],[31.0282264,31.8004239],[30.2585648,31.6875593],[29.0461057,31.0816394],[26.2948596,31.7999354],[25.3770629,31.721822]]],[[[34.6202549,26.3313532],[34.8444167,26.1012981],[35.0857781,26.2834826],[34.883538,26.5114598],[34.6202549,26.3313532]]]]}}