{"type":"Feature","properties":{"tags":{"ISO3166-1":"ET","ISO3166-1:alpha2":"ET","ISO3166-1:alpha3":"ETH","ISO3166-1:numeric":"231","admin_level":"2","alt_name:ang":"\u00c6thiopia","alt_name:ar":"\u0627\u0644\u062d\u0628\u0634\u0629","alt_name:arc":"\u0710\u072c\u071d\u0718\u0726\u071d\u0710","alt_name:bo":"\u0f68\u0f72\u0f0b\u0f50\u0f7c\u0f0b\u0f54\u0f72\u0f0b\u0f61\u0f0b","alt_name:ceb":"Etyopiya","alt_name:eo":"Etiopujo","alt_name:gd":"An Itiop","alt_name:hak":"Abyssinia","alt_name:koi":"\u042d\u0444\u0438\u043e\u043f\u0438\u044f","alt_name:scn":"Iti\u00f2pia","alt_name:tr":"Etyopya","alt_name:vi":"\u00ca-ti-\u00f4-pi-a","alt_name:war":"Ethiopia","boundary":"administrative","default_language":"am","flag":"http:\/\/upload.wikimedia.org\/wikipedia\/commons\/7\/71\/Flag_of_Ethiopia.svg","int_name":"Ethiopia","name":"\u12a2\u1275\u12ee\u1335\u12eb","name:aa":"Otobbia","name:ace":"Ethiopia","name:ady":"\u042d\u0444\u0438\u043e\u043f\u0438\u0435","name:af":"Ethiopi\u00eb","name:ak":"Ithiopia","name:als":"Ethiopie","name:am":"\u12a2\u1275\u12ee\u1335\u12eb","name:an":"Etiopia","name:ang":"Sigelhearwenaland","name:ar":"\u0625\u062b\u064a\u0648\u0628\u064a\u0627","name:arc":"\u071f\u0718\u072b","name:arz":"\u0627\u062b\u064a\u0648\u0628\u064a\u0627","name:ast":"Etiop\u00eda","name:av":"\u0425\u0430\u0431\u0430\u0448\u0438\u0441\u0442\u0430\u043d","name:az":"Efiopiya","name:azb":"\u0627\u062a\u06cc\u0648\u067e\u06cc","name:ba":"\u042d\u0444\u0438\u043e\u0301\u043f\u0438\u044f","name:bar":"Ethiopien","name:bat-smg":"Etiuop\u0117j\u0117","name:bcl":"Etyopya","name:be":"\u042d\u0444\u0456\u043e\u043f\u0456\u044f","name:be-tarask":"\u042d\u0442\u044b\u0451\u043f\u0456\u044f","name:bg":"\u0415\u0442\u0438\u043e\u043f\u0438\u044f","name:bh":"\u0907\u0925\u093f\u092f\u094b\u092a\u093f\u092f\u093e","name:bjn":"Ethiopia","name:bm":"Etiopia","name:bn":"\u0987\u09a5\u09bf\u0993\u09aa\u09bf\u09af\u09bc\u09be","name:bo":"\u0f68\u0f72\u0f0b\u0f50\u0f72\u0f0b\u0f68\u0f7c\u0f0b\u0f54\u0f72\u0f0b\u0f61\u0f0d","name:bpy":"\u0987\u09a5\u09bf\u0993\u09aa\u09bf\u09af\u09bc\u09be","name:br":"Etiopia","name:bs":"Etiopija","name:bxr":"\u042d\u0442\u0438\u043e\u043f\u0438","name:ca":"Eti\u00f2pia","name:cbk-zam":"Etiop\u00eda","name:cdo":"Ethiopia","name:ce":"\u042d\u0444\u0438\u043e\u0301\u043f\u0438","name:ceb":"Etiopia","name:chr":"\u13a2\u13d7\u13a3\u13c8\u13a0","name:ckb":"\u0626\u06cc\u062a\u06cc\u06c6\u067e\u06cc\u0627","name:crh":"Abe\u015fistan","name:cs":"Etiopie","name:cu":"\u0404\u0473\u0457\u043e\u043f\u0456\u0301\ua657","name:cv":"\u042d\u0444\u0438\u043e\u043f\u0438","name:cy":"Ethiopia","name:da":"Etiopien","name:de":"\u00c4thiopien","name:din":"Ethiopia","name:diq":"Etyopya","name:dsb":"Etiopiska","name:dty":"\u0907\u0925\u093f\u092f\u094b\u092a\u093f\u092f\u093e","name:dv":"\u0799\u07a6\u0784\u07aa\u079d\u07b0\u0786\u07a6\u0783\u07a6","name:dz":"\u0f68\u0f72\u0f0b\u0f50\u0f72\u0f0b\u0f61\u0f7c\u0f0b\u0f54\u0f72\u0f0b\u0f61","name:ee":"Etiopia","name:el":"\u0391\u03b9\u03b8\u03b9\u03bf\u03c0\u03af\u03b1","name:en":"Ethiopia","name:eo":"Etiopio","name:es":"Etiop\u00eda","name:et":"Etioopia","name:eu":"Etiopia","name:ext":"Etiopia","name:fa":"\u0627\u062a\u06cc\u0648\u067e\u06cc","name:fi":"Etiopia","name:fo":"Etiopia","name:fr":"\u00c9thiopie","name:frp":"\u00c8tiopie","name:frr":"Etioopien","name:fur":"Etiopie","name:fy":"Etioopje","name:ga":"an Aet\u00f3ip","name:gag":"Efiopiya","name:gan":"\u57c3\u585e\u4fc4\u6bd4\u4e9e","name:gd":"An Aeti\u00f2p","name:gl":"Etiop\u00eda - Ityop'iya","name:gn":"Etiopia","name:gom":"\u0907\u0925\u093f\u0913\u092a\u093f\u092f\u093e","name:gu":"\u0a87\u0aa5\u0abf\u0aaf\u0acb\u0aaa\u0abf\u0aaf\u0abe","name:gv":"yn Eetoip","name:ha":"Ethiopia","name:hak":"\u00c2i-set-ng\u00f2-p\u00ed-\u00e2","name:haw":"\u02bbAikiopia","name:he":"\u05d0\u05ea\u05d9\u05d5\u05e4\u05d9\u05d4","name:hi":"\u0907\u0925\u093f\u092f\u094b\u092a\u093f\u092f\u093e","name:hif":"Ethiopia","name:hr":"Etiopija","name:hsb":"Etiopiska","name:ht":"Etyopi","name:hu":"Eti\u00f3pia","name:hy":"\u0535\u0569\u0578\u057e\u057a\u056b\u0561","name:ia":"Ethiopia","name:id":"Ethiopia","name:ie":"Etiopia","name:ig":"Ethiopia","name:ilo":"Etiopia","name:io":"Etiopia","name:is":"E\u00fe\u00ed\u00f3p\u00eda","name:it":"Etiopia","name:ja":"\u30a8\u30c1\u30aa\u30d4\u30a2","name:jam":"Iityuopia","name:jbo":"itiopias","name:jv":"\u00c9tiopia","name:ka":"\u10d4\u10d7\u10d8\u10dd\u10de\u10d8\u10d0","name:kaa":"Efiopiya","name:kab":"Ityupya","name:kbp":"Etiyoopii","name:kg":"Itiopia","name:ki":"Ethiopia","name:kk":"\u0415\u0444\u0438\u043e\u043f\u0438\u044f","name:km":"\u17a2\u17c1\u178f\u17d2\u1799\u17bc\u1796\u17b8","name:kn":"\u0c87\u0ca4\u0cbf\u0caf\u0ccb\u0caa\u0cbf\u0caf","name:ko":"\uc5d0\ud2f0\uc624\ud53c\uc544","name:koi":"\u0418\u0442\u044c\u043e\u043f\u043f\u044c\u044f","name:ks":"\u0627\u0650\u062a\u06be\u0648\u067e\u0650\u06cc\u0627","name:ksh":"\u00c4ttijoopije","name:ku":"Etiyopya","name:kv":"\u042d\u0444\u0438\u043e\u043f\u0438\u044f","name:kw":"Ethiopi","name:ky":"\u042d\u0444\u0438\u043e\u043f\u0438\u044f","name:la":"Aethiopia","name:lad":"Etiopia","name:lb":"Ethiopien","name:lez":"\u042d\u0444\u0438\u043e\u043f\u0438\u044f","name:lg":"Ethiopia","name:li":"Ethiopi\u00eb","name:lij":"Eti\u00f2pia","name:lmo":"Etiopia","name:ln":"Etiopi","name:lo":"\u0ec0\u0ead\u0e97\u0eb5\u0ec2\u0ead\u0ec0\u0e9b\u0e8d","name:lrc":"\u0626\u062a\u06cc\u0648\u0659\u067e\u06cc","name:lt":"Etiopija","name:lv":"Etiopija","name:lzh":"\u8863\u7d22\u6bd4\u4e9e","name:mai":"\u0907\u0925\u093f\u092f\u094b\u092a\u093f\u092f\u093e","name:mg":"Etiopia","name:mhr":"\u042d\u0444\u0438\u043e\u043f\u0438\u0439","name:mi":"Etiopia","name:min":"Ethiopia","name:mk":"\u0415\u0442\u0438\u043e\u043f\u0438\u0458\u0430","name:ml":"\u0d0e\u0d24\u0d4d\u0d2f\u0d4b\u0d2a\u0d4d\u0d2f","name:mn":"\u042d\u0442\u0438\u043e\u043f","name:mr":"\u0907\u0925\u093f\u092f\u094b\u092a\u093f\u092f\u093e","name:mrj":"\u042d\u0444\u0438\u043e\u043f\u0438","name:ms":"Habsyah","name:mt":"Etjopja","name:my":"\u1021\u102e\u101e\u102e\u101a\u102d\u102f\u1038\u1015\u102e\u1038\u101a\u102c\u1038\u1014\u102d\u102f\u1004\u103a\u1004\u1036","name:mzn":"\u0627\u062a\u06cc\u0648\u067e\u06cc","name:na":"Itiyopiya","name:nah":"Etiopia","name:nan":"Ityop'iya","name:nds":"\u00c4thiopien","name:ne":"\u0907\u0925\u093f\u092f\u094b\u092a\u093f\u092f\u093e","name:new":"\u0907\u0925\u093f\u092f\u094b\u092a\u093f\u092f\u093e","name:nl":"Ethiopi\u00eb","name:nn":"Etiopia","name:no":"Etiopia","name:nov":"Etiopia","name:nso":"Ethiopia","name:nv":"Iithiy\u00f3pya","name:oc":"Etiopia","name:olo":"Efiopii","name:om":"Itoophiyaa","name:or":"\u0b07\u0b25\u0b3f\u0b13\u0b2a\u0b3f\u0b06","name:os":"\u042d\u0444\u0438\u043e\u0301\u043f\u0438","name:pa":"\u0a07\u0a25\u0a4b\u0a2a\u0a40\u0a06","name:pam":"Ethiopia","name:pap":"Ethiopia","name:pi":"\u0908\u0925\u094d\u092f\u094b\u092a\u093f\u092f\u093e","name:pih":"Ethiopia","name:pl":"Etiopia","name:pms":"Eti\u00f2pia","name:pnb":"\u0627\u06cc\u062a\u06be\u0648\u067e\u06cc\u0627","name:ps":"\u0627\u06d0\u062a\u0648\u067e\u06cc\u0627","name:pt":"Eti\u00f3pia","name:qu":"Ithiyupya","name:rm":"Etiopia","name:ro":"Etiopia","name:roa-tara":"Etiopie","name:ru":"\u042d\u0444\u0438\u043e\u043f\u0438\u044f","name:rue":"\u0415\u0442\u0456\u043e\u043f\u0456\u044f","name:rw":"Etiyopiya","name:sa":"\u0908\u0925\u094d\u092f\u094b\u092a\u093f\u092f\u093e","name:sah":"\u042d\u0442\u0438\u043e\u043f\u0438\u044f","name:sc":"Eti\u00f2pia","name:scn":"Eti\u00f2pia","name:sco":"Ethiopie","name:se":"Etiopia","name:sg":"Etiop\u00efi","name:sh":"Etiopija","name:si":"\u0d89\u0dad\u0dd2\u0dba\u0ddd\u0db4\u0dd2\u0dba\u0dcf\u0dc0","name:sk":"Eti\u00f3pia","name:sl":"Eti\u00f3pija","name:sm":"Ethiopia","name:smn":"Etiopia","name:sms":"Etiopia","name:sn":"Ethiopia","name:so":"Itoobiya","name:sq":"Etiopia","name:sr":"\u0415\u0442\u0438\u043e\u043f\u0438\u0458\u0430","name:srn":"Ethiopikondre","name:ss":"iTopiya","name:st":"Ethiopia","name:stq":"\u00c4thiopien","name:su":"\u00c9tiopia","name:sv":"Etiopien","name:sw":"Ethiopia","name:szl":"Etjopijo","name:ta":"\u0b8e\u0ba4\u0bcd\u0ba4\u0bbf\u0baf\u0bcb\u0baa\u0bcd\u0baa\u0bbf\u0baf\u0bbe","name:te":"\u0c07\u0c25\u0c3f\u0c2f\u0c4b\u0c2a\u0c3f\u0c2f\u0c3e","name:tg":"\u042d\u0444\u0438\u043e\u043f\u0438\u044f","name:th":"\u0e40\u0e2d\u0e18\u0e34\u0e42\u0e2d\u0e40\u0e1b\u0e35\u0e22","name:ti":"\u12a2\u1275\u12ee\u1335\u12eb","name:tk":"Efiopi\u00fda","name:tl":"Etiyopiya","name:to":"\u02bbIti\u014dpea","name:tok":"ma Isijopija","name:tr":"Etiyopya","name:ts":"Topiya","name:tt":"\u0425\u04d9\u0431\u04d9\u0448\u0441\u0442\u0430\u043d","name:tzl":"Itiopia","name:ug":"\u0626\u06d0\u0641\u0649\u0626\u0648\u067e\u0649\u064a\u06d5","name:uk":"\u0415\u0444\u0456\u043e\u0301\u043f\u0456\u044f","name:ur":"\u0627\u06cc\u062a\u06be\u0648\u067e\u06cc\u0627","name:uz":"Efiopiya","name:vec":"Etiopia","name:vep":"Efiopii","name:vi":"Ethiopia","name:vo":"L\u00e4tiop\u00e4n","name:vro":"Etioopia","name:wa":"Etiopeye","name:war":"Etiyopya","name:wo":"Ecoopi","name:wuu":"\u57c3\u585e\u4fc4\u6bd4\u4e9e","name:xal":"\u042d\u043f\u0438\u0433\u043e\u043f\u0438\u043d \u041d\u0438\u0438\u0446\u04d9\u043d","name:xh":"iTopiya","name:xmf":"\u10d4\u10d7\u10d8\u10dd\u10de\u10d8\u10d0","name:yi":"\u05e2\u05d8\u05d9\u05d0\u05b8\u05e4\u05bc\u05d9\u05e2","name:yo":"Ethi\u00f3p\u00ed\u00e0","name:yue":"\u57c3\u585e\u4fc4\u6bd4\u4e9e","name:za":"Ethiopia","name:zea":"Ethiopi\u00eb","name:zh":"\u57c3\u585e\u4fc4\u6bd4\u4e9a","name:zh-Hans":"\u57c3\u585e\u4fc4\u6bd4\u4e9a","name:zh-Hant":"\u8863\u7d22\u6bd4\u4e9e","name:zh_pinyin":"\u0100is\u00e0i\u00e9b\u01d0y\u00e0","name:zu":"i-Ithiopia","official_name":"\u12e8\u12a2\u1275\u12ee\u1335\u12eb \u134c\u12f4\u122b\u120b\u12ca \u12f4\u121e\u12ad\u122b\u1232\u12eb\u12ca \u122a\u1350\u1265\u120a\u12ad","official_name:ady":"\u0424\u0435\u0434\u0435\u0440\u0430\u0442\u0438\u0432 \u0414\u0435\u043c\u043e\u043a\u0440\u0430\u0442\u0438\u043a \u0420\u0435\u0441\u043f\u0443\u0431\u043b\u0438\u043a\u044d\u0443 \u042d\u0444\u0438\u043e\u043f\u0438\u0435","official_name:af":"Federale Demokratiese Republiek van Ethiopi\u00eb","official_name:als":"Demokratischi Bundesrepublik Ethiopie","official_name:am":"\u12e8\u12a2\u1275\u12ee\u1335\u12eb \u134c\u12f4\u122b\u120b\u12ca \u12f4\u121e\u12ad\u122b\u1232\u12eb\u12ca \u122a\u1350\u1265\u120a\u12ad","official_name:an":"Republica Democratica Federal d'Etiopia","official_name:ar":"\u062c\u0645\u0647\u0648\u0631\u064a\u0629 \u0625\u062b\u064a\u0648\u0628\u064a\u0627 \u0627\u0644\u0641\u064a\u062f\u0631\u0627\u0644\u064a\u0629 \u0627\u0644\u062f\u064a\u0645\u0642\u0631\u0627\u0637\u064a\u0629","official_name:arc":"\u0729\u0718\u071b\u0722\u071d\u0718\u072c\u0710 \u0715\u071d\u0721\u0718\u0729\u072a\u071b\u071d\u072c\u0710 \u0726\u0715\u072a\u0720\u071d\u072c\u0710 \u0715\u071f\u0718\u072b","official_name:arz":"\u062c\u0645\u0647\u0648\u0631\u064a\u0629 \u0627\u062b\u064a\u0648\u0628\u064a\u0627 \u0627\u0644\u062f\u064a\u0645\u0648\u0642\u0631\u0627\u0637\u064a\u0647 \u0627\u0644\u0641\u064a\u062f\u0631\u0627\u0644\u064a\u0647","official_name:ast":"Rep\u00fablica Democr\u00e1tica Federal d'Etiop\u00eda","official_name:az":"Efiopiya Federal Demokratik Respublikas\u0131","official_name:ba":"\u042d\u0444\u0438\u043e\u043f\u0438\u044f \u0424\u0435\u0434\u0435\u0440\u0430\u0442\u0438\u0432 \u0414\u0435\u043c\u043e\u043a\u0440\u0430\u0442\u0438\u043a \u0420\u0435\u0441\u043f\u0443\u0431\u043b\u0438\u043a\u0430\u04bb\u044b","official_name:bcl":"Rep\u00fablika Demokr\u00e1tikan Pederal nin Etiopia","official_name:be":"\u0424\u0435\u0434\u044d\u0440\u0430\u0442\u044b\u0301\u045e\u043d\u0430\u044f \u0414\u044d\u043c\u0430\u043a\u0440\u0430\u0442\u044b\u0301\u0447\u043d\u0430\u044f \u0420\u044d\u0441\u043f\u0443\u0301\u0431\u043b\u0456\u043a\u0430 \u042d\u0444\u0456\u043e\u043f\u0456\u044f","official_name:be-tarask":"\u0424\u044d\u0434\u044d\u0440\u0430\u0442\u044b\u0301\u045e\u043d\u0430\u044f \u0414\u044d\u043c\u0430\u043a\u0440\u0430\u0442\u044b\u0301\u0447\u043d\u0430\u044f \u0420\u044d\u0441\u043f\u0443\u0301\u0431\u043b\u0456\u043a\u0430 \u042d\u0442\u044b\u0451\u043f\u0456\u044f","official_name:bg":"\u0424\u0435\u0434\u0435\u0440\u0430\u043b\u043d\u0430 \u0434\u0435\u043c\u043e\u043a\u0440\u0430\u0442\u0438\u0447\u043d\u0430 \u0440\u0435\u043f\u0443\u0431\u043b\u0438\u043a\u0430 \u0415\u0442\u0438\u043e\u043f\u0438\u044f","official_name:bjn":"Republik Demokratik Federal Ethiopia","official_name:bm":"Kurufa B\u025bj\u025bfanga Fasojamana","official_name:bn":"\u0995\u09c7\u09a8\u09cd\u09a6\u09cd\u09b0\u09c0\u09af\u09bc \u0997\u09a3\u09aa\u09cd\u09b0\u099c\u09be\u09a4\u09a8\u09cd\u09a4\u09cd\u09b0\u09c0 \u0987\u09a5\u09bf\u0993\u09aa\u09bf\u09af\u09bc\u09be","official_name:bpy":"\u0995\u09c7\u09a8\u09cd\u09a6\u09cd\u09b0\u09c0\u09af\u09bc \u0997\u09a8\u09a4\u09be\u09a8\u09cd\u09a4\u09cd\u09b0\u09bf\u0995 \u09aa\u09cd\u09b0\u099c\u09be\u09a4\u09a8\u09cd\u09a4\u09cd\u09b0\u09bf \u0987\u09a5\u09bf\u0993\u09aa\u09bf\u09af\u09bc\u09be","official_name:br":"Republik demokratel gevreadel Etiopia","official_name:bs":"Savezna Demokratska Republika Etiopija","official_name:bxr":"\u0425\u043e\u043b\u0431\u043e\u043e\u043d\u043e\u0439 \u0411\u04af\u0433\u044d\u0434\u044d \u041d\u0430\u0439\u0440\u0430\u043c\u0434\u0430\u0445\u0430 \u0410\u0440\u0430\u0434\u0448\u0430\u043b\u04bb\u0430\u043d \u042d\u0442\u0438\u043e\u043f\u0438 \u0423\u043b\u0430\u0441","official_name:ca":"Ityop'iya Federalawi Demokrasiyawi Ripeblik","official_name:ce":"\u0424\u0435\u0434\u0435\u0440\u0430\u0442\u0438\u0301\u0432\u043d\u0438 \u0414\u0435\u043c\u043e\u043a\u0440\u0430\u0442\u0438\u0301\u043d \u0420\u0435\u0441\u043f\u0443\u0301\u0431\u043b\u0438\u043a\u0430 \u042d\u0444\u0438\u043e\u0301\u043f\u0438","official_name:chr":"\u13a0\u13f0\u13df\u13e5 \u13c8\u13cd\u13d7\u13a4\u13be\u13d3\u13c5\u13d6\u13d7 \u13cd\u13a6\u13da\u13a9 \u13be\u13bf \u13a2\u13d7\u13a3\u13c8\u13a0","official_name:ckb":"\u06a9\u06c6\u0645\u0627\u0631\u06cc \u062f\u06cc\u0645\u0648\u06a9\u0631\u0627\u062a\u06cc\u06a9\u06cc \u0641\u06cc\u062f\u0631\u0627\u06b5\u06cc \u0626\u06cc\u062a\u06cc\u06c6\u067e\u06cc\u0627","official_name:crh":"Abe\u015fistan Federal Demokratik Cumhuriyeti","official_name:cs":"Etiopsk\u00e1 federativn\u00ed demokratick\u00e1 republika","official_name:cu":"\u0404\u0473\u0457\u043e\u043f\u0457\ua657 \u0421\u044a\u0432\u046b\ua641\u044c\u043d\u0430 \u0414\u0438\u043c\u043e\u043a\u0440\u0430\u0442\u0457\ua657","official_name:cv":"\u0424\u0435\u0434\u0435\u0440\u0430\u0442\u0438\u0301\u0432\u043b\u0430 \u0414\u0435\u043c\u043e\u043a\u0440\u0430\u0442\u0438\u043b\u043b\u0115 \u0420\u0435\u0441\u043f\u0443\u0301\u0431\u043b\u0438\u043a\u0430 \u042d\u0444\u0438\u043e\u0301\u043f\u0438","official_name:cy":"Gweriniaeth Ddemocrataidd Ffederal Ethiopia","official_name:da":"Den F\u00f8derale Demokratiske Republik Etiopien","official_name:de":"Demokratische Bundesrepublik \u00c4thiopien","official_name:diq":"Cumhuriyeto Federal Etyopya","official_name:dsb":"Etiopiska zw\u011bzkowa demokratiska republika","official_name:el":"\u039f\u03bc\u03bf\u03c3\u03c0\u03bf\u03bd\u03b4\u03b9\u03b1\u03ba\u03ae \u0394\u03b7\u03bc\u03bf\u03ba\u03c1\u03b1\u03c4\u03af\u03b1 \u03c4\u03b7\u03c2 \u0391\u03b9\u03b8\u03b9\u03bf\u03c0\u03af\u03b1\u03c2","official_name:en":"Federal Democratic Republic of Ethiopia","official_name:eo":"Federacia Demokratia Respubliko Etiopio","official_name:es":"Rep\u00fablica Democr\u00e1tica Federal de Etiop\u00eda","official_name:et":"Etioopia Demokraatlik Liitvabariik","official_name:eu":"Etiopiako Errepublika Federal Demokratikoa","official_name:ext":"Rep\u00fabrica Democr\u00e1tica Federal d'Etiopia","official_name:fa":"\u062c\u0645\u0647\u0648\u0631\u06cc \u062f\u0645\u0648\u06a9\u0631\u0627\u062a\u06cc\u06a9 \u0641\u062f\u0631\u0627\u0644 \u0627\u062a\u06cc\u0648\u067e\u06cc","official_name:fi":"Etiopian demokraattinen liittotasavalta","official_name:fr":"R\u00e9publique f\u00e9d\u00e9rale d\u00e9mocratique d'\u00c9thiopie","official_name:frr":"Demokratisk Bundesrepubliik Etioopien","official_name:fy":"Federale Demokratyske Republyk Etioopje","official_name:ga":"Poblacht Dhaonlathach Fheidear\u00e1lach na hAet\u00f3ipe","official_name:gan":"\u57c3\u585e\u4fc4\u6bd4\u4e9e\u806f\u90a6\u6c11\u4e3b\u5171\u548c\u570b","official_name:gd":"Poblachd Fheadarail Dheamocratach na h-Aeti\u00f2p","official_name:gl":"Rep\u00fablica Democr\u00e1tica Federal de Etiop\u00eda","official_name:gn":"Tet\u00e3 Etiopia","official_name:gu":"\u0ab8\u0a82\u0a98\u0ac0\u0aaf \u0a85\u0aa8\u0ac7 \u0ab2\u0acb\u0a95\u0aa4\u0abe\u0a82\u0aa4\u0acd\u0ab0\u0abf\u0a95 \u0a87\u0aa5\u0abf\u0aaf\u0acb\u0aaa\u0abf\u0aaf\u0abe\u0aa8\u0ac1\u0a82 \u0a97\u0aa3\u0ab0\u0abe\u0a9c\u0acd\u0aaf","official_name:gv":"Pobblaght ny h-Eetoip","official_name:ha":"Jamhuriyar Ethiopia","official_name:he":"\u05d4\u05e8\u05e4\u05d5\u05d1\u05dc\u05d9\u05e7\u05d4 \u05d4\u05d3\u05de\u05d5\u05e7\u05e8\u05d8\u05d9\u05ea \u05d4\u05e4\u05d3\u05e8\u05dc\u05d9\u05ea \u05e9\u05dc \u05d0\u05ea\u05d9\u05d5\u05e4\u05d9\u05d4","official_name:hi":"\u0907\u0925\u093f\u092f\u094b\u092a\u093f\u092f\u093e \u0938\u0902\u0918\u0940\u092f \u0932\u094b\u0915\u0924\u093e\u0902\u0924\u094d\u0930\u093f\u0915 \u0917\u0923\u0930\u093e\u091c\u094d\u092f","official_name:hr":"Savezna Demokratska Republika Etiopija","official_name:hsb":"Etiopiska federalna demokratiska republika","official_name:hu":"Eti\u00f3p Sz\u00f6vets\u00e9gi Demokratikus K\u00f6zt\u00e1rsas\u00e1g","official_name:hy":"\u0535\u0569\u0578\u057e\u057a\u056b\u0561\u0575\u056b \u0534\u0561\u0577\u0576\u0561\u0575\u056b\u0576 \u053a\u0578\u0572\u0578\u057e\u0580\u0564\u0561\u057e\u0561\u0580\u0561\u056f\u0561\u0576 \u0540\u0561\u0576\u0580\u0561\u057a\u0565\u057f\u0578\u0582\u0569\u0575\u0578\u0582\u0576","official_name:ia":"Republica Democratic Federal de Ethiopia","official_name:id":"Republik Demokratik Federal Etiopia","official_name:ig":"Obodo Och\u00edch\u00ec\u00edw\u00fa Ethiopia","official_name:ilo":"Pederal Demokratiko a Republika ti Etiopia","official_name:it":"Repubblica federale democratica dell'Etiopia","official_name:ja":"\u30a8\u30c1\u30aa\u30d4\u30a2\u9023\u90a6\u6c11\u4e3b\u5171\u548c\u56fd","official_name:jam":"Fedaral Dimokratik Ripoblik a Iityuopia","official_name:jv":"R\u00e9publik Dh\u00e9mokratik Federal \u00c9teopiah","official_name:ka":"\u10d4\u10d7\u10d8\u10dd\u10de\u10d8\u10d8\u10e1 \u10e4\u10d4\u10d3\u10d4\u10e0\u10d0\u10ea\u10d8\u10e3\u10da\u10d8 \u10d3\u10d4\u10db\u10dd\u10d9\u10e0\u10d0\u10e2\u10d8\u10e3\u10da\u10d8 \u10e0\u10d4\u10e1\u10de\u10e3\u10d1\u10da\u10d8\u10d9\u10d0","official_name:kg":"Demokrasiyawi Ripeblik Itiopia","official_name:kk":"\u042d\u0444\u0438\u043e\u043f\u0438\u044f \u0424\u0435\u0434\u0435\u0440\u0430\u0442\u0438\u0432\u0442\u0456\u043a \u0414\u0435\u043c\u043e\u043a\u0440\u0430\u0442\u0438\u044f\u043b\u044b\u049b \u0420\u0435\u0441\u043f\u0443\u0431\u043b\u0438\u043a\u0430\u0441\u044b","official_name:kn":"\u0c87\u0ca4\u0cbf\u0caf\u0ccb\u0caa\u0cbf\u0caf \u0cb8\u0c82\u0caf\u0cc1\u0c95\u0ccd\u0ca4 \u0caa\u0ccd\u0cb0\u0c9c\u0cbe\u0cb8\u0ca4\u0ccd\u0ca4\u0cbe\u0ca4\u0ccd\u0cae\u0c95 \u0c97\u0ca3\u0cb0\u0cbe\u0c9c\u0ccd\u0caf","official_name:ko":"\uc5d0\ud2f0\uc624\ud53c\uc544 \uc5f0\ubc29 \ubbfc\uc8fc \uacf5\ud654\uad6d","official_name:ku":"Komara Federal a Demokrat\u00eek a Etiyopya","official_name:kv":"\u042d\u0444\u0438\u043e\u043f\u0438\u044f \u0424\u0435\u0434\u0435\u0440\u0430\u0446\u0438\u044f \u0414\u0435\u043c\u043e\u043a\u0440\u0430\u0442\u0438\u044f \u0420\u0435\u0441\u043f\u0443\u0431\u043b\u0438\u043a\u0430","official_name:lad":"Repuvlika Demokratika Federala de Etiopia","official_name:lb":"Demokratesch Bundesrepublik Ethiopien","official_name:lez":"\u0424\u0435\u0434\u0435\u0440\u0430\u0442\u0438\u0432 \u0414\u0435\u043c\u043e\u043a\u0440\u0430\u0442\u0438\u044f\u0434\u0438\u043d \u0420\u0435\u0441\u043f\u0443\u0431\u043b\u0438\u043a\u0430 \u042d\u0444\u0438\u043e\u043f\u0438\u044f","official_name:lij":"Ityop'iya Federalawi Demokrasiyawi Ripeblik","official_name:lmo":"Rep\u00fcblica Demucratiga Federala d'Etiopia","official_name:lt":"Etiopijos Federacin\u0117 Demokratin\u0117 Respublika","official_name:lv":"Etiopijas Federat\u012bv\u0101 Demokr\u0101tisk\u0101 Republika","official_name:mai":"\u0907\u0925\u093f\u092f\u094b\u092a\u093f\u092f\u093e \u0938\u0902\u0918\u0940\u092f \u0932\u094b\u0915\u0924\u093e\u0902\u0924\u094d\u0930\u093f\u0915 \u0917\u0923\u0930\u093e\u091c\u094d\u092f","official_name:min":"Republik Demokratik Pasarikatan Ethiopia","official_name:mk":"\u0421\u043e\u0458\u0443\u0437\u043d\u0430 \u0414\u0435\u043c\u043e\u043a\u0440\u0430\u0442\u0441\u043a\u0430 \u0420\u0435\u043f\u0443\u0431\u043b\u0438\u043a\u0430 \u0415\u0442\u0438\u043e\u043f\u0438\u0458\u0430","official_name:ml":"\u0d2b\u0d46\u0d21\u0d31\u0d7d \u0d21\u0d46\u0d2e\u0d4b\u0d15\u0d4d\u0d30\u0d3e\u0d31\u0d4d\u0d31\u0d3f\u0d15\u0d4d \u0d31\u0d3f\u0d2a\u0d4d\u0d2a\u0d2c\u0d4d\u0d32\u0d3f\u0d15\u0d4d\u0d15\u0d4d \u0d13\u0d2b\u0d4d \u0d0e\u0d24\u0d4d\u0d2f\u0d4b\u0d2a\u0d4d\u0d2f","official_name:mn":"\u0425\u043e\u043b\u0431\u043e\u043e\u043d\u044b \u0411\u04af\u0433\u0434 \u041d\u0430\u0439\u0440\u0430\u043c\u0434\u0430\u0445 \u0410\u0440\u0434\u0447\u0438\u043b\u0441\u0430\u043d \u042d\u0442\u0438\u043e\u043f \u0423\u043b\u0441","official_name:mr":"\u0907\u0925\u093f\u092f\u094b\u092a\u093f\u092f\u093e\u091a\u0947 \u0938\u0902\u0918\u0940\u092f \u0932\u094b\u0915\u0936\u093e\u0939\u0940 \u092a\u094d\u0930\u091c\u093e\u0938\u0924\u094d\u0924\u093e\u0915","official_name:ms":"Republik Demokratik Persekutuan Habsyah","official_name:my":"\u1016\u1000\u103a\u1012\u101b\u101a\u103a \u1021\u102e\u101e\u102e\u101a\u102d\u102f\u1038\u1015\u102e\u1038\u101a\u102c\u1038 \u1012\u102e\u1019\u102d\u102f\u1000\u101b\u1000\u103a\u1010\u1005\u103a \u101e\u1019\u1039\u1019\u1010\u1014\u102d\u102f\u1004\u103a\u1004\u1036","official_name:mzn":"\u0627\u062a\u06cc\u0648\u067e\u06cc \u0650\u0641\u062f\u0631\u0627\u0644 \u0650\u062f\u0645\u0648\u06a9\u0631\u0627\u062a\u06cc\u06a9 \u062c\u0645\u0647\u0648\u0631\u06cc","official_name:nah":"Nen\u0101huat\u012bliztli Tl\u0101cat\u0113pacholiztli Tl\u0101catlahtohc\u0101y\u014dtl Etiopia","official_name:nan":"Ethiopia Li\u00e2n-pang J\u00een-b\u00een Ki\u014dng-h\u00f4-kok","official_name:nds":"Demokraatsche Bundsrepublik \u00c4thiopien","official_name:ne":"\u0938\u0919\u094d\u0918\u0940\u092f \u0932\u094b\u0915\u0924\u093e\u0928\u094d\u0924\u094d\u0930\u093f\u0915 \u0917\u0923\u0924\u0928\u094d\u0924\u094d\u0930 \u0907\u0925\u093f\u092f\u094b\u092a\u093f\u092f\u093e","official_name:new":"\u0938\u0902\u0918\u0940\u092f \u0917\u0923\u0924\u0928\u094d\u0924\u094d\u0930 \u0907\u0925\u093f\u092f\u094b\u092a\u093f\u092f\u093e","official_name:nl":"Federale Democratische Republiek Ethiopi\u00eb","official_name:nn":"Den f\u00f8derale demokratiske republikken Etiopia","official_name:no":"Den f\u00f8derale demokratiske republikken Etiopia","official_name:nso":"Federal repabliki Ethiopia","official_name:oc":"Republica Federala Democratica d'Etiopia","official_name:om":"Rippabliikii Federaalawaa Dimokraatawaa Itiyoophiyaa","official_name:os":"\u0424\u0435\u0434\u0435\u0440\u0430\u0442\u0438\u0432\u043e\u043d \u0414\u0435\u043c\u043e\u043a\u0440\u0430\u0442\u0438\u043e\u043d \u0420\u0435\u0441\u043f\u0443\u0431\u043b\u0438\u043a\u00e6 \u042d\u0444\u0438\u043e\u043f\u0438","official_name:pa":"\u0a07\u0a25\u0a4b\u0a2a\u0a40\u0a06 \u0a26\u0a3e \u0a38\u0a70\u0a18\u0a40 \u0a32\u0a4b\u0a15\u0a24\u0a70\u0a24\u0a30\u0a40 \u0a17\u0a23\u0a30\u0a3e\u0a1c","official_name:pap":"Republika Federal Demokratiko di Ethiopia","official_name:pl":"Federalna Demokratyczna Republika Etiopii","official_name:pms":"Rep\u00f9blica Democr\u00e0tica Federal d'Eti\u00f2pia","official_name:ps":"\u0627\u06cc\u062a\u0648\u067e\u06cc\u0627 \u0641\u062f\u0631\u0627\u0644\u064a \u062f\u0645\u0648\u06a9\u0631\u0627\u062a\u06cc\u06a9 \u062c\u0645\u0647\u0648\u0631\u06cc\u062a","official_name:pt":"Rep\u00fablica Democr\u00e1tica Federal da Eti\u00f3pia","official_name:qu":"Runakamaq Tantasqa Republika Ithiwpiya","official_name:rm":"Republica federala democrata da l'Etiopia","official_name:ro":"Republica Federal\u0103 Democratic\u0103 a Etiopiei","official_name:roa-tara":"Repubbleche Federale Democrateche d'Etiopie","official_name:ru":"\u0424\u0435\u0434\u0435\u0440\u0430\u0442\u0438\u0432\u043d\u0430\u044f \u0414\u0435\u043c\u043e\u043a\u0440\u0430\u0442\u0438\u0447\u0435\u0441\u043a\u0430\u044f \u0420\u0435\u0441\u043f\u0443\u0431\u043b\u0438\u043a\u0430 \u042d\u0444\u0438\u043e\u043f\u0438\u044f","official_name:sah":"\u042d\u0442\u0438\u043e\u043f\u0438\u044f \u0424\u0435\u0434\u0435\u0440\u0430\u043b \u0414\u0435\u043c\u043e\u043a\u0440\u0430\u0442 \u0420\u0435\u0441\u043f\u0443\u0431\u043b\u0438\u043a\u0430\u0442\u0430","official_name:sc":"Republica Federali de Eti\u00f2pia","official_name:scn":"Rip\u00f9bbrica Fidirali Dimucr\u00e0tica d'Etiopia","official_name:sco":"Federal Democratic Republic o Ethiopie","official_name:sg":"Gb\u00eako K\u00f9od\u00f9or\u00f9os\u00ease t\u00ee Ngunuhal\u00ebzo t\u00ee Etiop\u00efi","official_name:sh":"Savezna Demokratska Republika Etiopija","official_name:si":"\u0d89\u0dad\u0dd2\u0dba\u0ddd\u0db4\u0dd2\u0dba\u0dcf\u0db1\u0dd4 \u0dc6\u0dd9\u0da9\u0dbb\u0dbd\u0dca \u0db4\u0dca\u200d\u0dbb\u0da2\u0dcf\u0dad\u0db1\u0dca\u0dad\u0dca\u200d\u0dbb\u0dc0\u0dcf\u0daf\u0dd3 \u0da2\u0db1\u0dbb\u0da2\u0dba","official_name:sk":"Eti\u00f3pska federat\u00edvna demokratick\u00e1 republika","official_name:sl":"Federat\u00edvna demokr\u00e1ti\u010dna rep\u00fablika Eti\u00f3pija","official_name:sm":"Feterale Faatemokalasi Ripapelika o Aitiope","official_name:so":"Jamhuuriyadda Dimuqraadiga Federaalka Itoobiya","official_name:sr":"\u0421\u0430\u0432\u0435\u0437\u043d\u0430 \u0414\u0435\u043c\u043e\u043a\u0440\u0430\u0442\u0441\u043a\u0430 \u0420\u0435\u043f\u0443\u0431\u043b\u0438\u043a\u0430 \u0415\u0442\u0438\u043e\u043f\u0438\u0458\u0430","official_name:stq":"Demokratiske Buundesrepublik \u00c4thiopien","official_name:su":"R\u00e9publik D\u00e9mokratik F\u00e9deral \u00c9tiopia","official_name:sv":"Demokratiska f\u00f6rbundsrepubliken Etiopien","official_name:sw":"Shirikisho la Jamhuri ya Kidemokrasia ya Ethiopia","official_name:szl":"Federalno Dymokraty\u010dno Republika Etjopije","official_name:ta":"\u0b8e\u0ba4\u0bcd\u0ba4\u0bbf\u0baf\u0bcb\u0baa\u0bcd\u0baa\u0bbf\u0baf\u0b95\u0bcd \u0b95\u0bc2\u0b9f\u0bcd\u0b9f\u0bbe\u0b9f\u0bcd\u0b9a\u0bbf \u0b9a\u0ba9\u0ba8\u0bbe\u0baf\u0b95\u0b95\u0bcd \u0b95\u0bc1\u0b9f\u0bbf\u0baf\u0bb0\u0b9a\u0bc1","official_name:te":"\u0c2b\u0c46\u0c21\u0c30\u0c32\u0c4d \u0c2a\u0c4d\u0c30\u0c1c\u0c3e\u0c24\u0c02\u0c24\u0c4d\u0c30 \u0c17\u0c23\u0c24\u0c02\u0c24\u0c4d\u0c30 \u0c07\u0c25\u0c3f\u0c2f\u0c4b\u0c2a\u0c3f\u0c2f\u0c3e","official_name:th":"\u0e2a\u0e2b\u0e1e\u0e31\u0e19\u0e18\u0e4c\u0e2a\u0e32\u0e18\u0e32\u0e23\u0e13\u0e23\u0e31\u0e10\u0e1b\u0e23\u0e30\u0e0a\u0e32\u0e18\u0e34\u0e1b\u0e44\u0e15\u0e22\u0e40\u0e2d\u0e18\u0e34\u0e42\u0e2d\u0e40\u0e1b\u0e35\u0e22","official_name:tk":"Efiopi\u00fda Federatiw Demokratik Respublikasy","official_name:tl":"Demokratikong Republikang Pederal ng Ethiopia","official_name:tr":"Etiyopya Federal Demokratik Cumhuriyeti","official_name:tt":"\u0425\u04d9\u0431\u04d9\u0448\u0441\u0442\u0430\u043d \u0424\u0435\u0434\u0435\u0440\u0430\u0442\u0438\u0432 \u0414\u0435\u043c\u043e\u043a\u0440\u0430\u0442\u0438\u043a \u0496\u04e9\u043c\u04bb\u04af\u0440\u0438\u044f\u0442\u0435","official_name:uk":"\u0424\u0435\u0434\u0435\u0440\u0430\u0442\u0438\u0301\u0432\u043d\u0430 \u0414\u0435\u043c\u043e\u043a\u0440\u0430\u0442\u0438\u0301\u0447\u043d\u0430 \u0420\u0435\u0441\u043f\u0443\u0301\u0431\u043b\u0456\u043a\u0430 \u0415\u0444\u0456\u043e\u0301\u043f\u0456\u044f","official_name:ur":"\u0648\u0641\u0627\u0642\u06cc \u062c\u0645\u06c1\u0648\u0631\u06cc \u062c\u0645\u06c1\u0648\u0631\u06cc\u06c1 \u0627\u06cc\u062a\u06be\u0648\u067e\u06cc\u0627","official_name:uz":"Efiopiya Federativ Demokratik Respublikasi","official_name:vec":"Republica Democratica Federale de l'Etiopia","official_name:vep":"Efiopijan Federativine Demokratine Tazovaldkund","official_name:vi":"C\u1ed9ng h\u00f2a D\u00e2n ch\u1ee7 Li\u00ean bang Ethiopia","official_name:vro":"Etioopia Demokraatlin\u00f5 Liitvabariik","official_name:wo":"R\u00e9ewum Ecoopi","official_name:wuu":"\u57c3\u585e\u4fc4\u6bd4\u4e9e\u806f\u90a6\u6c11\u4e3b\u5171\u548c\u570b","official_name:xmf":"\u10d4\u10d7\u10d8\u10dd\u10de\u10d8\u10d0\u10e8 \u10e4\u10d4\u10d3\u10d4\u10e0\u10d0\u10ea\u10d8\u10e3\u10da\u10d8 \u10d3\u10d4\u10db\u10dd\u10d9\u10e0\u10d0\u10e2\u10d8\u10e3\u10da\u10d8 \u10e0\u10d4\u10e1\u10de\u10e3\u10d1\u10da\u10d8\u10d9\u10d0","official_name:yi":"\u05e4\u05e2\u05d3\u05e2\u05e8\u05d0\u05dc\u05e2 \u05d3\u05e2\u05de\u05d0\u05e7\u05e8\u05d0\u05d8\u05d9\u05e9\u05e2 \u05e8\u05e2\u05e4\u05d5\u05d1\u05dc\u05d9\u05e7 \u05e4\u05d5\u05df \u05e2\u05d8\u05d9\u05d0\u05e4\u05d9\u05e2","official_name:yue":"\u57c3\u585e\u4fc4\u6bd4\u4e9e\u806f\u90a6\u6c11\u4e3b\u5171\u548c\u570b","official_name:zea":"Federale Democratische Republiek Ethiopi\u00eb","official_name:zh":"\u57c3\u585e\u4fc4\u6bd4\u4e9a\u8054\u90a6\u6c11\u4e3b\u5171\u548c\u56fd","old_name":"Abyssinia","old_name:az":"H\u0259b\u0259\u015fistan","old_name:bar":"Abessinien","old_name:ce":"\u0410\u0431\u0438\u0441\u0441\u0438\u043d\u0438","old_name:cs":"Habe\u0161","old_name:de":"Abessinien","old_name:eo":"Abisenio","old_name:es":"Abisinia","old_name:ext":"Abisinia","old_name:fi":"Abessinia","old_name:fr":"Abessinien","old_name:ig":"Oromo","old_name:io":"Abisinia","old_name:it":"Abissinia","old_name:kn":"\u0c85\u0cac\u0cbf\u0cb8\u0cbf\u0ca8\u0cbf\u0caf\u0cbe","old_name:ku":"Hebe\u015f\u00eestan","old_name:la":"Abyssinia","old_name:lez":"\u0410\u0431\u0438\u0441\u0441\u0438\u043d\u0438\u044f","old_name:pam":"Abyssinia","old_name:rm":"Abessinia","old_name:roa-tara":"Abissinie","old_name:ru":"\u0410\u0431\u0438\u0441\u0441\u0438\u043d\u0438\u044f","old_name:sk":"Abes\u00ednia;Abes\u00ednsko","old_name:sl":"Abesinija","old_name:sq":"Absinia","old_name:stq":"Abessinien","old_name:uz":"Habashiston","old_name:vep":"Abissinii","population":"126527060","short_name":"\u12a2.\u134c.\u12f2.\u122a.","short_name:am":"\u12a2.\u134c.\u12f2.\u122a.","short_name:be":"\u0424\u0414\u0420\u042d","short_name:be-tarask":"\u0424\u0414\u0420\u042d","short_name:es":"RDFE","source:population":"https:\/\/en.wikipedia.org\/wiki\/List_of_countries_by_population_(United_Nations)","timezone":"Africa\/Addis_Ababa","type":"boundary","wikidata":"Q115","wikipedia":"am:\u12a2\u1275\u12ee\u1335\u12eb"},"timestamp":1716078538,"representative_point":{"type":"Point","coordinates":[38.993477899769616,9.1462539]}},"geometry":{"type":"Polygon","coordinates":[[[34.106678,9.500001],[34.141982,8.601771],[33.7691995,8.3677696],[33.2191295,8.4355239],[33.004727,7.858829],[33.715563,7.66314],[34.293094,6.948005],[34.939003,6.558017],[35.126028,5.624417],[35.316011,5.334822],[35.8623387,5.3201798],[35.8179366,4.7742096],[35.944231,4.6191361],[36.0413552,4.4475512],[37.0321098,4.3832268],[38.1298881,3.605822],[38.5393119,3.6542229],[39.5437064,3.3976311],[39.8695679,3.8747265],[40.7595828,4.2849426],[41.1692657,3.94258],[41.9067502,3.9826836],[42.0873715,4.1791126],[42.8249036,4.2667552],[43.0793021,4.6021624],[43.5522006,4.8352947],[44.9780113,4.9233834],[45.4109297,5.5363816],[47.9823797,7.9997734],[46.9931464,8.0015542],[43.9966517,8.999778],[43.4635587,9.4157664],[42.832803,10.2779176],[42.7098797,10.6221873],[42.96164,10.98441],[42.6288858,11.0955791],[41.7942546,10.9793795],[41.8334054,11.7280512],[42.4041794,12.4686245],[40.9433496,14.0802764],[40.132839,14.546634],[39.930448,14.415153],[39.586794,14.609022],[39.250771,14.410326],[39.1538777,14.6532459],[38.4552965,14.4132644],[37.9138076,14.8942969],[37.5237608,14.1823795],[37.3091138,14.447924],[37.0197248,14.2521329],[36.5602137,14.257558],[36.1424724,12.707574],[35.699444,12.665833],[35.096944,11.826944],[34.864444,10.735],[34.594444,10.887778],[34.2960913,10.5692223],[34.347778,10.231944],[34.106678,9.500001]]]}}