{"type":"Feature","properties":{"tags":{"ISO3166-1":"FK","ISO3166-1:alpha2":"FK","ISO3166-1:alpha3":"FLK","ISO3166-1:numeric":"238","admin_level":"2","alt_name:cs":"Malv\u00edny","alt_name:de":"Malwinen","alt_name:eo":"Malvinoj","alt_name:es":"Islas Falkland","alt_name:it":"Isole Malvine","alt_name:mk":"\u041c\u0430\u043b\u0432\u0438\u043d\u0441\u043a\u0438 \u041e\u0441\u0442\u0440\u043e\u0432\u0438","alt_name:pl":"Malwiny","boundary":"administrative","capital_city":"Stanley","country_code":"FLK","default_language":"en","disputed":"yes","flag":"http:\/\/upload.wikimedia.org\/wikipedia\/commons\/8\/83\/Flag_of_the_Falkland_Islands.svg","int_name":"Falkland Islands (Malvinas)","maritime":"yes","name":"Falkland Islands","name:af":"Falklandeilande","name:ak":"F\u0254lkman Aeland","name:am":"\u134e\u12ad\u120b\u1295\u12f5 \u12f0\u1234\u1276\u127d (\u12a2\u1235\u120b\u1235 \u121b\u120d\u126a\u1293\u1235)","name:ar":"\u062c\u0632\u0631 \u0627\u0644\u0641\u0648\u0644\u0643\u0644\u0627\u0646\u062f","name:ast":"Islles Malvines","name:az":"Folkland Adalar\u0131","name:be":"\u0424\u0430\u043b\u043a\u043b\u0435\u043d\u0434\u0441\u043a\u0456\u044f \u0430\u0441\u0442\u0440\u0430\u0432\u044b","name:bg":"\u0424\u043e\u043b\u043a\u043b\u0430\u043d\u0434\u0441\u043a\u0438 \u043e\u0441\u0442\u0440\u043e\u0432\u0438 (\u041c\u0430\u043b\u0432\u0438\u043d\u0438)","name:bm":"Maluwini Gun","name:bn":"\u09ab\u0995\u09b2\u09cd\u09af\u09be\u09a8\u09cd\u09a1 \u0986\u0987\u09b2\u09cd\u09af\u09be\u09a8\u09cd\u09a1 (\u0987\u09b8\u09b2\u09cd\u09af\u09be\u09b8 \u09ae\u09be\u09b8\u09ad\u09c7\u09a8\u09bf\u09b8)","name:bo":"\u0f55\u0f63\u0f90\u0f0b\u0f63\u0f53\u0f9c\u0f0b\u0f42\u0fb3\u0f72\u0f44\u0f0b\u0f55\u0fb2\u0f53\u0f0d","name:br":"Inizi Falkland (Inizi Malo\u00f9)","name:bs":"Folklandska ostrva (Malvinska ostrva)","name:ca":"Illes Malvines","name:chr":"\u13e9\u13a9 \u13a4\u13a6\u13da\u13db (\u13a2\u13cd\u13b3\u13cd \u13b9\u13b8\u13eb\u13be\u13cd)","name:ckb":"\u062f\u0648\u0648\u0631\u06af\u06d5\u06a9\u0627\u0646\u06cc \u0641\u06c6\u06b5\u06a9\u0644\u0627\u0646\u062f","name:cs":"Falklandy","name:cy":"Ynysoedd y Falklands","name:da":"Falklands\u00f8erne","name:de":"Falklandinseln","name:dz":"\u0f55\u0f63\u0f90\u0f0b\u0f63\u0f53\u0f9c\u0f0b\u0f42\u0fb3\u0f72\u0f44\u0f0b\u0f5a\u0f7c\u0f58 (\u0f68\u0f72\u0f66\u0f0b\u0f63\u0f71\u0f66\u0f0b\u0f58\u0f63\u0f0b\u0f56\u0f72\u0f0b\u0f4e\u0f71\u0f66)","name:ee":"Falkland \u0192udomekpowo (Islas Malvinas) nutome","name:el":"\u039d\u03ae\u03c3\u03bf\u03b9 \u03a6\u03ce\u03ba\u03bb\u03b1\u03bd\u03c4","name:en":"Falkland Islands","name:eo":"Falklandoj","name:es":"Islas Malvinas","name:et":"Falklandi saared","name:eu":"Falkland uharteak (Malvina uharteak)","name:fa":"\u062c\u0632\u0627\u06cc\u0631 \u0641\u0627\u0644\u06a9\u0644\u0646\u062f","name:ff":"Duu\u0257e Falkland","name:fi":"Falklandinsaaret","name:fo":"Falklandsoyggjarnar","name:fr":"\u00celes Malouines (\u00celes Falkland)","name:fur":"Isulis Falkland (Isulis Malvinas)","name:fy":"Falkl\u00e2neilannen","name:ga":"Oile\u00e1in Fh\u00e1clainne","name:gd":"Na h-Eileanan F\u00e0clainn","name:gl":"Illas Malvinas","name:gu":"\u0aab\u0ac9\u0a95\u0ab2\u0ac7\u0aa8\u0acd\u0aa1 \u0a86\u0a87\u0ab2\u0ac7\u0aa8\u0acd\u0aa1\u0acd\u0ab8","name:gv":"Ny Malveenaghyn","name:ha":"Tsibiran Falkilan","name:hak":"Falkland Khi\u00f9n-t\u00f3","name:he":"\u05d0\u05d9\u05d9 \u05e4\u05d5\u05e7\u05dc\u05e0\u05d3 (\u05de\u05dc\u05d5\u05d5\u05d9\u05e0\u05e1)","name:hi":"\u092b\u093c\u0949\u0915\u0932\u0948\u0902\u0921 \u0906\u0907\u0932\u0948\u0902\u0921 (\u0907\u091c\u094d\u0932\u093e\u0938 \u092e\u093e\u0932\u094d\u0935\u093f\u0928\u093e\u0938)","name:hr":"Falklandski Otoci","name:hu":"Falkland-szigetek","name:id":"Kepulauan Falkland","name:is":"Falklandseyjar","name:it":"Isole Falkland","name:ja":"\u30d5\u30a9\u30fc\u30af\u30e9\u30f3\u30c9\u8af8\u5cf6 (\u30de\u30eb\u30d3\u30ca\u30b9\u8af8\u5cf6)","name:ka":"\u10e4\u10d0\u10da\u10d9\u10da\u10d4\u10dc\u10d3\u10d8\u10e1 \u10d9\u10e3\u10dc\u10eb\u10e3\u10da\u10d4\u10d1\u10d8","name:kab":"Tigzirin n Falkland","name:ki":"Visiwa vya Falkland","name:kl":"Falklandi qeqertaq","name:km":"\u1780\u17c4\u17c7\u200b\u17a0\u17d2\u179c\u1780\u17cb\u17a1\u17c2\u1793 (Islas Malvinas)","name:kn":"\u0cab\u0cbe\u0cb2\u0ccd\u0c95\u0ccd\u200c\u0cb2\u0ccd\u0caf\u0cbe\u0c82\u0ca1\u0ccd \u0ca6\u0ccd\u0cb5\u0cc0\u0caa\u0c97\u0cb3\u0cc1 (\u0c87\u0cb8\u0ccd\u0cb2\u0cbe\u0cb8\u0ccd \u0cae\u0cbe\u0cb2\u0ccd\u0cb5\u0cbf\u0ca8\u0cb8\u0ccd)","name:ko":"\ud3ec\ud074\ub79c\ub4dc \uc81c\ub3c4 (\ub9d0\ube44\ub098\uc2a4 \uad70\ub3c4)","name:ks":"\u0641\u0655\u0644\u0627\u06a9\u0644\u06cc\u0646\u065b\u0691 \u062c\u0654\u0632\u06cc\u0656\u0631\u0655","name:ksh":"de malleviinesche Enselle","name:ku":"Girav\u00ean Malv\u00een","name:la":"Insulae Malvinae","name:lb":"Falkland Inselen","name:lg":"Bizinga by'eFalikalandi","name:ln":"Bisanga bya Falkland","name:lo":"\u0eab\u0ea1\u0eb9\u0ec8\u0ec0\u0e81\u0eb2\u0eb0\u0e9f\u0ead\u0e81\u0ec1\u0ea5\u0e99 (\u0ead\u0eb4\u0eaa\u0ea5\u0eb2\u0eaa \u0ea1\u0eb2\u0ea7\u0eb4\u0ea5\u0e99\u0eb2\u0eaa)","name:lt":"Folklando (Malvin\u0173) Salos","name:lv":"Folklenda salas","name:mg":"Nosy Falkand","name:mk":"\u0424\u043e\u043b\u043a\u043b\u0430\u043d\u0434\u0441\u043a\u0438 \u041e\u0441\u0442\u0440\u043e\u0432\u0438","name:ml":"\u0d2b\u0d4b\u0d15\u0d4d\u0d7f\u0d32\u0d7b\u0d21\u0d4d \u0d26\u0d4d\u0d35\u0d40\u0d2a\u0d41\u0d15\u0d7e (\u0d2e\u0d7d\u0d35\u0d3f\u0d28\u0d3e\u0d38\u0d4d)","name:mn":"\u0424\u043e\u043b\u043a\u043b\u0435\u043d\u0434\u0438\u0439\u043d \u0410\u0440\u043b\u0443\u0443\u0434","name:mr":"\u092b\u0949\u0915\u0932\u0902\u0921 \u092c\u0947\u091f\u0947 (\u0907\u0938\u094d\u0932\u093e\u0938 \u092e\u093e\u0932\u0935\u093f\u0928\u093e\u0938)","name:ms":"Kepulauan Falkland (Islas Malvinas)","name:mt":"Falkland Islands","name:my":"\u1016\u1031\u102c\u1000\u103a\u1000\u101c\u1014\u103a \u1000\u103b\u103d\u1014\u103a\u1038\u1005\u102f","name:nan":"Falkland K\u00fbn-t\u00f3","name:ne":"\u092b\u0915\u094d\u0932\u094d\u092f\u093e\u0923\u094d\u0921 \u091f\u093e\u092a\u0941\u0939\u0930\u0942 (\u0907\u091c\u094d\u0932\u093e\u0938 \u092e\u093e\u0932\u094d\u092d\u093f\u0928\u093e\u0938)","name:nl":"Falklandeilanden","name:nn":"Falklands\u00f8yane","name:no":"Falklands\u00f8yene","name:or":"\u0b2b\u0b32\u0b4d\u0b15\u0b32\u0b4d\u0b5f\u0b3e\u0b23\u0b4d\u0b21 \u0b26\u0b4d\u0b2c\u0b40\u0b2a\u0b2a\u0b41\u0b1e\u0b4d\u0b1c","name:pl":"Falklandy","name:pt":"Ilhas Malvinas","name:rm":"Inslas dal Falkland","name:rn":"Izinga rya Filikilandi","name:ro":"Insulele Falkland","name:ru":"\u0424\u043e\u043b\u043a\u043b\u0435\u043d\u0434\u0441\u043a\u0438\u0435 \u043e\u0441\u0442\u0440\u043e\u0432\u0430","name:se":"Falklandsullot","name:sg":"\u00c2z\u00fb\u00e2 t\u00ee M\u00e4l\u00fc\u00eeni","name:si":"\u0dc6\u0ddd\u0d9a\u0dca\u0dbd\u0db1\u0dca\u0dad \u0daf\u0dd6\u0db4\u0dad\u0dca (\u0d85\u0dba\u0dd2\u0dbd\u0dc3\u0dca \u0db8\u0dbd\u0dca\u0dc0\u0dd2\u0dba\u0db1\u0dcf\u0dc3\u0dca)","name:sk":"Falklandy","name:sl":"Falklandi","name:sn":"Zvitsuwa zveFalklands","name:so":"Jaziiradaha Fooklaan","name:sr":"\u0424\u043e\u043a\u043b\u0430\u043d\u0434\u0441\u043a\u0430 (\u041c\u0430\u043b\u0432\u0438\u043d\u0441\u043a\u0430) \u041e\u0441\u0442\u0440\u0432\u0430","name:sv":"Falklands\u00f6arna","name:sw":"Visiwa vya Falklandi (Islas Malvinas)","name:ta":"\u0b83\u0baa\u0bbe\u0b95\u0bcd\u0bb2\u0bbe\u0ba8\u0bcd\u0ba4\u0bc1 \u0ba4\u0bc0\u0bb5\u0bc1\u0b95\u0bb3\u0bcd (\u0b87\u0bb8\u0bcd\u0bb2\u0bbe\u0bb8\u0bcd \u0bae\u0bbe\u0bb2\u0bcd\u0bb5\u0bbf\u0ba9\u0bb8\u0bcd)","name:te":"\u0c2b\u0c3e\u0c15\u0c4d \u0c32\u0c47\u0c02\u0c21\u0c4d \u0c26\u0c40\u0c35\u0c41\u0c32\u0c41 (\u0c07\u0c38\u0c4d\u0c32\u0c3e\u0c38\u0c4d \u0c2e\u0c3e\u0c32\u0c4d\u0c35\u0c3f\u0c28\u0c3e\u0c38\u0c4d)","name:th":"\u0e2b\u0e21\u0e39\u0e48\u0e40\u0e01\u0e32\u0e30\u0e1f\u0e2d\u0e25\u0e4c\u0e01\u0e41\u0e25\u0e19\u0e14\u0e4c","name:ti":"\u12e8\u134e\u120d\u12ad\u120b\u1295\u12f5 \u12f0\u1234\u1276\u127d","name:tl":"Kapuluang Falkland (Kapuluang Malvinas)","name:to":"\u02bbOtumotu Fokuleni","name:tr":"Falkland Adalar\u0131","name:tt":"\u0424\u043e\u043b\u043a\u043b\u0435\u043d\u0434 \u0443\u0442\u0440\u0430\u0443\u043b\u0430\u0440\u044b","name:uk":"\u0424\u043e\u043b\u043a\u043b\u0435\u043d\u0434\u0441\u044c\u043a\u0456 \u043e\u0441\u0442\u0440\u043e\u0432\u0438","name:ur":"\u0641\u0627\u06a9\u0644\u06cc\u0646\u0688 \u0622\u0626\u0644\u06cc\u0646\u0688\u0632 (\u0627\u0632\u0644\u0627\u0633 \u0645\u0627\u0644\u0648\u06cc\u0646\u0633)","name:vi":"Qu\u1ea7n \u0111\u1ea3o Falkland","name:yo":"Or\u00edl\u1eb9\u0301\u00e8de Etikun Fakalandi","name:zh":"\u798f\u514b\u5170\u7fa4\u5c9b \/ \u798f\u514b\u862d\u7fa4\u5cf6","name:zh-Hans":"\u798f\u514b\u5170\u7fa4\u5c9b","name:zh-Hant":"\u798f\u514b\u862d\u7fa4\u5cf6","name:zu":"i-Falkland Islands (i-Islas Malvinas)","note:name":"OSM policy is that the 'name' to be used is that spoken by the inhabitants. Plural. Malvinas is the Spanish name, and is entered in name:es. The UN naming convention is shown as 'int_name'","official_name":"Falkland Islands","official_name:cs":"Falklandsk\u00e9 ostrovy (Malv\u00edny)","official_name:en":"Falkland Islands","official_name:eo":"Insuloj Falklandoj","official_name:es":"Islas Malvinas","official_name:fr":"\u00celes Falkland (\u00celes Malouines)","official_name:lv":"Folklenda salas","short_name:cs":"Falklandy","timezone":"Atlantic\/Stanley","type":"boundary","wikidata":"Q9648"},"timestamp":1716078538,"representative_point":{"type":"Point","coordinates":[-59.5153026863469,-51.71577765]}},"geometry":{"type":"MultiPolygon","coordinates":[[[[-61.7473718,-50.9187836],[-61.5994461,-51.177011],[-61.6360667,-51.9242084],[-60.7313259,-52.4530157],[-58.7872839,-52.6385132],[-57.3673123,-51.6983125],[-57.4303138,-51.4303421],[-57.8482564,-51.1713441],[-61.2694757,-50.8018944],[-61.7473718,-50.9187836]]],[[[-59.5240977,-52.9051012],[-59.201841,-53.1186766],[-58.8460199,-52.8935008],[-59.1586234,-52.6919878],[-59.5240977,-52.9051012]]]]}}