{"type":"Feature","properties":{"tags":{"ISO3166-1":"GB","ISO3166-1:alpha2":"GB","ISO3166-1:alpha3":"GBR","ISO3166-1:numeric":"826","admin_level":"2","alt_name:be":"\u0412\u044f\u043b\u0456\u043a\u0430\u044f \u0411\u0440\u044b\u0442\u0430\u043d\u0456\u044f;\u0411\u0440\u044b\u0442\u0430\u043d\u0456\u044f;\u0417\u043b\u0443\u0447\u0430\u043d\u0430\u0435 \u041a\u0430\u0440\u0430\u043b\u0435\u045e\u0441\u0442\u0432\u0430","alt_name:eo":"Britio;Britujo","boundary":"administrative","currency":"GBP","default_language":"en","driving_side":"left","flag":"https:\/\/upload.wikimedia.org\/wikipedia\/commons\/a\/ae\/Flag_of_the_United_Kingdom.svg","int_name":"United Kingdom","name":"United Kingdom","name:ab":"\u0411\u0440\u0438\u0442\u0430\u043d\u0438\u0430 \u0414\u0443","name:ace":"Keurajeu\u00ebn Inggr\u00e9h","name:ady":"\u0411\u0440\u0438\u0442\u0430\u043d\u0438\u0435\u0448\u0445\u043e \u041f\u0430\u0447\u044a\u044b\u0445\u044c\u044b\u0433\u044a\u043e","name:af":"Verenigde Koninkryk","name:ak":"United Kingdom","name:als":"Vereinigtes K\u00f6nigreich","name:am":"\u12e9\u1293\u12ed\u1275\u12f5 \u12aa\u1295\u130d\u12f0\u121d","name:an":"Reino Unito","name:ang":"Ge\u0101ned Cyner\u012bce","name:ar":"\u0627\u0644\u0645\u0645\u0644\u0643\u0629 \u0627\u0644\u0645\u062a\u062d\u062f\u0629","name:arc":"\u0721\u0720\u071f\u0718\u072c\u0710 \u0721\u071a\u071d\u0715\u072c\u0710","name:ary":"\u0644\u0645\u0645\u0644\u0643\u0629 \u0644\u0645\u062a\u062d\u062f\u0629","name:arz":"\u0627\u0644\u0645\u0645\u0644\u0643\u0647 \u0627\u0644\u0645\u062a\u062d\u062f\u0647","name:as":"\u09af\u09c1\u0995\u09cd\u09a4\u09f0\u09be\u099c\u09cd\u09af","name:ast":"Reinu Xun\u00edu","name:av":"\u041a\u04cf\u0443\u0434\u0430\u0431\u0438\u0440\u0438\u0442\u0430\u043d","name:avk":"Tanaragazaxo","name:awa":"\u092f\u0942\u0928\u093e\u0907\u091f\u0947\u0921 \u0915\u093f\u0902\u0917\u0921\u092e","name:az":"B\u00f6y\u00fck Britaniya","name:azb":"\u0628\u06cc\u0631\u0644\u0634\u0645\u06cc\u0634 \u0634\u0627\u0647\u0644\u06cc\u0642","name:ba":"\u0411\u04e9\u0439\u04e9\u043a \u0411\u0440\u0438\u0442\u0430\u043d\u0438\u044f","name:ban":"Britania Agung","name:bar":"Vaeinigts Kinireich","name:bat-smg":"Jongt\u0117n\u0117 Karal\u012bst\u0117","name:bcl":"Reyno Unido","name:be":"\u0412\u044f\u043b\u0456\u043a\u0430\u0431\u0440\u044b\u0442\u0430\u043d\u0456\u044f","name:be-tarask":"\u0412\u044f\u043b\u0456\u043a\u0430\u0431\u0440\u044b\u0442\u0430\u043d\u0456\u044f","name:bg":"\u041e\u0431\u0435\u0434\u0438\u043d\u0435\u043d\u043e \u043a\u0440\u0430\u043b\u0441\u0442\u0432\u043e \u0412\u0435\u043b\u0438\u043a\u043e\u0431\u0440\u0438\u0442\u0430\u043d\u0438\u044f \u0438 \u0421\u0435\u0432\u0435\u0440\u043d\u0430 \u0418\u0440\u043b\u0430\u043d\u0434\u0438\u044f","name:bh":"\u092f\u0942\u0928\u093e\u0907\u091f\u0947\u0921 \u0915\u093f\u0902\u0917\u0921\u092e","name:bi":"Unaeted Kingdom","name:bjn":"Britania Raya","name:bn":"\u09af\u09c1\u0995\u09cd\u09a4\u09b0\u09be\u099c\u09cd\u09af","name:bo":"\u0f51\u0f56\u0fb1\u0f72\u0f53\u0f0b\u0f47\u0f72\u0f0b\u0f58\u0f49\u0f58\u0f0b\u0f60\u0f56\u0fb2\u0f7a\u0f63\u0f0d","name:bpy":"\u09a4\u09bf\u09b2\u09aa\u09be\u09b0\u09be\u099c\u09cd\u09af","name:br":"Rouantelezh-Unanet","name:bs":"Ujedinjeno Kraljevstvo Velike Britanije i Sjeverne Irske","name:bug":"United Kingdom","name:bxr":"\u041d\u044d\u0433\u0434\u0441\u044d\u043d \u0412\u0430\u043d\u0442 \u0423\u043b\u0441","name:ca":"Regne Unit","name:cbk-zam":"Reinos Unidos de Gran Britania y Norte Irelandia","name:cdo":"\u012cng-gu\u00f3k","name:ce":"\u0419\u043e\u043a\u043a\u0445\u0430 \u0411\u0440\u0438\u0442\u0430\u043d\u0438","name:ceb":"Hiniusang Gingharian","name:ch":"Reinu Unidu","name:chr":"\u13a1\u13b5\u13cf\u13af","name:chy":"United Kingdom","name:ckb":"\u0634\u0627\u0646\u0634\u06cc\u0646\u06cc \u06cc\u06d5\u06a9\u06af\u0631\u062a\u0648\u0648","name:co":"Regnu Unitu","name:crh":"B\u00fcy\u00fck Britaniya","name:cs":"Spojen\u00e9 kr\u00e1lovstv\u00ed","name:csb":"Wi\u00f4lg\u00f4 Britanij\u00f4","name:cu":"\u0412\u0454\u043b\u0438\u043a\u0430 \u0411\u0440\u0438\u0442\u0430\u043d\u0457\ua657","name:cv":"\u0410\u0441\u043b\u0103 \u0411\u0440\u0438\u0442\u0430\u043d\u0438","name:cy":"Deyrnas Unedig","name:da":"Storbritannien","name:de":"Vereinigtes K\u00f6nigreich","name:din":"Amatnhom M\u00e4c\u014baknhom","name:diq":"Qraliya Yewbiyayiye","name:dsb":"Wjelika Britaniska","name:dty":"\u0938\u0902\u092f\u0941\u0915\u094d\u0924 \u0905\u0927\u093f\u0930\u093e\u091c\u094d\u092f","name:dv":"\u0794\u07aa\u0782\u07a6\u0787\u07a8\u0793\u07ac\u0791\u07b0 \u0786\u07a8\u0782\u07b0\u078e\u07b0\u0791\u07a6\u0789\u07b0","name:dz":"\u0f61\u0f74\u0f0b\u0f53\u0f60\u0f72\u0f0b\u0f4a\u0f7a\u0f4a\u0f0b\u0f40\u0f72\u0f44\u0f0b\u0f4c\u0f58","name:ee":"United Kingdom","name:el":"\u0397\u03bd\u03c9\u03bc\u03ad\u03bd\u03bf \u0392\u03b1\u03c3\u03af\u03bb\u03b5\u03b9\u03bf","name:eml":"R\u00e9gn Un\u00ee","name:en":"United Kingdom","name:eo":"Unui\u011dinta Re\u011dlando","name:es":"Reino Unido","name:et":"Suurbritannia","name:eu":"Erresuma Batua","name:ext":"R\u00e9inu Uniu","name:fa":"\u0628\u0631\u06cc\u062a\u0627\u0646\u06cc\u0627","name:ff":"Biritaani-Mawndi","name:fi":"Yhdistynyt kuningaskunta","name:fj":"Matanitu Cokovata","name:fo":"St\u00f3ra Bretland","name:fr":"Royaume-Uni","name:frp":"Roy\u00f4mo-Uni","name:frr":"Feriind Kiningrik","name:fur":"Ream Un\u00eet","name:fy":"Feriene Keninkryk","name:ga":"An R\u00edocht Aontaithe","name:gag":"B\u00fc\u00fck Britaniya","name:gan":"\u82f1\u570b","name:gcr":"Rw\u00e9yonm-Ini","name:gd":"An R\u00ecoghachd Aonaichte","name:gl":"Reino Unido","name:gn":"Tavet\u00e3 Joaju","name:gom":"\u092f\u0941\u0928\u093e\u092f\u091f\u0947\u0921 \u0915\u093f\u0902\u0917\u0921\u092e","name:gu":"\u0aaf\u0ac1\u0aa8\u0abe\u0a87\u0a9f\u0ac7\u0aa1 \u0a95\u0abf\u0a82\u0a97\u0aa1\u0aae","name:gv":"Reeriaght Unnaneysit","name:ha":"Birtaniya","name:hak":"Y\u00een-koet","name:haw":"Aupuni M\u014d\u02bb\u012b Hui P\u016b \u02bbia","name:he":"\u05d4\u05de\u05de\u05dc\u05db\u05d4 \u05d4\u05de\u05d0\u05d5\u05d7\u05d3\u05ea","name:hi":"\u092f\u0942\u0928\u093e\u0907\u091f\u0947\u0921 \u0915\u093f\u0902\u0917\u0921\u092e","name:hif":"United Kingdom","name:hr":"Ujedinjeno Kraljevstvo","name:hsb":"Zjedno\u0107ene kralestwo","name:ht":"Way\u00f2m Ini","name:hu":"Egyes\u00fclt Kir\u00e1lys\u00e1g","name:hy":"\u0544\u056b\u0561\u0581\u0575\u0561\u056c \u0539\u0561\u0563\u0561\u057e\u0578\u0580\u0578\u0582\u0569\u0575\u0578\u0582\u0576","name:ia":"Regno Unite","name:id":"Britania Raya","name:ie":"Reyatu Unit","name:ig":"Obodo\u00e9z\u00e8 N\u00e0 Of\u00fa","name:ik":"Tannapta Umialgutia","name:ilo":"Nagkaykaysa a Pagarian","name:inh":"\u0412\u0435\u043b\u0438\u043a\u043e\u0431\u0440\u0438\u0442\u0430\u043d\u0438","name:io":"Unionita Rejio","name:is":"Bretland","name:it":"Regno Unito","name:iu":"\u1450\u14d7\u1403\u1466 \u14c4\u14c8\u1466","name:ja":"\u30a4\u30ae\u30ea\u30b9","name:jam":"Yunaitid Kindom","name:jbo":"ritygu'e","name:jv":"Britania Raya","name:ka":"\u10d2\u10d0\u10d4\u10e0\u10d7\u10d8\u10d0\u10dc\u10d4\u10d1\u10e3\u10da\u10d8 \u10e1\u10d0\u10db\u10d4\u10e4\u10dd","name:kaa":"Ull\u0131 Britaniya","name:kab":"Legliz","name:kbd":"\u0411\u0440\u0438\u0442\u0430\u043d\u0438\u044d\u0448\u0445\u0443\u044d","name:kg":"Royaume-Uni","name:ki":"United Kingdom","name:kk":"\u04b0\u043b\u044b\u0431\u0440\u0438\u0442\u0430\u043d\u0438\u044f","name:kl":"Tuluit Nunaat","name:km":"\u179a\u17b6\u1787\u17b6\u178e\u17b6\u1785\u1780\u17d2\u179a\u179a\u17bd\u1798","name:kn":"\u0caf\u0cc1\u0ca8\u0cc8\u0c9f\u0cc6\u0ca1\u0ccd \u0c95\u0cbf\u0c82\u0c97\u0ccd\u200c\u0ca1\u0c82","name:ko":"\uc601\uad6d","name:koi":"\u042b\u0434\u0436\u044b\u0442 \u0411\u0440\u0438\u0442\u043c\u0443","name:krc":"\u0423\u043b\u043b\u0443 \u0411\u0440\u0438\u0442\u0430\u043d\u0438\u044f","name:ksh":"Jru\u00dfbritannie","name:ku":"Keyaniya Yekb\u00fby\u00ee","name:kv":"\u042b\u0434\u0436\u044b\u0434 \u0411\u0440\u0438\u0442\u0430\u043d\u0438\u044f","name:kw":"Ruvaneth Unys","name:ky":"\u0423\u043b\u0443\u0443 \u0411\u0440\u0438\u0442\u0430\u043d\u0438\u044f \u0436\u0430\u043d\u0430 \u0422\u04af\u043d\u0434\u04af\u043a \u0418\u0440\u043b\u0430\u043d\u0434\u0438\u044f","name:la":"Britanniarum Regnum","name:lad":"Reyno Unido","name:lb":"Groussbritannien an Nordirland","name:lez":"\u0427I\u0435\u0445\u0438\u0431\u0440\u0438\u0442\u0430\u043d\u0438\u044f","name:li":"Vereineg Keuninkriek","name:lij":"Regno Un\u00efo","name:lmo":"Regn \u00dcn\u00ec","name:ln":"Ing\u025bl\u025b\u0301t\u025bl\u025b","name:lo":"\u0eaa\u0eb0\u0eab\u0eb0\u0ea3\u0eb2\u0e8a\u0ead\u0eb2\u0e99\u0eb2\u0e88\u0eb1\u0e81","name:lt":"Jungtin\u0117 Karalyst\u0117","name:ltg":"Lelbrytaneja","name:lv":"Apvienot\u0101 Karaliste","name:lzh":"\u82f1\u570b","name:mad":"Britania Raya","name:mai":"\u0938\u0902\u092f\u0941\u0915\u094d\u0924 \u0905\u0927\u093f\u0930\u093e\u091c\u094d\u092f","name:mdf":"\u041e\u0446\u044e \u0411\u0440\u0438\u0442\u0430\u043d\u0438\u044f","name:mg":"Fanjakana Mitambatra","name:mhr":"\u0423\u0448\u044b\u043c\u043e \u041a\u043e\u0440\u043e\u043b\u0435\u0432\u0441\u0442\u0432\u0435","name:mi":"K\u012bngitanga Kotahi","name:min":"Baritania Rayo","name:mk":"\u041e\u0431\u0435\u0434\u0438\u043d\u0435\u0442\u043e \u041a\u0440\u0430\u043b\u0441\u0442\u0432\u043e","name:ml":"\u0d2f\u0d41\u0d23\u0d48\u0d31\u0d4d\u0d31\u0d21\u0d4d \u0d15\u0d3f\u0d19\u0d4d\u0d21\u0d02","name:mn":"\u0418\u0445 \u0411\u0440\u0438\u0442\u0430\u043d\u0438","name:mni":"\uabcc\uabe8\uabc5\uabe5\uabe2\uabc7\uabe6\uabd7 \uabc0\uabe4\uabe1\uabd7\uabdd","name:mr":"\u092f\u0941\u0928\u093e\u092f\u091f\u0947\u0921 \u0915\u093f\u0902\u0917\u094d\u0921\u092e","name:mrj":"\u041a\u043e\u0433\u043e \u0411\u0440\u0438\u0442\u0430\u043d\u0438","name:ms":"United Kingdom","name:mt":"Renju Unit","name:mwl":"Reino Ounido","name:my":"\u101a\u1030\u1014\u102d\u102f\u1000\u103a\u1010\u1000\u103a\u1000\u1004\u103a\u1038\u1012\u1019\u103a\u1038\u1014\u102d\u102f\u1004\u103a\u1004\u1036","name:myv":"\u0418\u043d\u0435\u0431\u0440\u0438\u0442\u0430\u043d\u0438\u044f \u041c\u0430\u0441\u0442\u043e\u0440","name:mzn":"\u0628\u0631\u06cc\u062a\u0627\u0646\u06cc\u0627","name:na":"Ingerand","name:nah":"Tlacetil\u012blli Hu\u0113yitlahtohc\u0101y\u014dtl","name:nan":"Li\u00e2n-ha\u030dp \u00d4ng-kok","name:nap":"Gran Vretagna","name:nds":"Vereenigt K\u00f6nigriek vun Grootbritannien un Noordirland","name:nds-nl":"Verienigd Keuninkriek","name:ne":"\u0938\u0902\u092f\u0941\u0915\u094d\u0924 \u0905\u0927\u093f\u0930\u093e\u091c\u094d\u092f","name:new":"\u0938\u0902\u092f\u0941\u0915\u094d\u0924 \u0905\u0927\u093f\u0930\u093e\u091c\u094d\u092f","name:nl":"Verenigd Koninkrijk","name:nn":"Storbritannia","name:no":"Storbritannia","name:nov":"Unionati Regia","name:nqo":"\u07e1\u07ca\u07f2\u07ec\u07db\u07ca\u07ec\u07df\u07ca\u07eb \u07d8\u07cd\u07ec\u07e3\u07cd\u07f2","name:nrm":"Rouoyaume Unni","name:nso":"United Kingdom","name:nv":"T\u00f3ta\u02bc Dine\u02bc\u00e9 Bik\u00e9yah","name:ny":"United Kingdom","name:oc":"Reialme Unit","name:om":"Yunaayitid Kingidem","name:or":"\u0b2f\u0b41\u0b15\u0b4d\u0b24\u0b30\u0b3e\u0b1c\u0b4d\u0b5f","name:os":"\u0421\u0442\u044b\u0440 \u0411\u0440\u0438\u0442\u0430\u043d\u0438","name:pa":"\u0a38\u0a70\u0a2f\u0a41\u0a15\u0a24 \u0a2c\u0a3e\u0a26\u0a38\u0a3c\u0a3e\u0a39\u0a40","name:pag":"Reino Unido","name:pam":"Pisanmetung a Ka-arian","name:pap":"Reino Uni","name:pcd":"Ro\u00e9y\u00f4me-Uni","name:pih":"Yunitid Kingdum","name:pl":"Wielka Brytania","name:pms":"Regn Un\u00ec","name:pnb":"\u0628\u0631\u0637\u0627\u0646\u06cc\u06c1","name:pnt":"\u0397\u03bd\u03c9\u03bc\u03ad\u03bd\u03bf \u0392\u03b1\u03c3\u03af\u03bb\u03b5\u03b9\u03bf","name:ps":"\u0628\u0631\u064a\u062a\u0627\u0646\u064a\u0627","name:pt":"Reino Unido","name:qu":"Hukllachasqa Qhapaq Suyu","name:rm":"Reginavel Un\u00ec","name:rmy":"Phandlo Thagaripen la Bare Britaniyako thai le Nordutne Irlandesko","name:ro":"Regatul Unit al Marii Britanii \u0219i al Irlandei de Nord","name:roa-rup":"Britania Mari","name:roa-tara":"Regne Aun\u00ecte","name:ru":"\u0412\u0435\u043b\u0438\u043a\u043e\u0431\u0440\u0438\u0442\u0430\u043d\u0438\u044f","name:rue":"\u0412\u0435\u043b\u0438\u043a\u0430 \u0411\u0440\u0456\u0442\u0430\u043d\u0456\u044f","name:rw":"Ubwongereza","name:sa":"\u0938\u0902\u092f\u0941\u0915\u094d\u0924 \u0905\u0927\u093f\u0930\u093e\u091c\u094d\u092f","name:sah":"\u0425\u043e\u043b\u0431\u043eh\u0443\u043a\u0442\u0430\u0430\u0445 \u0425\u043e\u0440\u0443\u043e\u043b\u043b\u0443\u043a","name:sat":"\u1c65\u1c6e\u1c5e\u1c6e\u1c6b \u1c6b\u1c64\u1c65\u1c5a\u1c62","name:sc":"Rennu Auniadu","name:scn":"Regnu Unitu","name:sco":"Unitit Kinrick","name:sd":"\u06af\u068f\u064a\u0644 \u0628\u0627\u062f\u0634\u0627\u06be\u062a","name:se":"Ovttastuvvan gonagasriika","name:sh":"Ujedinjeno Kraljevstvo","name:shi":"Bri\u1e6danya","name:shn":"\u1019\u102d\u1030\u1004\u103a\u1038\u1081\u1030\u1019\u103a\u1088\u1010\u102f\u1019\u103a\u1081\u1031\u1083\u1076\u1019\u103a\u1038 \u1015\u101b\u102d\u1010\u103a\u1088\u1010\u1035\u107c\u103a\u1087","name:si":"\u0d91\u0d9a\u0dca\u0dc3\u0dad\u0dca \u0dbb\u0dcf\u0da2\u0db0\u0dcf\u0db1\u0dd2\u0dba","name:sk":"Spojen\u00e9 kr\u00e1\u013eovstvo","name:skr":"\u0628\u0631\u0637\u0627\u0646\u06cc\u06c1","name:sl":"Zdru\u017eeno kraljestvo","name:sm":"Peret\u0101nia","name:smn":"Ovt\u00e2stum kun\u00e2g\u00e2skodde","name:sms":"\u00d5htt\u00f5\u00f5vv\u00e2m koon\u01e5\u00f5sk\u00e5\u02b9dd","name:sn":"United Kingdom","name:so":"Midowga boqortooyada Britan","name:sq":"Mbret\u00ebria e Bashkuar e Britanis\u00eb dhe Irland\u00ebs s\u00eb Veriut","name:sr":"\u0423\u0458\u0435\u0434\u0438\u045a\u0435\u043d\u043e \u041a\u0440\u0430\u0459\u0435\u0432\u0441\u0442\u0432\u043e","name:srn":"Ingriskondre","name:ss":"United Kingdom","name:stq":"Fereeniged K\u00f6\u00f6nichriek fon Groot-Britannien un Noudirlound","name:su":"Britania","name:sv":"Storbritannien","name:sw":"Ufalme wa Muungano","name:szl":"Wielg\u014f Brytanij\u014f","name:ta":"\u0b90\u0b95\u0bcd\u0b95\u0bbf\u0baf \u0b87\u0bb0\u0bbe\u0b9a\u0bcd\u0b9a\u0bbf\u0baf\u0bae\u0bcd","name:tcy":"\u0caf\u0cc1\u0ca8\u0cc8\u0c9f\u0cc6\u0ca1\u0ccd \u0c95\u0cbf\u0c82\u0c97\u0ccd\u0ca1\u0cae\u0ccd","name:te":"\u0c2f\u0c41\u0c28\u0c48\u0c1f\u0c46\u0c21\u0c4d \u0c15\u0c3f\u0c02\u0c17\u0c4d\u200c\u0c21\u0c2e\u0c4d","name:tet":"Reinu Naklibur","name:tg":"\u041f\u043e\u0434\u0448\u043e\u04b3\u0438\u0438 \u041c\u0443\u0442\u0442\u0430\u04b3\u0438\u0434\u0430","name:th":"\u0e2a\u0e2b\u0e23\u0e32\u0e0a\u0e2d\u0e32\u0e13\u0e32\u0e08\u0e31\u0e01\u0e23","name:tk":"Birle\u015fen Paty\u015falyk","name:tl":"Nagkakaisang Kaharian","name:to":"Pilit\u0101nia","name:tok":"ma Juke","name:tpi":"Yunaitet Kingdom","name:tr":"Birle\u015fik Krall\u0131k","name:trv":"United Kingdom","name:ts":"United Kingdom","name:tt":"\u0411\u04e9\u0435\u043a\u0431\u0440\u0438\u0442\u0430\u043d\u0438\u044f","name:tw":"United Kingdom","name:ty":"Parat\u0101ne","name:tzl":"Regip\u00e4ts Viensi\u00e7at","name:udm":"\u0412\u0435\u043b\u0438\u043a\u043e\u0431\u0440\u0438\u0442\u0430\u043d\u0438\u044f","name:ug":"\u0628\u06c8\u064a\u06c8\u0643 \u0628\u06d0\u0631\u0649\u062a\u0627\u0646\u0649\u064a\u06d5","name:uk":"\u0412\u0435\u043b\u0438\u043a\u0430 \u0411\u0440\u0438\u0442\u0430\u043d\u0456\u044f","name:ur":"\u0628\u0631\u0637\u0627\u0646\u06cc\u06c1","name:uz":"Birlashgan Qirollik","name:vec":"Regno Un\u00eco","name:vep":"Sur' Britanii","name:vi":"V\u01b0\u01a1ng qu\u1ed1c Anh","name:vls":"Ver\u00eanigd Keunienkryk","name:vo":"Reg\u00e4n Pebal\u00f6l","name:vro":"\u00dctiskuningriik","name:wa":"Rwey\u00e5me-Uni","name:war":"Reino Unido","name:wo":"Nguur-Yu-Bennoo","name:wuu":"\u82f1\u56fd","name:xal":"\u0418\u043a \u0411\u0440\u0438\u0442\u0438\u0448\u0438\u043d \u0431\u043e\u043b\u043d \u0410\u0440 \u0413\u04d9\u04d9\u043b\u0433\u04af\u0434\u0438\u043d \u041d\u0438\u0438\u0446\u04d9\u0442\u04d9 \u041d\u0443\u0442\u0433","name:xmf":"\u10d2\u10dd\u10d0\u10e0\u10d7\u10dd\u10d8\u10d0\u10dc\u10d0\u10e4\u10d8\u10da\u10d8 \u10dd\u10db\u10d0\u10e4\u10d4","name:yi":"\u05e4\u05d0\u05e8\u05d0\u05d9\u05d9\u05e0\u05d9\u05d2\u05d8\u05e2 \u05e7\u05e2\u05e0\u05d9\u05d2\u05e8\u05d9\u05d9\u05da","name:yo":"Il\u1eb9\u0300\u1ecdba A\u1e63\u1ecd\u0300kan","name:yue":"\u82f1\u570b","name:za":"Yinghgoz","name:zea":"Vere\u00eanigd Konienkriek","name:zh":"\u82f1\u56fd \/ \u82f1\u570b","name:zh-Hans":"\u82f1\u56fd","name:zh-Hant":"\u82f1\u570b","name:zu":"Umbuso Ohlangeneyo","native_name":"United Kingdom of Great Britain and Northern Ireland","native_name:da":"Det Forenede Kongerige Storbritannien og Nordirland","native_name:es":"Reino Unido de Gran Breta\u00f1a e Irlanda del Norte","native_name:vi":"V\u01b0\u01a1ng qu\u1ed1c Li\u00ean hi\u1ec7p Anh v\u00e0 B\u1eafc Ireland","official_name":"United Kingdom of Great Britain and Northern Ireland","official_name:be":"\u0417\u043b\u0443\u0447\u0430\u043d\u0430\u0435 \u041a\u0430\u0440\u0430\u043b\u0435\u045e\u0441\u0442\u0432\u0430 \u0412\u044f\u043b\u0456\u043a\u0430\u0431\u0440\u044b\u0442\u0430\u043d\u0456\u0456 \u0456 \u041f\u0430\u045e\u043d\u043e\u0447\u043d\u0430\u0439 \u0406\u0440\u043b\u0430\u043d\u0434\u044b\u0456","official_name:ca":"Regne Unit de Gran Bretanya i Irlanda del Nord","official_name:cs":"Spojen\u00e9 kr\u00e1lovstv\u00ed Velk\u00e9 Brit\u00e1nie a Severn\u00edho Irska","official_name:de":"Vereinigtes K\u00f6nigreich Gro\u00dfbritannien und Nordirland","official_name:din":"Amatnhom M\u00e4c\u014baknhom n\u00eb Britain D\u00eft ku Parut Ireland","official_name:el":"\u0397\u03bd\u03c9\u03bc\u03ad\u03bd\u03bf \u0392\u03b1\u03c3\u03af\u03bb\u03b5\u03b9\u03bf \u03c4\u03b7\u03c2 \u039c\u03b5\u03b3\u03ac\u03bb\u03b7\u03c2 \u0392\u03c1\u03b5\u03c4\u03b1\u03bd\u03af\u03b1\u03c2 \u03ba\u03b1\u03b9 \u03c4\u03b7\u03c2 \u0392\u03cc\u03c1\u03b5\u03b9\u03b1\u03c2 \u0399\u03c1\u03bb\u03b1\u03bd\u03b4\u03af\u03b1\u03c2","official_name:en":"United Kingdom of Great Britain and Northern Ireland","official_name:eo":"Unui\u011dinta Re\u011dlando de Granda Britio kaj Nord-Irlando","official_name:fr":"Royaume-Uni de Grande-Bretagne et d'Irlande du Nord","official_name:hr":"Ujedinjeno Kraljevstvo Velike Britanije i Sjeverne Irske","official_name:is":"Sameina\u00f0a konungsveldi St\u00f3ra-Bretlands og Nor\u00f0ur-\u00cdrlands","official_name:it":"Regno Unito di Gran Bretagna e Irlanda del Nord","official_name:la":"Coniunctum Britanniae Maioris et Hiberniae Septentrionalis Regnum","official_name:mi":"K\u012bngitanga Kotahi o Piritana Nui me Airangi ki te Raki","official_name:nl":"Verenigd Koninkrijk van Groot-Brittanni\u00eb en Noord-Ierland","official_name:pcd":"Rwey\u00e5me-Uni di Grande Burtaegne et d' Irlande do N\u00f4r","official_name:pl":"Zjednoczone Kr\u00f3lestwo Wielkiej Brytanii i Irlandii P\u00f3\u0142nocnej","official_name:ru":"\u0421\u043e\u0435\u0434\u0438\u043d\u0451\u043d\u043d\u043e\u0435 \u043a\u043e\u0440\u043e\u043b\u0435\u0432\u0441\u0442\u0432\u043e \u0412\u0435\u043b\u0438\u043a\u043e\u0431\u0440\u0438\u0442\u0430\u043d\u0438\u0438 \u0438 \u0421\u0435\u0432\u0435\u0440\u043d\u043e\u0439 \u0418\u0440\u043b\u0430\u043d\u0434\u0438\u0438","official_name:sk":"Spojen\u00e9 kr\u00e1\u013eovstvo Ve\u013ekej Brit\u00e1nie a Severn\u00e9ho \u00cdrska","official_name:sl":"Zdru\u017eeno kraljestvo Velike Britanije in Severne Irske","official_name:vls":"Ver\u00eanigd Keunienkryk van Gr\u00f4ot-Brittanni\u00eb en N\u00f4ord-Ierland","official_name:wa":"Ro\u00e9y\u00f4me-uni \u00e9d Grande-Bretagne pi d'Irlinde-du-Nord","official_name:zh":"\u5927\u4e0d\u5217\u985b\u66a8\u5317\u611b\u723e\u862d\u806f\u5408\u738b\u570b\/\u5927\u4e0d\u5217\u98a0\u53ca\u5317\u7231\u5c14\u5170\u8054\u5408\u738b\u56fd","official_name:zh-Hans":"\u5927\u4e0d\u5217\u98a0\u53ca\u5317\u7231\u5c14\u5170\u8054\u5408\u738b\u56fd","official_name:zh-Hant":"\u5927\u4e0d\u5217\u985b\u66a8\u5317\u611b\u723e\u862d\u806f\u5408\u738b\u570b","ref:gss":"K02000001","short_name":"UK","short_name:el":"\u0397\u0392","short_name:fr":"RU","short_name:nl":"VK","short_name:pcd":"RU","short_name:vls":"VK","short_name:vo":"Brit\u00e4n","short_name:wa":"RU","source:ref:gss":"ONS_OpenData","timezone":"Europe\/London","type":"boundary","wikidata":"Q145","wikipedia":"en:United Kingdom"},"timestamp":1716078538,"representative_point":{"type":"Point","coordinates":[-3.96141844454237,55.367000000000004]}},"geometry":{"type":"MultiPolygon","coordinates":[[[[-6.7442693,55.4149759],[-6.7194258,55.2801706],[-7.3577854,55.0446714],[-7.5346934,54.7470212],[-7.9208904,54.6959641],[-7.6972521,54.6100698],[-8.1775099,54.4647612],[-7.5473753,54.1221425],[-7.2789457,54.1225548],[-6.9816489,54.4094617],[-6.6238101,54.0364597],[-6.2847299,54.112224],[-5.826004,53.8701676],[-5.2677592,54.174],[-5.0777816,54.4645486],[-4.868555,54.4339831],[-4.0344301,54.479],[-3.3917274,53.8697263],[-3.4402166,53.547],[-4.442025,53.635],[-4.9124488,53.51],[-5.0310084,53.279],[-4.8118632,53.085],[-5.1194456,52.691],[-4.4539835,52.582],[-4.4143324,52.45],[-5.269744,52.19],[-5.7742836,51.819],[-5.7403561,51.608],[-5.3803492,51.5023917],[-5.3781003,50.543],[-6.0462888,50.114],[-6.6038216,50.097],[-6.7047274,49.945],[-6.5972943,49.737],[-6.2520977,49.689],[-5.9395258,49.909],[-5.1115262,49.767],[-4.3912916,50.139],[-3.6221038,50.012],[-3.1556735,50.453],[-2.8714952,50.517],[-2.5021486,50.315],[-1.6990258,50.4743478],[-1.2623908,50.376],[-0.4971353,50.601],[0.3235105,50.541],[1.2635,50.8243889],[1.8875556,51.1993611],[1.6732673,51.528],[1.2852703,51.584],[1.8902408,52.024],[2.0909314,52.467],[1.9955572,52.81],[1.4589347,53.11],[0.6889586,53.1889735],[0.1660577,53.972],[0.2236768,54.212],[-0.9754801,54.862],[-1.2856928,55.73],[-2.1642484,56.2758307],[-2.026576,56.4176676],[-2.1218263,56.591],[-1.4126114,57.42],[-1.4790481,57.689],[-1.8822704,57.889],[-3.0547803,57.885],[-3.2541721,58.0236106],[-2.7655964,58.285],[-1.9787836,59.397],[-1.3098582,59.393],[-1.2634363,59.654],[-0.9411211,59.744],[-0.358988,60.3410757],[-0.3507219,60.838],[-0.4866406,60.97],[-1.0333616,61.045],[-1.9300133,60.6665025],[-2.5120866,60.106],[-2.2000657,59.922],[-1.776096,59.9708061],[-1.6736123,59.7529494],[-2.0517401,59.504],[-3.3263499,59.484],[-3.7064736,59.205],[-3.801226,58.807],[-6.3281346,58.7161537],[-7.2478567,58.407],[-7.9813291,58.384],[-7.9826181,58.182],[-7.6400315,58.0748074],[-8.0948678,57.694948],[-7.8442708,57.210549],[-8.0150357,56.741],[-7.451861,56.1639097],[-6.9677946,56.0197571],[-6.8647299,55.6217767],[-6.5787357,55.4435849],[-6.7442693,55.4149759]]],[[[-4.8965159,59.031],[-4.4520511,58.825],[-4.0110607,59.097],[-4.4657763,59.287],[-4.8965159,59.031]]],[[[-6.5598851,59.108],[-6.1530746,58.888],[-5.6081412,58.943],[-5.419679,59.117],[-5.8313334,59.335],[-6.3730781,59.273],[-6.5598851,59.108]]],[[[-9.0233704,57.833],[-8.4704675,57.594],[-8.1022246,57.873],[-8.5331216,58.082],[-9.0233704,57.833]]],[[[-14.0050493,57.6415005],[-13.7179419,57.4213286],[-13.3609679,57.5937691],[-13.6742834,57.7730825],[-14.0050493,57.6415005]]]]}}