{"type":"Feature","properties":{"tags":{"ISO3166-1":"GD","ISO3166-1:alpha2":"GD","ISO3166-1:alpha3":"GRD","ISO3166-1:numeric":"308","admin_level":"2","boundary":"administrative","default_language":"en","driving_side":"left","flag":"https:\/\/upload.wikimedia.org\/wikipedia\/commons\/b\/bc\/Flag_of_Grenada.svg","name":"Grenada","name:ar":"\u063a\u0631\u064a\u0646\u0627\u062f\u0627","name:br":"Grenada","name:cs":"Grenada","name:da":"Grenada","name:de":"Grenada","name:en":"Grenada","name:eo":"Grenado","name:es":"Granada","name:fr":"Grenade","name:fy":"Grenada","name:gn":"Gyran\u00e1ta","name:hak":"Grenada","name:he":"\u05d2\u05e8\u05e0\u05d3\u05d4","name:hr":"Grenada","name:hu":"Grenada","name:it":"Grenada","name:ja":"\u30b0\u30ec\u30ca\u30c0","name:jbo":"grenadas","name:ko":"\uadf8\ub808\ub098\ub2e4","name:nan":"Grenada","name:nb":"Grenada","name:nl":"Grenada","name:pl":"Grenada","name:pt":"Granada","name:ru":"\u0413\u0440\u0435\u043d\u0430\u0434\u0430","name:se":"Grenada","name:sl":"Grenada","name:smn":"Grenada","name:sms":"Grenada","name:sq":"Grenada","name:sr":"\u0413\u0440\u0435\u043d\u0430\u0434\u0430","name:sv":"Grenada","name:szl":"Grynada","name:ta":"\u0b95\u0bbf\u0bb0\u0bc6\u0ba9\u0b9f\u0bbe","name:tr":"Grenada","name:tzl":"Grenada","name:uk":"\u0413\u0440\u0435\u043d\u0430\u0434\u0430","name:vo":"Grenade\u00e4n","name:zh":"\u683c\u6797\u7eb3\u8fbe","name:zh-Hans":"\u683c\u6797\u7eb3\u8fbe","name:zh-Hant":"\u683c\u745e\u90a3\u9054","official_name:cs":"Grenadsk\u00fd st\u00e1t","source:name:br":"ofis publik ar brezhoneg","timezone":"America\/Grenada","type":"boundary","wikidata":"Q769","wikipedia":"en:Grenada"},"timestamp":1716078538,"representative_point":{"type":"Point","coordinates":[-61.65473460461227,12.1472895]}},"geometry":{"type":"Polygon","coordinates":[[[-61.663148,12.6097247],[-62.0008998,12.0512269],[-61.8765817,11.8026201],[-61.5151212,11.877278],[-61.2104846,12.3983584],[-61.663148,12.6097247]]]}}