{"type":"Feature","properties":{"tags":{"ISO3166-1":"GE","ISO3166-1:alpha2":"GE","ISO3166-1:alpha3":"GEO","ISO3166-1:numeric":"268","admin_level":"2","alt_name:ckb":"\u062c\u06c6\u0631\u062c\u06cc\u0627","alt_name:eo":"Kartvelujo","border_type":"International","boundary":"administrative","default_language":"ka","flag":"http:\/\/upload.wikimedia.org\/wikipedia\/commons\/0\/0f\/Flag_of_Georgia.svg","int_name":"Georgia","int_ref":"GE","name":"\u10e1\u10d0\u10e5\u10d0\u10e0\u10d7\u10d5\u10d4\u10da\u10dd","name:ab":"\u049a\u044b\u0440\u04ad\u0442\u04d9\u044b\u043b\u0430","name:ace":"Georgia","name:af":"Georgi\u00eb","name:als":"Georgien","name:am":"\u1302\u12ee\u122d\u1302\u12eb","name:an":"Cheorchia","name:ang":"Georgia","name:ar":"\u062c\u0648\u0631\u062c\u064a\u0627","name:arc":"\u0713\u0718\u072a\u0713\u071d\u0710","name:arz":"\u062c\u064a\u0648\u0631\u062c\u064a\u0627","name:ast":"Xeorxa","name:av":"\u0413\u0443\u0440\u0436\u0438","name:az":"G\u00fcrc\u00fcstan","name:bar":"Georgien","name:bat-smg":"Groz\u0117j\u0117","name:bcl":"Georgya","name:be":"\u0413\u0440\u0443\u0437\u0456\u044f","name:be-tarask":"\u0413\u0440\u0443\u0437\u0456\u044f","name:bg":"\u0413\u0440\u0443\u0437\u0438\u044f","name:bjn":"Jorjiya","name:bn":"\u099c\u09b0\u09cd\u099c\u09bf\u09af\u09bc\u09be (\u09b0\u09be\u09b7\u09cd\u099f\u09cd\u09b0)","name:bo":"\u0f60\u0f47\u0f7c\u0f62\u0f0b\u0f47\u0f72\u0f0b\u0f61\u0f0d (\u0f62\u0f92\u0fb1\u0f63\u0f0b\u0f41\u0f56\u0f0d)","name:br":"Jorjia (bro)","name:bs":"Gruzija","name:bxr":"\u0413\u04af\u0440\u0436","name:ca":"Ge\u00f2rgia","name:cdo":"G\u00e1h-l\u016b-g\u00e9k-\u0101","name:ce":"\u0413\u0443\u044c\u0440\u0436\u0438\u0439\u0447\u043e\u044c","name:ceb":"Georgia","name:ckb":"\u06af\u0648\u0631\u062c\u0633\u062a\u0627\u0646","name:crh":"G\u00fcrcistan","name:cs":"Gruzie","name:csb":"Gr\u00ebz\u00f3\u0144sk\u00f4","name:cu":"\u0413\u0454\u0461\u0440\u0433\u0457\ua657","name:cv":"\u0413\u0440\u0443\u0437\u0438","name:cy":"Georgia","name:da":"Georgien","name:de":"Georgien","name:diq":"Gurc\u0131stan","name:dsb":"Georgiska","name:dv":"\u0796\u07af\u0796\u07a8\u0794\u07a7 (\u07a4\u07a6\u0787\u07aa\u0789\u07aa)","name:dz":"\u0f47\u0f7d\u0f0b\u0f47\u0f71","name:ee":"Georgia","name:el":"\u0393\u03b5\u03c9\u03c1\u03b3\u03af\u03b1","name:en":"Georgia","name:eo":"Kartvelio","name:es":"Georgia","name:et":"Gruusia","name:eu":"Georgia","name:ext":"Ge\u00f3lgia","name:fa":"\u06af\u0631\u062c\u0633\u062a\u0627\u0646","name:fi":"Georgia","name:fo":"Georgia (land)","name:fr":"G\u00e9orgie","name:frp":"J\u00f4rg\u00b7ie","name:frr":"Georgien","name:fy":"Ge\u00f6rgje","name:ga":"An tSeoirsia","name:gag":"Gruziya","name:gd":"A' Chairtbheil","name:gl":"Xeorxia - \u10e1\u10d0\u10e5\u10d0\u10e0\u10d7\u10d5\u10d4\u10da\u10dd","name:gn":"Ge\u00f3rgia","name:gu":"\u0a9c\u0acd\u0aaf\u0acb\u0ab0\u0acd\u0a9c\u0ac0\u0aaf\u0abe (\u0aa6\u0ac7\u0ab6)","name:gv":"Yn \u00c7horshey","name:hak":"Kak-l\u00fb-kit-\u00e2","name:haw":"Keokia","name:he":"\u05d2\u05d0\u05d5\u05e8\u05d2\u05d9\u05d4","name:hi":"\u091c\u0949\u0930\u094d\u091c\u093f\u092f\u093e","name:hif":"Georgia","name:hr":"Gruzija","name:hsb":"Georgiska","name:ht":"Jeoji","name:hu":"Gr\u00fazia","name:hy":"\u054e\u0580\u0561\u057d\u057f\u0561\u0576","name:ia":"Georgia","name:id":"Georgia","name:ie":"Georgia","name:ilo":"Georgia","name:io":"Gruzia","name:is":"Georg\u00eda","name:it":"Georgia","name:ja":"\u30b8\u30e7\u30fc\u30b8\u30a2","name:jv":"Georgia","name:ka":"\u10e1\u10d0\u10e5\u10d0\u10e0\u10d7\u10d5\u10d4\u10da\u10dd","name:kaa":"Gruziya","name:kbd":"\u0425\u044a\u044b\u0440\u0446\u0435\u0439","name:kk":"\u0413\u0440\u0443\u0437\u0438\u044f","name:kn":"\u0c9c\u0cbe\u0cb0\u0ccd\u0c9c\u0cbf\u0caf","name:ko":"\uc870\uc9c0\uc544","name:krc":"\u0413\u044e\u0440\u0434\u0436\u044e","name:ku":"Gurcistan","name:kv":"\u0413\u0440\u0443\u0437\u0438\u044f","name:kw":"Pow Grouzi","name:ky":"\u0413\u0440\u0443\u0437\u0438\u044f","name:la":"Georgia","name:lb":"Georgien","name:lbe":"\u0413\u0443\u0440\u0436\u0438\u0441\u0442\u0442\u0430\u043d","name:lez":"\u0413\u0443\u0440\u0436\u0438\u0441\u0442\u0430\u043d","name:li":"Georgi\u00eb","name:lij":"Ge\u00f2rgia","name:lmo":"Georgia","name:lt":"Sakartvelas","name:ltg":"Gruzeja","name:lv":"Gruzija","name:mdf":"\u0413\u0440\u0443\u0437\u0438\u0435","name:mhr":"\u0413\u0440\u0443\u0437\u0438\u0439","name:mi":"H\u014dria","name:min":"Georgia","name:mk":"\u0413\u0440\u0443\u0437\u0438\u0458\u0430","name:ml":"\u0d1c\u0d4b\u0d7c\u0d1c\u0d4d\u0d1c\u0d3f\u0d2f","name:mn":"\u0413\u04af\u0440\u0436","name:mr":"\u091c\u0949\u0930\u094d\u091c\u093f\u092f\u093e","name:ms":"Georgia","name:mt":"\u0120eor\u0121ja","name:my":"\u1002\u103b\u1031\u102c\u103a\u1002\u103b\u102e\u101a\u102c\u1014\u102d\u102f\u1004\u103a\u1004\u1036","name:mzn":"\u06af\u0631\u062c\u0633\u062a\u0648\u0646","name:na":"Djiordjiya","name:nah":"Georgia","name:nan":"Sakartvelo","name:nds":"Georgien","name:ne":"\u091c\u0930\u094d\u091c\u093f\u092f\u093e (\u0926\u0947\u0936)","name:new":"\u091c\u094d\u092f\u094b\u0930\u094d\u091c\u093f\u092f\u093e","name:nl":"Georgi\u00eb","name:nn":"Georgia","name:no":"Georgia","name:nov":"Georgia","name:nv":"J\u00f3ojah (K\u00e9yah)","name:oc":"Georgia (Cauc\u00e0s)","name:or":"\u0b1c\u0b30\u0b4d\u0b1c\u0b3f\u0b06","name:os":"\u0413\u0443\u044b\u0440\u0434\u0437\u044b\u0441\u0442\u043e\u043d","name:pam":"Georgya","name:pih":"Jorja","name:pl":"Gruzja","name:pms":"Ge\u00f2rgia","name:pnb":"\u06af\u0631\u062c\u0633\u062a\u0627\u0646","name:pnt":"\u0393\u03c1\u03bf\u03c5\u03b6\u03af\u03b1","name:ps":"\u06ab\u0631\u062c\u0633\u062a\u0627\u0646","name:pt":"Ge\u00f3rgia","name:qu":"Kartulsuyu","name:ro":"Georgia","name:ru":"\u0413\u0440\u0443\u0437\u0438\u044f","name:rw":"Geworugiya","name:sah":"\u0413\u0440\u0443\u0437\u0438\u044f","name:sc":"Georgia","name:scn":"Giorgia","name:sco":"Georgie","name:se":"Georgia","name:sh":"Gruzija","name:si":"\u0da2\u0ddd\u0dbb\u0dca\u0da2\u0dd2\u0dba\u0dcf (\u0dbb\u0da7)","name:sk":"Gruz\u00ednsko","name:sl":"Gruzija","name:smn":"Georgia","name:sms":"Georgia","name:so":"Joorjiya","name:sq":"Gjeorgjia","name:sr":"\u0413\u0440\u0443\u0437\u0438\u0458\u0430","name:ss":"IJojiya","name:stq":"Georgien","name:su":"G\u00e9orgia","name:sv":"Georgien","name:sw":"Georgia (nchi)","name:szl":"Gruzyj\u014f","name:ta":"\u0b9a\u0bbf\u0baf\u0bbe\u0bb0\u0bcd\u0b9a\u0bbf\u0baf\u0bbe (\u0ba8\u0bbe\u0b9f\u0bc1)","name:te":"\u0c1c\u0c3e\u0c30\u0c4d\u0c1c\u0c3f\u0c2f\u0c3e (\u0c26\u0c47\u0c36\u0c02)","name:tg":"\u0413\u0443\u0440\u04b7\u0438\u0441\u0442\u043e\u043d","name:th":"\u0e1b\u0e23\u0e30\u0e40\u0e17\u0e28\u0e08\u0e2d\u0e23\u0e4c\u0e40\u0e08\u0e35\u0e22","name:tk":"Gruzi\u00fda","name:tl":"Heorhiya","name:tok":"ma Katelo","name:tr":"G\u00fcrcistan","name:tt":"\u0413\u04e9\u0440\u0497\u0438\u0441\u0442\u0430\u043d","name:tzl":"Cartavia","name:udm":"\u0413\u0440\u0443\u0437\u0438\u044f","name:ug":"\u06af\u0631\u06c7\u0632\u0649\u064a\u06d5","name:uk":"\u0413\u0440\u0443\u0437\u0456\u044f","name:ur":"\u062c\u0627\u0631\u062c\u06cc\u0627","name:uz":"Gurjiston","name:vec":"Zorzania","name:vep":"Gruzii","name:vi":"Gruzia","name:vo":"Grusiy\u00e4n","name:vro":"Gruusia","name:war":"Georgia","name:wo":"Jeoorji","name:wuu":"\u683c\u9c81\u5409\u4e9a","name:xal":"\u0413\u04af\u0440\u0497\u043c\u04af\u0434\u0438\u043d \u041e\u0440\u043d","name:xmf":"\u10e1\u10d0\u10e5\u10dd\u10e0\u10d7\u10e3\u10dd","name:yi":"\u05d2\u05e8\u05d5\u05d6\u05d9\u05e2","name:yo":"Georgia","name:yue":"\u683c\u9b6f\u5409\u4e9e","name:zea":"Georhi\u00eb","name:zh":"\u683c\u9c81\u5409\u4e9a \/ \u55ac\u6cbb\u4e9e","name:zh-Hans":"\u683c\u9c81\u5409\u4e9a","name:zh-Hant":"\u55ac\u6cbb\u4e9e","name:zh-Hant-CN":"\u683c\u9b6f\u5409\u4e9e","name:zh-Hant-HK":"\u683c\u9b6f\u5409\u4e9e","name:zh-Hant-TW":"\u55ac\u6cbb\u4e9e","old_name:fi":"Gruusia","old_name:ja":"\u30b0\u30eb\u30b8\u30a2","old_name:lt":"Gruzija","population":"3713804","population:date":"2014","source:population":"wikipedia","timezone":"Asia\/Tbilisi","type":"boundary","wikidata":"Q230","wikipedia":"en:Georgia (country)"},"timestamp":1716078538,"representative_point":{"type":"Point","coordinates":[43.53082644368332,42.32099665]}},"geometry":{"type":"Polygon","coordinates":[[[39.8844803,43.2244305],[41.234388,42.5927387],[41.5076815,41.8928224],[41.2994398,41.612],[41.823607,41.430572],[42.520234,41.436706],[42.8265845,41.5927041],[43.229621,41.1723443],[43.474145,41.123038],[45.0138352,41.2964966],[45.4611039,41.4558505],[45.80579,41.221987],[46.6308951,41.0976669],[46.7024155,41.3288437],[46.1922941,41.6268592],[46.4220692,41.9080428],[45.6084413,42.2121819],[45.7747991,42.4884235],[44.9460107,42.7509297],[44.827345,42.615905],[44.5524868,42.766391],[43.7695396,42.5891344],[43.8047778,42.7434217],[42.8602669,43.1785579],[41.6173394,43.2205721],[40.2556844,43.5862843],[39.8844803,43.2244305]]]}}