{"type":"Feature","properties":{"tags":{"ISO3166-1":"GG","ISO3166-1:alpha2":"GG","ISO3166-1:alpha3":"GGY","ISO3166-1:numeric":"831","admin_level":"2","alt_name2:el":"\u039b\u03b9\u03c3\u03af\u03b1","alt_name:el":"\u0393\u03ba\u03ad\u03c1\u03bd\u03c3\u03b5\u03ca","alt_name:la":"Garnseia","boundary":"administrative","flag":"http:\/\/upload.wikimedia.org\/wikipedia\/commons\/f\/fa\/Flag_of_Guernsey.svg","int_name":"Guernsey","name":"Guernsey","name:ace":"Guernsey","name:af":"Guernsey","name:an":"Guern\u00e9si","name:ang":"Guernsey","name:ar":"\u063a\u064a\u0631\u0646\u0632\u064a","name:ast":"Gu\u00e9rnesei","name:az":"Gernsi","name:azb":"\u06af\u0631\u0646\u0632\u06cc","name:be":"\u0413\u0435\u0440\u043d\u0441i","name:be-tarask":"\u0413\u0435\u0440\u043d\u0441\u0456","name:bg":"\u0413\u044a\u0440\u043d\u0441\u0438","name:bpy":"\u0997\u09c1\u09f1\u09c7\u09b0\u09c7\u09a8\u09b8\u09bf","name:br":"Gwernenez","name:bs":"Guernsey","name:ca":"Guernsey","name:chr":"\u13ac\u13c2\u13cf","name:cs":"Guernsey","name:cy":"Ynys y Garn","name:da":"Guernsey","name:de":"Guernsey","name:dv":"\u078e\u07aa\u0787\u07a7\u0782\u07b0\u0790\u07ad","name:el":"\u0393\u03ba\u03ad\u03c1\u03bd\u03c3\u03b9","name:en":"Guernsey","name:eo":"Gernezejo","name:es":"Guernsey","name:et":"Guernsey","name:eu":"Guernesey","name:fa":"\u06af\u0631\u0646\u0632\u06cc","name:fi":"Guernsey","name:fr":"Guernesey","name:frp":"Gu\u00e8rneseyi","name:frr":"Guernsey","name:fy":"Guernsey","name:ga":"Geansa\u00ed","name:gd":"Ge\u00e0rnsaidh","name:gl":"Guernsey","name:gv":"Guernsey","name:he":"\u05d2\u05e8\u05e0\u05d6\u05d9","name:hi":"\u0917\u094d\u0935\u0947\u0930\u094d\u0928\u0938\u0947","name:hr":"Guernsey","name:hsb":"Guernsey","name:hu":"Guernsey","name:hy":"\u0533\u0565\u0580\u0576\u057d\u056b","name:id":"Guernsey","name:io":"Guernsey","name:is":"Guernsey","name:it":"Guernsey","name:ja":"\u30ac\u30fc\u30f3\u30b8\u30fc","name:jv":"Guernsey","name:ka":"\u10d2\u10d4\u10e0\u10dc\u10d6\u10d8","name:kk-Arab":"\u06af\u06d5\u0631\u0646\u0633\u0649\u064a","name:kmr":"\u06af\u0648\u06d5\u0631\u0646\u0633\u06d5\u06cc","name:kn":"\u0c97\u0cc1\u0cb0\u0ccd\u0ca8\u0ccd\u200c\u0cb8\u0cbf","name:ko":"\uac74\uc9c0 \uc12c","name:ks":"\u06af\u0631\u0646\u0632\u06cc","name:ku-Arab":"\u06af\u0648\u06d5\u0631\u0646\u0633\u06d5\u06cc","name:kw":"Gwernenys","name:la":"Sarnia","name:lb":"Guernsey","name:li":"Guernsey","name:lij":"Guernsey","name:lt":"Gernsis","name:lv":"G\u0113rnsija","name:mi":"K\u014dnihi","name:mk":"\u0413\u0435\u0440\u043d\u0437\u0438","name:mr":"\u0917\u0930\u094d\u0928\u094d\u0938\u0940","name:ms":"Guernsey","name:nan":"Guernsey","name:nds":"Guernsey","name:nds-nl":"Guernsey","name:ne":"\u0917\u0941\u0930\u094d\u0928\u094d\u091c\u0940","name:nl":"Guernsey","name:nn":"Guernsey","name:no":"Guernsey","name:nov":"Guernsey","name:nrm":"Guern\u00e9si","name:oc":"Guernesey","name:os":"\u0413\u0435\u0440\u043d\u0441\u0438","name:pa":"\u0a17\u0a30\u0a28\u0a1c\u0a3c\u0a47","name:pl":"Guernsey","name:pnb":"\u06af\u0631\u0646\u0632\u06cc","name:pt":"Guernsey","name:ro":"Guernsey","name:ru":"\u0413\u0435\u0440\u043d\u0441\u0438","name:rw":"Gwasi","name:sco":"Guernsey","name:sh":"Guernsey","name:sk":"Guernsey","name:sl":"Guernsey","name:sq":"Guernsey","name:sr":"\u0413\u0435\u0440\u043d\u0437\u0438","name:su":"Guernsey","name:sv":"Guernsey","name:sw":"Guernsey","name:ta":"\u0b95\u0bc1\u0baf\u0bc6\u0bb0\u0bcd\u0ba9\u0bcd\u0b9a\u0bbf","name:tg":"\u0413\u0435\u0440\u043d\u0441\u0438","name:th":"\u0e40\u0e01\u0e34\u0e23\u0e4c\u0e19\u0e0b\u0e35\u0e22\u0e4c","name:tl":"Gernesey","name:tr":"Guernsey","name:tt":"\u0413\u0435\u0440\u043d\u0441\u0438","name:uk":"\u0413\u0435\u0440\u043d\u0441\u0456","name:ur":"\u06af\u0631\u0646\u0632\u06cc","name:vi":"Guernsey","name:war":"Guernsey","name:wuu":"\u9691\u6069\u585e\u5c9b","name:xal":"\u0413\u04e9\u0440\u043d\u0437\u0438\u043d \u0410\u0440\u043b","name:yo":"Guernsey","name:yue":"\u6839\u606f\u5cf6","name:zh":"\u6839\u897f\u5c9b \/ \u6839\u897f\u5cf6","name:zh-Hans":"\u6839\u897f","name:zh-Hant":"\u6839\u897f","official_name":"Bailiwick of Guernsey","official_name:eo":"Voktujo Gernezejo","timezone":"Europe\/Guernsey","type":"boundary","wikidata":"Q25230","wikipedia":"fr:Bailliage de Guernesey"},"timestamp":1716078538,"representative_point":{"type":"Point","coordinates":[-2.5280659677601918,49.5805941]}},"geometry":{"type":"Polygon","coordinates":[[[-2.0546641,49.9201431],[-2.6071674,49.8588608],[-2.9945684,49.5231469],[-2.9331736,49.3034399],[-2.5605483,49.219875],[-2.0988795,49.4596091],[-2.0546641,49.9201431]]]}}