{"type":"Feature","properties":{"tags":{"ISO3166-1":"GS","ISO3166-1:alpha2":"GS","ISO3166-1:alpha3":"SGS","ISO3166-1:numeric":"239","admin_level":"2","boundary":"administrative","default_language":"en","flag":"http:\/\/upload.wikimedia.org\/wikipedia\/commons\/e\/ed\/Flag_of_South_Georgia_and_the_South_Sandwich_Islands.svg","name":"South Georgia and the South Sandwich Islands","name:az":"C\u0259nubi Georgiya v\u0259 C\u0259nubi Sandvi\u00e7 adalar\u0131","name:be":"\u041f\u0430\u045e\u0434\u043d\u0451\u0432\u0430\u044f \u0414\u0436\u043e\u0440\u0434\u0436\u044b\u044f \u0456 \u041f\u0430\u045e\u0434\u043d\u0451\u0432\u044b\u044f \u0421\u0430\u043d\u0434\u0432\u0456\u0447\u0430\u0432\u044b \u0430\u0441\u0442\u0440\u0430\u0432\u044b","name:bg":"\u042e\u0436\u043d\u0430 \u0414\u0436\u043e\u0440\u0434\u0436\u0438\u044f \u0438 \u042e\u0436\u043d\u0438 \u0421\u0430\u043d\u0434\u0432\u0438\u0447\u0435\u0432\u0438 \u043e\u0441\u0442\u0440\u043e\u0432\u0438","name:br":"Inizi Georgia ar Su hag Inizi Sandwich ar Su","name:ca":"Illes Ge\u00f2rgia del Sud i Sandwich del Sud","name:cs":"Ji\u017en\u00ed Georgie a Ji\u017en\u00ed Sandwichovy ostrovy","name:da":"South Georgia og South Sandwich Islands","name:de":"S\u00fcdgeorgien und die S\u00fcdlichen Sandwichinseln","name:el":"\u039d\u03ae\u03c3\u03bf\u03b9 \u039d\u03cc\u03c4\u03b9\u03b1 \u0393\u03b5\u03c9\u03c1\u03b3\u03af\u03b1 \u03ba\u03b1\u03b9 \u039d\u03cc\u03c4\u03b9\u03b5\u03c2 \u03a3\u03ac\u03bd\u03c4\u03bf\u03c5\u03b9\u03c4\u03c2","name:en":"South Georgia and the South Sandwich Islands","name:eo":"Sud-Georgio kaj Sud-Sandvi\u0109insuloj","name:es":"Islas Georgias del Sur y Sandwich del Sur","name:et":"L\u00f5una-Georgia ja L\u00f5una-Sandwichi saared","name:eu":"Hegoaldeko Georgiak eta Hegoaldeko Sandwich uharteak","name:fo":"Su\u00f0ursandwichoyggjar og Su\u00f0urgeorgia","name:fr":"G\u00e9orgie du Sud-et-les \u00celes Sandwich du Sud","name:fy":"S\u00fad-Georgje en de S\u00fadlike Sandwicheilannen","name:hak":"N\u00e0m Georgia l\u00e2u N\u00e0m Sandwich Khi\u00f9n-t\u00f3","name:hi":"\u0926\u0915\u094d\u0937\u093f\u0923 \u091c\u0949\u0930\u094d\u091c\u093f\u092f\u093e \u090f\u0935\u0902 \u0926\u0915\u094d\u0937\u093f\u0923 \u0938\u0948\u0902\u0921\u0935\u093f\u091a \u0926\u094d\u0935\u0940\u092a \u0938\u092e\u0942\u0939","name:hr":"Ju\u017ena Georgija i Oto\u010dje Ju\u017eni Sandwich","name:it":"Georgia del Sud e Isole Sandwich Australi","name:ja":"\u30b5\u30a6\u30b9\u30b8\u30e7\u30fc\u30b8\u30a2\u30fb\u30b5\u30a6\u30b9\u30b5\u30f3\u30c9\u30a6\u30a3\u30c3\u30c1\u8af8\u5cf6","name:mk":"\u0408\u0443\u0436\u043d\u0430 \u040f\u043e\u0440\u045f\u0438\u0458\u0430 \u0438 \u0408\u0443\u0436\u043d\u0438 \u0421\u0435\u043d\u0434\u0432\u0438\u0447\u043a\u0438 \u041e\u0441\u0442\u0440\u043e\u0432\u0438","name:nan":"L\u00e2m Georgia kap L\u00e2m Sandwich K\u00fbn-t\u00f3","name:nl":"Zuid-Georgia en de Zuidelijke Sandwicheilanden","name:nn":"S\u00f8r-Georgia og S\u00f8r-Sandwich\u00f8yane","name:pl":"Georgia Po\u0142udniowa i Sandwich Po\u0142udniowy","name:pt":"Ilhas Ge\u00f3rgia do Sul e Sandu\u00edche do Sul","name:ru":"\u042e\u0436\u043d\u0430\u044f \u0413\u0435\u043e\u0440\u0433\u0438\u044f \u0438 \u042e\u0436\u043d\u044b\u0435 \u0421\u0430\u043d\u0434\u0432\u0438\u0447\u0435\u0432\u044b \u041e\u0441\u0442\u0440\u043e\u0432\u0430","name:sk":"Ju\u017en\u00e1 Georgia a Ju\u017en\u00e9 Sandwichove ostrovy","name:sl":"Ju\u017ena Georgija in Ju\u017eni Sandwichevi otoki","name:sr":"\u0408\u0443\u0436\u043d\u0430 \u040f\u043e\u0440\u045f\u0438\u0458\u0430 \u0438 \u0408\u0443\u0436\u043d\u0430 \u0421\u0435\u043d\u0434\u0432\u0438\u0447\u043a\u0430 \u041e\u0441\u0442\u0440\u0432\u0430","name:ta":"\u0ba4\u0bc6\u0bb1\u0bcd\u0b95\u0bc1 \u0baf\u0bcb\u0bb0\u0bcd\u0b9a\u0bbf\u0baf\u0bbe \u0bae\u0bb1\u0bcd\u0bb1\u0bc1\u0bae\u0bcd \u0ba4\u0bc6\u0bb1\u0bcd\u0b95\u0bc1 \u0b9a\u0ba3\u0bcd\u0b9f\u0bcd\u0bb5\u0bbf\u0b9a\u0bcd \u0ba4\u0bc0\u0bb5\u0bc1\u0b95\u0bb3\u0bcd","name:tr":"G\u00fcney Georgia ve G\u00fcney Sandwich Adalar\u0131","name:uk":"\u041f\u0456\u0432\u0434\u0435\u043d\u043d\u0430 \u0414\u0436\u043e\u0440\u0434\u0436\u0456\u044f \u0442\u0430 \u041f\u0456\u0432\u0434\u0435\u043d\u043d\u0456 \u0421\u0430\u043d\u0434\u0432\u0456\u0447\u0435\u0432\u0456 \u043e\u0441\u0442\u0440\u043e\u0432\u0438","name:zh":"\u5357\u55ac\u6cbb\u4e9e\u548c\u5357\u6851\u5a01\u5947\u7fa4\u5cf6","name:zh-Hans":"\u5357\u4e54\u6cbb\u4e9a\u548c\u5357\u6851\u5a01\u5947\u7fa4\u5c9b","name:zh-Hant":"\u5357\u55ac\u6cbb\u4e9e\u548c\u5357\u6851\u5a01\u5947\u7fa4\u5cf6","source:name:br":"ofis publik ar brezhoneg","timezone":"Atlantic\/South_Georgia","type":"boundary","wikidata":"Q35086","wikipedia":"en:South Georgia and the South Sandwich Islands"},"timestamp":1716078538,"representative_point":{"type":"Point","coordinates":[-36.575570134092224,-54.508000800000005]}},"geometry":{"type":"MultiPolygon","coordinates":[[[[-26.8595325,-58.4363892],[-26.3419757,-58.7114854],[-25.8882119,-58.5220893],[-25.9486438,-58.3195564],[-26.2683734,-58.1849748],[-26.7074831,-58.2601796],[-26.8595325,-58.4363892]]],[[[-26.9148463,-57.7999231],[-26.4877436,-58.030143],[-26.0105197,-57.8071733],[-26.4894785,-57.5627186],[-26.9148463,-57.7999231]]],[[[-27.1195805,-59.0169328],[-26.9487732,-59.1988177],[-26.5238145,-59.2602535],[-26.0533301,-59.0197073],[-26.53533,-58.7682232],[-27.1195805,-59.0169328]]],[[[-27.2109992,-57.1106666],[-26.8078885,-57.3289712],[-26.3190973,-57.1062449],[-26.7459642,-56.8737443],[-27.2109992,-57.1106666]]],[[[-27.8061476,-59.4326226],[-27.6102777,-59.617534],[-27.1393529,-59.6725655],[-26.6650686,-59.4726271],[-27.0531521,-59.2060002],[-27.5732958,-59.2481091],[-27.8061476,-59.4326226]]],[[[-27.6205609,-56.6911648],[-27.2178694,-56.9310061],[-26.7676765,-56.7144502],[-27.2007061,-56.4822508],[-27.6205609,-56.6911648]]],[[[-27.9657856,-56.2831056],[-27.5944583,-56.5188773],[-27.1840728,-56.3043598],[-27.5547094,-56.0802381],[-27.9657856,-56.2831056]]],[[[-28.4674737,-56.6638264],[-28.1101894,-56.8753895],[-27.7269189,-56.6767778],[-28.0890407,-56.4676144],[-28.4674737,-56.6638264]]],[[[-35.0863535,-55.0234215],[-34.726073,-55.2383768],[-34.2775114,-55.0131744],[-34.6352273,-54.8132183],[-35.0863535,-55.0234215]]],[[[-38.6476075,-53.9807259],[-38.481006,-54.1813539],[-36.2466297,-55.1120701],[-35.5715888,-54.984227],[-35.3901919,-54.7255681],[-35.9904705,-54.1621867],[-36.5268064,-53.933862],[-37.5031929,-53.7660607],[-38.4106934,-53.8027441],[-38.6476075,-53.9807259]]],[[[-42.3566742,-53.5376126],[-41.8457987,-53.8315111],[-41.4395575,-53.6491157],[-41.9556582,-53.3508662],[-42.3566742,-53.5376126]]]]}}