{"type":"Feature","properties":{"tags":{"ISO3166-1":"GW","ISO3166-1:alpha2":"GW","ISO3166-1:alpha3":"GNB","ISO3166-1:numeric":"624","admin_level":"2","boundary":"administrative","default_language":"pt","flag":"http:\/\/upload.wikimedia.org\/wikipedia\/commons\/0\/01\/Flag_of_Guinea-Bissau.svg","name":"Guin\u00e9-Bissau","name:ace":"Guinea Bissau","name:af":"Guinee-Bissau","name:als":"Guinea-Bissau","name:am":"\u130a\u1294-\u1262\u1233\u12cd","name:an":"Guinea-Bissau","name:ar":"\u063a\u064a\u0646\u064a\u0627 \u0628\u064a\u0633\u0627\u0648","name:arz":"\u062c\u064a\u0646\u064a\u0627 \u0628\u064a\u0633\u0627\u0648","name:ast":"Guinea-Bis\u00e1u","name:az":"Qvineya-Bisau","name:ba":"\u0413\u0432\u0438\u043d\u0435\u044f-\u0411\u0438\u0441\u0430\u0443","name:bat-smg":"Bisau Gvin\u0117j\u0117","name:bcl":"Guineya-Bisau","name:be":"\u0413\u0432\u0456\u043d\u0435\u044f-\u0411\u0456\u0441\u0430\u0443","name:be-tarask":"\u0413\u0432\u0456\u043d\u044d\u044f-\u0411\u0456\u0441\u0430\u045e","name:bg":"\u0413\u0432\u0438\u043d\u0435\u044f-\u0411\u0438\u0441\u0430\u0443","name:bjn":"Guinea-Bissau","name:bm":"Gine Bisau","name:bn":"\u0997\u09bf\u09a8\u09bf-\u09ac\u09bf\u09b8\u09be\u0989","name:bo":"\u0f42\u0f72\u0f0b\u0f53\u0f7a\u0f0b-\u0f56\u0f72\u0f0b\u0f66\u0f60\u0f7c\u0f0d","name:bpy":"\u0997\u09bf\u09a8\u09bf-\u09ac\u09bf\u09b8\u09be\u0993","name:br":"Ginea-Bissau","name:bs":"Gvineja-Bisau","name:bxr":"\u0413\u0432\u0438\u043d\u0435\u0439-\u0411\u0438\u0441\u0430\u0443","name:ca":"Guinea Bissau","name:ce":"\u0413\u0432\u0438\u043d\u0435-\u0411\u0438\u0441\u0430\u0443","name:ceb":"Guinea-Bissau","name:ckb":"\u06af\u06cc\u0646\u06ce \u0628\u06cc\u0633\u0627\u0648","name:co":"Guinea-Bissau","name:crh":"Gvineya Bissau","name:cs":"Guinea-Bissau","name:cv":"\u0413\u0432\u0438\u043d\u0435\u0439-\u0411\u0438\u0441\u0430\u0443","name:cy":"Guin\u00e9-Bissau","name:da":"Guinea-Bissau","name:de":"Guinea-Bissau","name:diq":"Gineya-Bisau","name:dv":"\u078e\u07a9\u0782\u07a9-\u0784\u07a8\u0790\u07a7\u0787\u07ab","name:ee":"Guinea-Bissau","name:el":"\u0393\u03bf\u03c5\u03b9\u03bd\u03ad\u03b1-\u039c\u03c0\u03b9\u03c3\u03c3\u03ac\u03bf\u03c5","name:en":"Guinea-Bissau","name:eo":"Gvineo Bisa\u016da","name:es":"Guinea-Bis\u00e1u","name:et":"Guinea-Bissau","name:eu":"Ginea-Bissau","name:ext":"Guinea-Bissau","name:fa":"\u06af\u06cc\u0646\u0647 \u0628\u06cc\u0633\u0627\u0626\u0648","name:ff":"Gine-Bisaawo","name:fi":"Guinea-Bissau","name:fo":"Guinea-Bissau","name:fr":"Guin\u00e9e-Bissau","name:frp":"Guin\u00ea-Bissaou","name:fy":"Guinee-Bissau","name:ga":"Guine-Bissau","name:gag":"Gvineya Bissau","name:gd":"Gini-Bissau","name:gl":"Guinea-Bisau","name:gn":"Gin\u00e9a Mbis\u00e1u","name:gv":"Yn Ghuinea-Bissau","name:he":"\u05d2\u05d9\u05e0\u05d0\u05d4 \u05d1\u05d9\u05e1\u05d0\u05d5","name:hi":"\u0917\u093f\u0928\u0940-\u092c\u093f\u0938\u093e\u090a","name:hif":"Guinea-Bissau","name:hr":"Gvineja Bisau","name:hsb":"Gineja-Bissau","name:ht":"Gine-Bisao","name:hu":"Bissau-Guinea","name:hy":"\u0533\u057e\u056b\u0576\u0565\u0561 \u0532\u056b\u057d\u0561\u0578\u0582","name:ia":"Guinea-Bissau","name:id":"Guinea-Bissau","name:ie":"Guinea-Bissau","name:ilo":"Guinea-Bissau","name:io":"Guinea Bisau","name:is":"G\u00ednea-Biss\u00e1","name:it":"Guinea-Bissau","name:ja":"\u30ae\u30cb\u30a2\u30d3\u30b5\u30a6","name:jv":"Guinea-Bissau","name:ka":"\u10d2\u10d5\u10d8\u10dc\u10d4\u10d0-\u10d1\u10d8\u10e1\u10d0\u10e3","name:kg":"Ginea-Bisau","name:kk":"\u0413\u0432\u0438\u043d\u0435\u044f-\u0411\u0438\u0441\u0430\u0443","name:ko":"\uae30\ub2c8\ube44\uc0ac\uc6b0","name:ku":"G\u00eene-Bissau","name:kw":"Gyni-Bissaw","name:ky":"\u0413\u0432\u0438\u043d\u0435\u044f-\u0411\u0438\u0441\u0430\u0443","name:la":"Guinea Bissaviensis","name:lb":"Guinea-Bissau","name:li":"Guinee-Bissau","name:lij":"Guinea Bissau","name:lmo":"Guinea-Bissau","name:ln":"Gine-Bisau","name:lt":"Bisau Gvin\u0117ja","name:lv":"Gvineja-Bisava","name:mi":"Kini Pih\u014d","name:mk":"\u0413\u0432\u0438\u043d\u0435\u0458\u0430-\u0411\u0438\u0441\u0430\u0443","name:ml":"\u0d17\u0d3f\u0d28\u0d3f-\u0d2c\u0d3f\u0d38\u0d57","name:mr":"\u0917\u093f\u0928\u0940-\u092c\u093f\u0938\u093e\u0909","name:mrj":"\u0413\u0432\u0438\u043d\u0435\u0439-\u0411\u0438\u0441\u0430\u0443","name:ms":"Guinea-Bissau","name:mwl":"Guin\u00e9-Bissau","name:my":"\u1002\u1004\u103a\u1038\u1014\u102e\u1017\u1005\u103a\u1006\u1031\u102c\u1014\u102d\u102f\u1004\u103a\u1004\u1036","name:na":"Gini-Bitau","name:nah":"Guinea Bissau","name:nan":"Guin\u00e9-Bissau","name:nds":"Guinea-Bissau","name:ne":"\u0917\u093f\u0928\u0940-\u092c\u093f\u0938\u093e\u0909","name:nl":"Guinee-Bissau","name:nn":"Guinea-Bissau","name:no":"Guinea-Bissau","name:nov":"Gini-Bisau","name:nso":"Guinea-Bissau","name:nv":"G\u00edn\u00ed Bis\u00f3","name:oc":"Guin\u00e8a Bissau","name:os":"\u0413\u0432\u0438\u043d\u0435\u0439-\u0411\u0438\u0441\u0430\u0443","name:pa":"\u0a17\u0a3f\u0a28\u0a40-\u0a2c\u0a3f\u0a38\u0a3e\u0a0a","name:pam":"Guinea-Bissau","name:pap":"Guinea-Bissau","name:pih":"Gini-Bisau","name:pl":"Gwinea Bissau","name:pms":"Guinea-Bissau","name:pnb":"\u06af\u0646\u06cc \u0628\u0633\u0627\u0648","name:pt":"Guin\u00e9-Bissau","name:qu":"Khiniya-Wisaw","name:ro":"Guineea-Bissau","name:ru":"\u0413\u0432\u0438\u043d\u0435\u044f-\u0411\u0438\u0441\u0430\u0443","name:rw":"Gineya-Biso","name:sah":"\u0413\u0443\u0438\u043d\u0435\u044f-\u0411\u0438\u0441\u0441\u0430\u0443","name:sc":"Guinea-Bissau","name:scn":"Guinia Bissau","name:sco":"Guinea-Bissau","name:se":"Guinea-Bissau","name:sg":"Gin\u00ebe-Bisau","name:sh":"Gvineja Bisau","name:simple":"Guinea-Bissau","name:sk":"Guinea-Bissau","name:sl":"Gvineja Bissau","name:smn":"Guinea-Bissau","name:sms":"Guinea-Bissau","name:sn":"Guinea-Bissau","name:so":"Guinea-Bissau","name:sq":"Guinea Bisau","name:sr":"\u0413\u0432\u0438\u043d\u0435\u0458\u0430 \u0411\u0438\u0441\u0430\u043e","name:ss":"IGiniya-Bhasawu","name:st":"Guinea-Bissau","name:stq":"Guinea-Bissau","name:su":"Guin\u00e9a-Bissau","name:sv":"Guinea-Bissau","name:sw":"Guinea Bisau","name:ta":"\u0b95\u0bbf\u0ba9\u0bbf-\u0baa\u0bbf\u0b9a\u0bbe\u0bb5\u0bc1","name:tet":"Gin\u00e9-Bisau","name:tg":"\u0413\u0432\u0438\u043d\u0435\u044f \u0411\u0438\u0441\u0430\u0443","name:th":"\u0e1b\u0e23\u0e30\u0e40\u0e17\u0e28\u0e01\u0e34\u0e19\u0e35-\u0e1a\u0e34\u0e2a\u0e40\u0e0b\u0e32","name:tk":"Gwine\u00fda-Bisau","name:tl":"Ginea-Bissau","name:tr":"Gine-Bissau","name:ts":"Guinea-Bissau","name:tt":"\u0413\u0432\u0438\u043d\u0435\u044f-\u0411\u0438\u0441\u0430\u0443","name:tzl":"Guineia-Bissau","name:ug":"\u06af\u06cb\u0649\u0646\u06d0\u064a\u06d5 \u0628\u0649\u0633\u0633\u0627\u0626\u06c7","name:uk":"\u0413\u0432\u0456\u043d\u0435\u044f-\u0411\u0456\u0441\u0430\u0443","name:ur":"\u06af\u0646\u06cc \u0628\u0633\u0627\u0624","name:uz":"Gvineya-Bissau","name:vec":"Guinea-Bissau","name:vi":"Guin\u00e9-Bissau","name:vo":"Giney\u00e4n-Bisau\u00e4n","name:vro":"Ginea-Bissau","name:war":"Guinea-Bissau","name:wo":"Gine Bisaaw\u00f3o","name:xal":"\u0411\u0438\u0441\u0430 \u0413\u0432\u0438\u043d\u043c\u0443\u0434\u0438\u043d \u041e\u0440\u043d","name:yi":"\u05d2\u05d9\u05e0\u05e2-\u05d1\u05d9\u05e1\u05d0\u05d5","name:yo":"Guinea-Bissau","name:yue":"\u757f\u5167\u4e9e\u6bd4\u7d39","name:zh":"\u51e0\u5185\u4e9a\u6bd4\u7ecd \/ \u5e7e\u5167\u4e9e\u6bd4\u7d22","name:zh-Hans":"\u51e0\u5185\u4e9a\u6bd4\u7ecd","name:zh-Hant":"\u5e7e\u5167\u4e9e\u6bd4\u7d22","name:zu":"IGini Bisawu","official_name:cs":"Republika Guinea-Bissau","timezone":"Africa\/Bissau","type":"boundary","wikidata":"Q1007","wikipedia":"en:Guinea-Bissau"},"timestamp":1716078538,"representative_point":{"type":"Point","coordinates":[-15.535471371611191,11.6688305]}},"geometry":{"type":"Polygon","coordinates":[[[-16.897501,12.2402664],[-16.6341872,11.1397911],[-16.2720565,10.8459524],[-15.561771,10.6666667],[-15.3416667,10.6666667],[-14.9576727,10.9770435],[-14.663604,11.504958],[-13.7081667,11.7074122],[-13.6963488,12.0081969],[-13.957884,12.1805282],[-13.658163,12.319961],[-13.7081477,12.6756152],[-15.1704425,12.6860081],[-15.6830653,12.4248531],[-16.2027665,12.4612528],[-16.897501,12.2402664]]]}}