{"type":"Feature","properties":{"tags":{"ISO3166-1":"GY","ISO3166-1:alpha2":"GY","ISO3166-1:alpha3":"GUY","ISO3166-1:numeric":"328","admin_level":"2","border_type":"nation","boundary":"administrative","default_language":"en","driving_side":"left","flag":"http:\/\/upload.wikimedia.org\/wikipedia\/commons\/9\/99\/Flag_of_Guyana.svg","name":"Guyana","name:ace":"Guyana","name:af":"Guyana","name:als":"Guyana","name:am":"\u130b\u12eb\u1293","name:an":"Guyana","name:ar":"\u063a\u0648\u064a\u0627\u0646\u0627","name:arz":"\u062c\u0648\u064a\u0627\u0646\u0627","name:ast":"Guyana","name:ay":"Wayana","name:az":"Qayana","name:ba":"\u0413\u0430\u0439\u0430\u043d\u0430","name:bat-smg":"Gajana","name:bcl":"Guyana","name:be":"\u0413\u0430\u044f\u043d\u0430","name:be-tarask":"\u0413\u0430\u044f\u043d\u0430","name:bg":"\u0413\u0432\u0438\u0430\u043d\u0430","name:bn":"\u0997\u09be\u09af\u09bc\u09be\u09a8\u09be","name:bo":"\u0f42\u0f74\u0f0b\u0f61\u0f0b\u0f53\u0f0d","name:bpy":"\u0997\u09be\u09af\u09bc\u09c7\u09a8\u09be","name:br":"Guyana","name:bs":"Gvajana","name:ca":"Guyana","name:ce":"\u0413\u0430\u0439\u0430\u043d\u0430","name:ceb":"Guyana","name:ckb":"\u06af\u0648\u06cc\u0627\u0646\u0627","name:crh":"Gayana","name:cs":"Guyana","name:cv":"\u0413\u0430\u0439\u0430\u043d\u0430","name:cy":"Guyana","name:da":"Guyana","name:de":"Guyana","name:diq":"Guyana","name:dsb":"Guyana","name:dv":"\u078e\u07aa\u0794\u07a7\u0782\u07a7","name:ee":"Guyana","name:el":"\u0393\u03bf\u03c5\u03b9\u03ac\u03bd\u03b1","name:en":"Guyana","name:eo":"Gujano","name:es":"Guyana","name:et":"Guyana","name:eu":"Guyana","name:ext":"Guyana","name:fa":"\u06af\u0648\u06cc\u0627\u0646","name:fi":"Guyana","name:fo":"Gujana","name:fr":"Guyana","name:frp":"Guyana","name:frr":"Guyana","name:fy":"Guyana","name:ga":"An Ghu\u00e1in","name:gag":"Gayana","name:gd":"Guiana","name:gl":"G\u00fciana","name:gn":"Guj\u00e1na","name:gu":"\u0a97\u0ac1\u0aaf\u0abe\u0aa8\u0abe","name:gv":"Geeaaney","name:hak":"Koi-\u00e2-n\u00e2","name:he":"\u05d2\u05d9\u05d0\u05e0\u05d4","name:hi":"\u0917\u092f\u093e\u0928\u093e","name:hif":"Guyana","name:hr":"Gvajana","name:hsb":"Guyana","name:ht":"Giy\u00e0n","name:hu":"Guyana","name:hy":"\u0533\u0561\u0575\u0561\u0576\u0561","name:ia":"Guyana","name:id":"Guyana","name:ie":"Guyana","name:ilo":"Guyana","name:io":"Guyana","name:is":"Gv\u00e6jana","name:it":"Guyana","name:ja":"\u30ac\u30a4\u30a2\u30ca","name:jbo":"gudjanas","name:jv":"Guyana","name:ka":"\u10d2\u10d0\u10d8\u10d0\u10dc\u10d0","name:kk":"\u0413\u0430\u0439\u0430\u043d\u0430","name:kl":"Guyana","name:kn":"\u0c97\u0caf\u0cbe\u0ca8","name:ko":"\uac00\uc774\uc544\ub098","name:krc":"\u0413\u0430\u0439\u0430\u043d\u0430","name:ku":"Guyana","name:kw":"Gwayana","name:la":"Guiana","name:lb":"Guyana","name:li":"Guyana","name:lij":"Guyana","name:lmo":"Gujana","name:ln":"Gwiana","name:lt":"Gajana","name:ltg":"Gajana","name:lv":"Gaj\u0101na","name:mdf":"\u0413\u0430\u0439\u0430\u043d\u0430","name:mhr":"\u0413\u0430\u0439\u0430\u043d\u0435","name:mi":"Kaiana","name:mk":"\u0413\u0432\u0430\u0458\u0430\u043d\u0430","name:ml":"\u0d17\u0d2f\u0d3e\u0d28","name:mn":"\u0413\u0430\u0439\u0430\u043d\u0430","name:mr":"\u0917\u092f\u093e\u0928\u093e","name:mrj":"\u0413\u0430\u0439\u0430\u043d\u0430","name:ms":"Guyana","name:mt":"Gujana","name:my":"\u1002\u102d\u102f\u1004\u103a\u101a\u102c\u1014\u102c\u1014\u102d\u102f\u1004\u103a\u1004\u1036","name:na":"Guyana","name:nah":"Guyana","name:nan":"Guyana","name:nds":"Guyana","name:ne":"\u0917\u0941\u092f\u0928\u093e","name:nl":"Guyana","name:nn":"Guyana","name:no":"Guyana","name:nov":"Guyana","name:oc":"Guyana","name:or":"\u0b17\u0b3e\u0b07\u0b13\u0b28\u0b3e","name:os":"\u0413\u0430\u0439\u0430\u043d\u00e6","name:pa":"\u0a17\u0a41\u0a07\u0a06\u0a28\u0a3e","name:pam":"Guyana","name:pap":"Guiana","name:pih":"Gwiiana","name:pl":"Gujana","name:pms":"Gujan-a","name:pnb":"\u06af\u06cc\u0622\u0646\u0627","name:ps":"\u06ab\u0648\u064a\u0627\u0646\u0627","name:pt":"Guiana","name:qu":"Wayana","name:ro":"Guyana","name:roa-rup":"Gaiana","name:ru":"\u0413\u0430\u0439\u0430\u043d\u0430","name:rw":"Giyana","name:sa":"\u0917\u092f\u093e\u0928\u093e","name:sah":"\u0413\u0430\u0439\u0430\u043d\u0430","name:sc":"Guyana","name:sco":"Guyana","name:se":"Guyana","name:sh":"Gvajana","name:simple":"Guyana","name:sk":"Guyana","name:sl":"Gvajana","name:smn":"Guyana","name:sms":"Guyana","name:so":"Guyana","name:sq":"Guajana","name:sr":"\u0413\u0432\u0430\u0458\u0430\u043d\u0430","name:srn":"Kayanakondre","name:su":"Guyana","name:sv":"Guyana","name:sw":"Guyana","name:szl":"Gujana","name:ta":"\u0b95\u0baf\u0bbe\u0ba9\u0bbe","name:te":"\u0c17\u0c2f\u0c3e\u0c28\u0c3e","name:tet":"Giana","name:th":"\u0e1b\u0e23\u0e30\u0e40\u0e17\u0e28\u0e01\u0e32\u0e22\u0e2d\u0e32\u0e19\u0e32","name:tl":"Guyana","name:tr":"Guyana","name:tt":"\u0413\u0430\u0439\u0430\u043d\u0430","name:tzl":"G\u00fciana","name:ug":"\u06af\u0627\u064a\u0627\u0646\u0627","name:uk":"\u0413\u0430\u044f\u043d\u0430","name:ur":"\u06af\u06cc\u0627\u0646\u0627","name:uz":"Gayana","name:vec":"Guyana","name:vi":"Guyana","name:vo":"Gvay\u00e4n","name:vro":"Guyana","name:war":"Guyana","name:wo":"Guyaana","name:wuu":"\u572d\u4e9a\u90a3","name:xal":"\u041d\u0438\u0438\u0442\u04d9 \u0413\u0430\u0439\u0430\u043d\u043c\u0443\u0434\u0438\u043d \u041e\u0440\u043d","name:yi":"\u05d2\u05d5\u05d9\u05d0\u05e0\u05e2","name:yo":"G\u00f9y\u00e1n\u00e0","name:yue":"\u572d\u4e9e\u90a3","name:zh":"\u572d\u4e9a\u90a3 \/ \u84cb\u4e9e\u90a3 \/ \u572d\u4e9e\u90a3","name:zh-HK":"\u572d\u4e9e\u90a3","name:zh-Hans":"\u572d\u4e9a\u90a3","name:zh-Hant":"\u84cb\u4e9e\u90a3 \/ \u572d\u4e9e\u90a3","name:zh-TW":"\u84cb\u4e9e\u90a3","official_name:cs":"Guyansk\u00e1 kooperativn\u00ed republika","official_name:en":"Republic of Guyana","official_name:es":"Rep\u00fablica de Guyana","official_name:ru":"\u0420\u0435\u0441\u043f\u0443\u0431\u043b\u0438\u043a\u0430 \u0413\u0430\u0439\u0430\u043d\u0430","timezone":"America\/Guyana","type":"boundary","wikidata":"Q734","wikipedia":"en:Guyana"},"timestamp":1716078538,"representative_point":{"type":"Point","coordinates":[-58.94227013196502,4.88732]}},"geometry":{"type":"Polygon","coordinates":[[[-59.7707163,8.6038842],[-59.9968457,8.545298],[-59.8352151,8.2346535],[-60.540174,7.815728],[-60.720363,7.538838],[-60.546525,7.125722],[-60.293551,7.133533],[-60.3754467,6.9306178],[-61.1380577,6.7220738],[-61.2321657,6.5706737],[-61.124137,6.1945285],[-61.3827239,5.9387023],[-60.7375541,5.2018977],[-60.1341927,5.2458691],[-59.9703392,5.0634393],[-60.1611406,4.5177256],[-59.6694788,4.3762949],[-59.7306906,4.1807644],[-59.5153007,3.9449247],[-59.8730383,3.5638526],[-59.991696,2.6860973],[-59.7232799,2.2767508],[-59.7494567,1.8505955],[-59.269,1.401],[-58.8212257,1.1710017],[-58.4962242,1.267963],[-58.5087259,1.4629461],[-58.3223661,1.5970146],[-58.004228,1.5030255],[-57.990093,1.6584388],[-57.5375973,1.7004953],[-57.3071169,1.9966525],[-56.7979303,1.8533579],[-56.4689543,1.9491824],[-56.6845852,2.026111],[-57.2037345,2.8358675],[-57.3054278,3.3890611],[-57.6735878,3.3851225],[-58.0709088,4.132066],[-57.8352124,4.6396916],[-57.8816173,4.8832107],[-57.1840699,5.1658603],[-57.3414297,5.32569],[-57.0239856,6.206482],[-58.1697377,7.043],[-58.3270141,7.473],[-58.9894097,8.179],[-59.7707163,8.6038842]]]}}