{"type":"Feature","properties":{"tags":{"ISO3166-1":"HR","ISO3166-1:alpha2":"HR","ISO3166-1:alpha3":"HRV","ISO3166-1:numeric":"191","admin_level":"2","alt_name:eo":"Kroatujo","boundary":"administrative","default_language":"hr","driving_side":"right","flag":"https:\/\/upload.wikimedia.org\/wikipedia\/commons\/1\/1b\/Flag_of_Croatia.svg","int_name":"Croatia","name":"Hrvatska","name:ab":"\u0425\u043e\u0440\u0432\u0430\u0442\u0438\u0430","name:ace":"Kroasia","name:af":"Kroasi\u00eb","name:als":"Kroatien","name:am":"\u12ad\u122e\u12a4\u123d\u12eb","name:an":"Croacia","name:ang":"Croatia","name:ar":"\u0643\u0631\u0648\u0627\u062a\u064a\u0627","name:arc":"\u0729\u072a\u0718\u0710\u071b\u071d\u0710","name:arz":"\u0643\u0631\u0648\u0627\u062a\u064a\u0627","name:ast":"Croacia","name:az":"Xorvatiya","name:ba":"\u0425\u043e\u0440\u0432\u0430\u0442\u0438\u044f","name:bar":"Krowozien","name:bat-smg":"Kruoat\u0117j\u0117","name:be":"\u0425\u0430\u0440\u0432\u0430\u0442\u044b\u044f","name:be-tarask":"\u0425\u0430\u0440\u0432\u0430\u0442\u044b\u044f","name:bg":"\u0425\u044a\u0440\u0432\u0430\u0442\u0438\u044f","name:bi":"Croatia","name:bn":"\u0995\u09cd\u09b0\u09cb\u09af\u09bc\u09c7\u09b6\u09bf\u09af\u09bc\u09be","name:bo":"\u0f41\u0f74\u0f62\u0f7c\u0f0b\u0f64\u0f72\u0f0b\u0f61\u0f0d","name:bpy":"\u0995\u09cd\u09b0\u09cb\u09af\u09bc\u09c7\u09b6\u09bf\u09af\u09bc\u09be","name:br":"Kroatia","name:bs":"Hrvatska","name:bxr":"\u0425\u043e\u0440\u0432\u0430\u0442","name:ca":"Cr\u00f2acia","name:ce":"\u0425\u043e\u0440\u0432\u0430\u0442\u0438","name:ceb":"Krowasya","name:chy":"Croatia","name:ckb":"\u06a9\u0631\u0648\u0627\u062a\u06cc\u0627","name:crh":"H\u0131rvatistan","name:cs":"Chorvatsko","name:csb":"Ch\u00f2rwack\u00f4","name:cu":"\u0425\u0440\u044a\u0432\u0430\u0442\u044c\u0441\u043a\u0430","name:cy":"Croatia","name:da":"Kroatien","name:de":"Kroatien","name:diq":"X\u0131rvat\u0131stan","name:dsb":"Chorwatska","name:dv":"\u0786\u07aa\u0783\u07ae\u0787\u07ad\u079d\u07a8\u0787\u07a7","name:ee":"Croatia","name:el":"\u039a\u03c1\u03bf\u03b1\u03c4\u03af\u03b1","name:en":"Croatia","name:eo":"Kroatio","name:es":"Croacia","name:et":"Horvaatia","name:eu":"Kroazia","name:ext":"Croacia","name:fa":"\u06a9\u0631\u0648\u0627\u0633\u06cc","name:fi":"Kroatia","name:fo":"Kroatia","name:fr":"Croatie","name:frp":"Croacie","name:frr":"Kroatien","name:fur":"Cravuazie","name:fy":"Kroaasje","name:ga":"An Chr\u00f3it","name:gag":"Horvatiya","name:gd":"Cro\u00e0isia","name:gl":"Croacia","name:gn":"Kyoasia","name:gu":"\u0a95\u0acd\u0ab0\u0acb\u0a8f\u0ab6\u0abf\u0aaf\u0abe","name:gv":"Yn Chroit","name:hak":"Khiet-l\u00f2-thi-\u00e2","name:haw":"Koloatia","name:he":"\u05e7\u05e8\u05d5\u05d0\u05d8\u05d9\u05d4","name:hi":"\u0915\u094d\u0930\u094b\u090f\u0936\u093f\u092f\u093e","name:hif":"Croatia","name:hr":"Hrvatska","name:hsb":"Chorwatska","name:ht":"Kroasi","name:hu":"Horv\u00e1torsz\u00e1g","name:hy":"\u053d\u0578\u0580\u057e\u0561\u0569\u056b\u0561","name:ia":"Croatia","name:id":"Kroasia","name:ie":"Croatia","name:ilo":"Kro\u00e1sia","name:io":"Kroatia","name:is":"Kr\u00f3at\u00eda","name:it":"Croazia","name:ja":"\u30af\u30ed\u30a2\u30c1\u30a2","name:jbo":"xrvatskas","name:jv":"Kroasia","name:ka":"\u10ee\u10dd\u10e0\u10d5\u10d0\u10e2\u10d8\u10d0","name:kaa":"Xorvatiya","name:kbd":"\u0425\u043e\u0440\u0443\u0430\u0442\u0438\u044d","name:kg":"Kroatia","name:kk":"\u0425\u043e\u0440\u0432\u0430\u0442\u0438\u044f","name:kl":"Kroatia","name:kn":"\u0c95\u0ccd\u0cb0\u0cca\u0caf\u0cc6\u0cb6\u0cbf\u0caf","name:ko":"\ud06c\ub85c\uc544\ud2f0\uc544","name:koi":"\u0425\u04e7\u0440\u0432\u0430\u0442\u0441\u043a\u0430","name:krc":"\u0425\u043e\u0440\u0432\u0430\u0442\u0438\u044f","name:ku":"Kroatya","name:kv":"\u0425\u043e\u0440\u0432\u0430\u0442\u0438\u044f","name:kw":"Kroati","name:ky":"\u0425\u043e\u0440\u0432\u0430\u0442\u0438\u044f","name:la":"Croatia","name:lb":"Kroatien","name:li":"Kroati\u00eb","name:lij":"Croa\u00e7ia","name:lmo":"Cruazia","name:ln":"Kroasia","name:lt":"Kroatija","name:ltg":"Horvateja","name:lv":"Horv\u0101tija","name:mdf":"\u0425\u043e\u0440\u0432\u0430\u0442\u0438\u0435","name:mhr":"\u0425\u043e\u0440\u0432\u0430\u0442\u0438\u0439","name:mi":"Koro\u0101tia","name:min":"Kroasia","name:mk":"\u0425\u0440\u0432\u0430\u0442\u0441\u043a\u0430","name:ml":"\u0d15\u0d4d\u0d30\u0d4a\u0d2f\u0d47\u0d37\u0d4d\u0d2f","name:mn":"\u0425\u043e\u0440\u0432\u0430\u0442","name:mr":"\u0915\u094d\u0930\u094b\u090f\u0936\u093f\u092f\u093e","name:ms":"Croatia","name:mt":"Kroazja","name:my":"\u1001\u101b\u102d\u102f\u1021\u1031\u1038\u101b\u103e\u102c\u1038\u1014\u102d\u102f\u1004\u103a\u1004\u1036","name:na":"Kroaitsiya","name:nah":"Croacia","name:nan":"Hrvatska","name:nap":"Croazia","name:nds":"Kroatien","name:nds-nl":"Kroasi\u00eb","name:ne":"\u0915\u094d\u0930\u094b\u090f\u0936\u093f\u092f\u093e","name:new":"\u0915\u094d\u0930\u094b\u090f\u0938\u093f\u092f\u093e","name:nl":"Kroati\u00eb","name:nn":"Kroatia","name:no":"Kroatia","name:nov":"Kroatia","name:nv":"Kw\u00f3\u00f3\u02bcad Bik\u00e9yah","name:oc":"Cro\u00e0cia","name:or":"\u0b15\u0b4d\u0b30\u0b4b\u0b0f\u0b38\u0b3f\u0b06","name:os":"\u0425\u043e\u0440\u0432\u0430\u0442\u0438","name:pa":"\u0a15\u0a4d\u0a30\u0a4b\u0a0f\u0a38\u0a3c\u0a40\u0a06","name:pag":"Kroasiya","name:pam":"Croasya","name:pap":"Kroatia","name:pcd":"Croachie","name:pdc":"Kroaati","name:pih":"Kroaysha","name:pl":"Chorwacja","name:pms":"Croassia","name:pnb":"\u06a9\u0631\u0648\u0634\u06cc\u0627","name:pnt":"\u039a\u03c1\u03bf\u03b1\u03c4\u03af\u03b1","name:ps":"\u06a9\u0631\u0648\u0648\u0627\u0633\u064a\u0627","name:pt":"Cro\u00e1cia","name:qu":"Hurwatsuyu","name:rn":"Croacia","name:ro":"Croa\u021bia","name:roa-rup":"Croatia","name:roa-tara":"Croazie","name:ru":"\u0425\u043e\u0440\u0432\u0430\u0442\u0438\u044f","name:rue":"\u0425\u043e\u0440\u0432\u0430\u0442\u0456\u044f","name:rw":"Korowatiya","name:sa":"\u0915\u094d\u0930\u094b\u090f\u0936\u093f\u092f\u093e","name:sah":"\u0425\u043e\u0440\u0432\u0430\u0442\u0438\u044f","name:sc":"Croatzia","name:scn":"Croazzia","name:sco":"Croatie","name:se":"Kroatia","name:sg":"Kroas\u00efi","name:sh":"Hrvatska","name:sk":"Chorv\u00e1tsko","name:sl":"Hrva\u0161ka","name:sm":"Croatia","name:smn":"Kroatia","name:sms":"Kroatia","name:so":"Kroatia","name:sq":"Kroacia","name:sr":"\u0425\u0440\u0432\u0430\u0442\u0441\u043a\u0430","name:sr-Latn":"Hrvatska","name:ss":"IKhuroshiya","name:st":"Kroatia","name:stq":"Kroatien","name:su":"Kroasia","name:sv":"Kroatien","name:sw":"Kroatia","name:szl":"Chorwacyj\u014f","name:ta":"\u0b95\u0bc1\u0bb0\u0bcb\u0bb5\u0bbe\u0b9a\u0bbf\u0baf\u0bbe","name:te":"\u0c15\u0c4d\u0c30\u0c4a\u0c2f\u0c47\u0c37\u0c3f\u0c2f\u0c3e","name:tg":"\u0425\u043e\u0440\u0432\u0430\u0442\u0438\u044f","name:th":"\u0e1b\u0e23\u0e30\u0e40\u0e17\u0e28\u0e42\u0e04\u0e23\u0e40\u0e2d\u0e40\u0e0a\u0e35\u0e22","name:tk":"Horwati\u00fda","name:tl":"Kroasya","name:tpi":"Krowesia","name:tr":"H\u0131rvatistan","name:tt":"\u0425\u043e\u0440\u0432\u0430\u0442\u0438\u044f","name:tzl":"C'horvoi\u00e7a","name:udm":"\u0425\u043e\u0440\u0432\u0430\u0442\u0438\u044f","name:ug":"\u0643\u0631\u0648\u062f\u0649\u064a\u06d5","name:uk":"\u0425\u043e\u0440\u0432\u0430\u0442\u0456\u044f","name:ur":"\u06a9\u0631\u0648\u0634\u06cc\u0627","name:uz":"Xorvatiya","name:vec":"Cro\u00e0sia","name:vep":"Horvatii","name:vi":"Croatia","name:vls":"Kroati\u00eb","name:vo":"Kroas\u00e4n","name:vro":"Horvaatia","name:wa":"Crowaceye","name:war":"Kroasya","name:wo":"Korwaasi","name:wuu":"\u514b\u7f57\u5730\u4e9a","name:xal":"\u0425\u043e\u0440\u0432\u0430\u0442\u0438\u043d \u041e\u0440\u043d","name:xmf":"\u10ee\u10dd\u10e0\u10d5\u10d0\u10e2\u10d8\u10d0","name:yi":"\u05e7\u05e8\u05d0\u05d0\u05d8\u05d9\u05e2","name:yo":"Kroat\u00ed\u00e0","name:yue":"\u514b\u7f85\u5730\u4e9e","name:za":"Gwzlozdiya","name:zea":"Kroaoti\u00eb","name:zh":"\u514b\u7f57\u5730\u4e9a","name:zh-Hans":"\u514b\u7f57\u5730\u4e9a","name:zh-Hant":"\u514b\u7f85\u5730\u4e9e","official_name":"Republika Hrvatska","official_name:cs":"Chorvatsk\u00e1 republika","official_name:el":"\u0394\u03b7\u03bc\u03bf\u03ba\u03c1\u03b1\u03c4\u03af\u03b1 \u03c4\u03b7\u03c2 \u039a\u03c1\u03bf\u03b1\u03c4\u03af\u03b1\u03c2","official_name:eo":"Respubliko Kroatio","official_name:zh":"\u514b\u7f57\u5730\u4e9a\u5171\u548c\u56fd","official_name:zh-Hans":"\u514b\u7f57\u5730\u4e9a\u5171\u548c\u56fd","official_name:zh-Hant":"\u514b\u7f85\u5730\u4e9e\u5171\u548c\u570b","population":"3871833","population:date":"2021-08-31","ref:nuts:1":"HR0","source:population":"DZS 2021","timezone":"Europe\/Zagreb","type":"boundary","wikidata":"Q224","wikipedia":"hr:Hrvatska"},"timestamp":1716078538,"representative_point":{"type":"Point","coordinates":[15.13381131624326,44.366563]}},"geometry":{"type":"MultiPolygon","coordinates":[[[[13.3844445,45.5659444],[13.2104814,45.4530566],[13.3520879,44.9639932],[13.7010303,44.5986824],[15.9201961,43.2333928],[15.381528,43.2843522],[15.1877612,43.0665651],[15.6368889,42.8255766],[16.2335375,42.8143718],[16.3383335,42.5828622],[16.0244896,42.4965202],[16.0675276,42.2438173],[16.5475644,42.2510879],[16.4795635,42.5486433],[17.2837082,42.5716125],[18.4195781,42.2096003],[18.5398406,42.3923873],[18.4380795,42.5555843],[17.5404921,42.9285813],[17.7119582,42.9729212],[17.2780985,43.4720055],[16.1724122,44.2086614],[16.0547381,44.6255249],[15.7287433,44.8253172],[15.764625,45.1662789],[15.9799056,45.2297651],[16.3471648,45.0009529],[16.513027,45.2205956],[16.932068,45.276334],[17.8514981,45.044287],[18.6731864,45.0949392],[18.7674367,44.9027042],[19.0214147,44.8553961],[19.1560553,44.9530174],[19.0864014,45.1454189],[19.4472713,45.1959112],[19.2606876,45.2426658],[19.1866327,45.2667471],[19.0536233,45.3430856],[18.9968674,45.3611698],[19.1008826,45.5122492],[18.9234256,45.5497737],[18.9786634,45.7422513],[18.8533622,45.8260494],[18.8552523,45.8591046],[18.890209,45.9220529],[18.8149945,45.9094145],[18.446853,45.737128],[17.8620311,45.7677339],[16.5968135,46.4758356],[16.3675292,46.5548479],[16.3015589,46.3782941],[15.6471874,46.2171731],[15.7093159,45.8465189],[15.2575156,45.7245342],[15.4062025,45.6500139],[15.2770525,45.6044548],[15.3458092,45.4563469],[14.81762,45.4595023],[14.5700102,45.6729436],[14.3227722,45.4704149],[13.5856536,45.4785507],[13.4679768,45.5883846],[13.3844445,45.5659444]]],[[[15.3014583,45.6896784],[15.3032669,45.6891646],[15.3064691,45.6911896],[15.3033256,45.689876],[15.3014583,45.6896784]]],[[[15.3002072,45.6925171],[15.3054508,45.6933446],[15.3055228,45.6950303],[15.3039683,45.696516],[15.3002072,45.6925171]]]]}}