{"type":"Feature","properties":{"tags":{"ISO3166-1":"IS","ISO3166-1:alpha2":"IS","ISO3166-1:alpha3":"ISL","ISO3166-1:numeric":"352","admin_level":"2","boundary":"administrative","default_language":"is","flag":"http:\/\/upload.wikimedia.org\/wikipedia\/commons\/c\/ce\/Flag_of_Iceland.svg","int_name":"Iceland","name":"\u00cdsland","name:ace":"Islandia","name:af":"Ysland","name:als":"Island","name:am":"\u12a0\u12ed\u1235\u120b\u1295\u12f5","name:an":"Islandia","name:ang":"\u012asland","name:ar":"\u0622\u064a\u0633\u0644\u0646\u062f\u0627","name:arz":"\u0627\u064a\u0633\u0644\u0627\u0646\u062f\u0627","name:ast":"Islandia","name:az":"\u0130slandiya","name:ba":"\u0418\u0441\u043b\u0430\u043d\u0434\u0438\u044f","name:bar":"Island","name:bat-smg":"Island\u0117j\u0117","name:bcl":"Islanda","name:be":"\u0406\u0441\u043b\u0430\u043d\u0434\u044b\u044f","name:be-tarask":"\u0406\u0441\u044c\u043b\u044f\u043d\u0434\u044b\u044f","name:bg":"\u0418\u0441\u043b\u0430\u043d\u0434\u0438\u044f","name:bi":"Iceland","name:bm":"Aisland","name:bn":"\u0986\u0987\u09b8\u09b2\u09cd\u09af\u09be\u09a8\u09cd\u09a1","name:bo":"\u0f68\u0f61\u0f72\u0f66\u0f74\u0f0b\u0f63\u0f7a\u0f53\u0f0b\u0f4c\u0f0d","name:bpy":"\u0986\u0987\u09b8\u09b2\u09cd\u09af\u09be\u09a8\u09cd\u09a1","name:br":"Island","name:bs":"Island","name:bxr":"\u0418\u0441\u043b\u0430\u043d\u0434","name:ca":"Isl\u00e0ndia","name:ce":"\u0418\u0441\u043b\u0430\u043d\u0434\u0438","name:ceb":"Islandya","name:chr":"\u13a4\u13c1\u13cd\u13d3\u13b6\u13a2","name:ckb":"\u0626\u0627\u06cc\u0633\u0644\u06d5\u0646\u062f","name:co":"Islanda","name:crh":"\u0130slandiya","name:cs":"Island","name:csb":"Island\u00ebj\u00f4","name:cu":"\u0418\u0441\u043b\u0430\u043d\u0434\u044a","name:cv":"\u0418\u0441\u043b\u0430\u043d\u0434\u0438","name:cy":"Gwlad yr I\u00e2","name:da":"Island","name:de":"Island","name:diq":"\u0130slanda","name:dsb":"Islandska","name:dv":"\u0787\u07a6\u0787\u07a8\u0790\u07b0\u078d\u07a6\u0782\u07b0\u0791\u07a6\u0782\u07b0","name:dz":"\u0f68\u0f60\u0f72\u0f66\u0f72\u0f0b\u0f63\u0f7a\u0f53\u0f4c\u0f0b","name:ee":"Iceland","name:el":"\u0399\u03c3\u03bb\u03b1\u03bd\u03b4\u03af\u03b1","name:eml":"Islanda","name:en":"Iceland","name:eo":"Islando","name:es":"Islandia","name:et":"Island","name:eu":"Islandia","name:ext":"Isl\u00e1ndia","name:fa":"\u0627\u06cc\u0633\u0644\u0646\u062f","name:ff":"Islannda","name:fi":"Islanti","name:fo":"\u00cdsland","name:fr":"Islande","name:frp":"Islande","name:frr":"Isl\u00f6nj","name:fur":"Islande","name:fy":"Ysl\u00e2n","name:ga":"An \u00cdoslainn","name:gag":"\u0130slandiya","name:gd":"Innis T\u00ecle","name:gl":"Islandia","name:gn":"Iylanda","name:gu":"\u0a86\u0a88\u0ab8\u0ab2\u0ac7\u0a82\u0aa1","name:gv":"Yn Eeslynn","name:hak":"P\u00ean-t\u00f3","name:haw":"\u02bb\u0100ina Hau","name:he":"\u05d0\u05d9\u05e1\u05dc\u05e0\u05d3","name:hi":"\u0906\u0907\u0938\u0932\u0948\u0923\u094d\u0921","name:hif":"Iceland","name:hr":"Island","name:hsb":"Islandska","name:ht":"Islann","name:hu":"Izland","name:hy":"\u053b\u057d\u056c\u0561\u0576\u0564\u056b\u0561","name:ia":"Islanda","name:id":"Islandia","name:ie":"Island","name:ilo":"Islandia","name:io":"Islando","name:is":"\u00cdsland","name:it":"Islanda","name:ja":"\u30a2\u30a4\u30b9\u30e9\u30f3\u30c9","name:jbo":"island","name:jv":"Islandia","name:ka":"\u10d8\u10e1\u10da\u10d0\u10dc\u10d3\u10d8\u10d0","name:kaa":"\u0130slandiya","name:kab":"Island","name:kbd":"\u0418\u0441\u043b\u044d\u043d\u0434","name:kg":"Islande","name:kk":"\u0418\u0441\u043b\u0430\u043d\u0434\u0438\u044f","name:kl":"Islandi","name:km":"\u1794\u17d2\u179a\u1791\u17c1\u179f\u17a2\u17b6\u1799\u17a1\u17c2\u1793","name:kn":"\u0c90\u0cb8\u0ccd\u200d\u0cb2\u0ccd\u0caf\u0cbe\u0c82\u0ca1\u0ccd","name:ko":"\uc544\uc774\uc2ac\ub780\ub4dc","name:koi":"\u0418\u0441\u043b\u0430\u043d\u0434","name:krc":"\u0418\u0441\u043b\u0430\u043d\u0434\u0438\u044f","name:ku":"\u00ceslenda","name:kv":"\u0418\u0441\u043b\u0430\u043d\u0434\u0438\u044f","name:kw":"Island","name:ky":"\u0418\u0441\u043b\u0430\u043d\u0434\u0438\u044f","name:la":"Islandia","name:lad":"Islandia","name:lb":"Island","name:lez":"\u0418\u0441\u043b\u0430\u043d\u0434\u0438\u044f","name:lg":"Isilandi","name:li":"Iesland","name:lij":"Islanda","name:lmo":"Islanda","name:ln":"Islandi","name:lo":"\u0ead\u0eb4\u0e94\u0eaa\u0eb0\u0ea5\u0eb1\u0e87","name:lt":"Islandija","name:ltg":"\u012aslandeja","name:lv":"Islande","name:lzh":"\u51b0\u5cf6","name:mdf":"\u0418\u0441\u043b\u0430\u043d\u0434\u0430","name:mhr":"\u0418\u0441\u043b\u0430\u043d\u0434\u0438\u0439","name:mi":"Tiorangi","name:mk":"\u0418\u0441\u043b\u0430\u043d\u0434","name:ml":"\u0d10\u0d38\u0d4d\u200c\u0d32\u0d3e\u0d28\u0d4d\u0d31\u0d4d","name:mn":"\u0418\u0441\u043b\u0430\u043d\u0434","name:mr":"\u0906\u0907\u0938\u0932\u0901\u0921","name:ms":"Iceland","name:mt":"I\u017clanda","name:mwl":"Eisl\u00e1ndia","name:my":"\u1021\u102d\u102f\u1000\u103a\u1005\u101c\u1014\u103a\u1014\u102d\u102f\u1004\u103a\u1004\u1036","name:na":"Aiterand","name:nah":"Iztl\u0101lpan","name:nan":"Peng-t\u00f3","name:nds":"Iesland","name:nds-nl":"Ieslaand","name:ne":"\u0906\u0907\u0938\u0932\u094d\u092f\u093e\u0923\u094d\u0921","name:nl":"IJsland","name:nn":"Island","name:no":"Island","name:nov":"Islande","name:nrm":"Islaunde","name:nv":"Tin Bik\u00e9yah","name:oc":"Isl\u00e0ndia","name:or":"\u0b06\u0b07\u0b38\u0b32\u0b4d\u0b5f\u0b3e\u0b23\u0b4d\u0b21","name:os":"\u0418\u0441\u043b\u0430\u043d\u0434\u0438","name:pa":"\u0a06\u0a08\u0a38\u0a32\u0a48\u0a02\u0a21","name:pam":"Islandya","name:pcd":"Islinde","name:pih":"Iseland","name:pl":"Islandia","name:pms":"Islanda","name:pnb":"\u0622\u0626\u0633 \u0644\u06cc\u0646\u0688","name:pnt":"\u0399\u03c3\u03bb\u03b1\u03bd\u03b4\u03af\u03b1","name:ps":"\u0622\u064a\u0633\u0644\u06d0\u0646\u0689","name:pt":"Isl\u00e2ndia","name:qu":"Islandya","name:rm":"Islanda","name:ro":"Islanda","name:roa-rup":"Islanda","name:roa-tara":"Islanne","name:ru":"\u0418\u0441\u043b\u0430\u043d\u0434\u0438\u044f","name:rue":"\u0406\u0441\u043b\u0430\u043d\u0434","name:rw":"Isilande","name:sa":"\u0906\u0907\u0938\u0932\u0948\u0902\u0921","name:sah":"\u0418\u0441\u043b\u0430\u043d\u0434\u0438\u044f","name:sc":"Islanda","name:scn":"Islandia","name:sco":"Iceland","name:se":"Isl\u00e1nda","name:sg":"Isl\u00e2nde","name:sh":"Island","name:si":"\u0d85\u0dba\u0dd2\u0dc3\u0dca\u0dbd\u0db1\u0dca\u0dad\u0dba","name:sk":"Island","name:sl":"Islandija","name:sm":"Aiselani","name:smn":"Island","name:sms":"Islantt","name:so":"Island","name:sq":"Islanda","name:sr":"\u0418\u0441\u043b\u0430\u043d\u0434","name:ss":"Echweni","name:st":"Iceland","name:stq":"Ieslound","name:su":"Islandia","name:sv":"Island","name:sw":"Iceland","name:szl":"Islandyj\u014f","name:ta":"\u0b90\u0b9a\u0bc1\u0bb2\u0bbe\u0ba8\u0bcd\u0ba4\u0bc1","name:te":"\u0c10\u0c38\u0c4d\u200c\u0c32\u0c3e\u0c02\u0c21\u0c4d","name:tet":"Izl\u00e1ndia","name:tg":"\u0418\u0441\u043b\u0430\u043d\u0434\u0438\u044f","name:th":"\u0e1b\u0e23\u0e30\u0e40\u0e17\u0e28\u0e44\u0e2d\u0e0b\u0e4c\u0e41\u0e25\u0e19\u0e14\u0e4c","name:tk":"Islandi\u00fda","name:tl":"Lupangyelo","name:tok":"ma Isilan","name:tpi":"Aislan","name:tr":"\u0130zlanda","name:tt":"\u0418\u0441\u043b\u0430\u043d\u0434\u0438\u044f","name:tzl":"Isp\u00e4ts","name:udm":"\u0418\u0441\u043b\u0430\u043d\u0434\u0438\u044f","name:ug":"\u0626\u0649\u0633\u0644\u0627\u0646\u062f\u0649\u064a\u06d5","name:uk":"\u0406\u0441\u043b\u0430\u043d\u0434\u0456\u044f","name:ur":"\u0622\u0626\u0633 \u0644\u06cc\u0646\u0688","name:uz":"Islandiya","name:vec":"Islanda","name:vep":"Islandii","name:vi":"Iceland","name:vls":"Ysland","name:vo":"Lislade\u00e4n","name:vro":"Island","name:wa":"Izlande","name:war":"Islandya","name:wo":"Islaand","name:wuu":"\u51b0\u5c9b","name:xal":"\u0418\u0441\u043b\u0433\u0443\u0434\u0438\u043d \u041e\u0440\u043d","name:xmf":"\u10d8\u10e1\u10da\u10d0\u10dc\u10d3\u10d8\u10d0","name:yi":"\u05d0\u05d9\u05e1\u05dc\u05d0\u05e0\u05d3","name:yo":"\u00cdsl\u00e1nd\u00ec","name:yue":"\u51b0\u5cf6","name:zea":"Iesland","name:zh":"\u51b0\u5c9b \/ \u51b0\u5cf6","name:zh-Hans":"\u51b0\u5c9b","name:zh-Hant":"\u51b0\u5cf6","name:zu":"I-Ayisilandi","official_name":"L\u00fd\u00f0veldi\u00f0 \u00cdsland","official_name:cs":"Islandsk\u00e1 republika","official_name:de":"Republik Island","official_name:en":"Republic of Iceland","official_name:eo":"Islanda Respubliko","official_name:fi":"Islannin tasavalta","official_name:fr":"R\u00e9publique d'Islande","official_name:is":"L\u00fd\u00f0veldi\u00f0 \u00cdsland","official_name:pt":"Rep\u00fablica da Isl\u00e2ndia","official_name:sv":"Republiken Island","population":"320000","ref:nuts":"IS0;IS00","ref:nuts:1":"IS0","ref:nuts:2":"IS00","timezone":"Atlantic\/Reykjavik","type":"boundary","wikidata":"Q189","wikipedia":"is:\u00cdsland"},"timestamp":1716078538,"representative_point":{"type":"Point","coordinates":[-18.81753348032626,64.93899205]}},"geometry":{"type":"MultiPolygon","coordinates":[[[[-25.0052698,65.5382093],[-23.6531085,63.5559235],[-20.6951141,63.0904784],[-17.9666683,63.2775858],[-17.3176763,63.5463023],[-16.4455447,63.6046373],[-13.6425931,64.4690241],[-13.1265937,64.3957843],[-12.8054995,64.5735688],[-13.2195536,64.7832596],[-13.0138375,65.0537656],[-13.135891,65.5523387],[-14.1044015,66.4790366],[-15.8897915,66.7266712],[-16.7327447,66.6850323],[-17.5467834,66.4291739],[-17.4808144,66.5592144],[-17.6303671,66.6925919],[-18.1676717,66.7570018],[-18.513571,66.6051529],[-18.3170963,66.37685],[-20.1192119,66.336825],[-23.0736582,66.6569762],[-24.1865798,66.1665594],[-25.0052698,65.5382093]]],[[[-19.1994557,67.153],[-18.6888464,66.948],[-18.1602346,67.151],[-18.6731855,67.353],[-19.1994557,67.153]]]]}}