{"type":"Feature","properties":{"tags":{"ISO3166-1":"IT","ISO3166-1:alpha2":"IT","ISO3166-1:alpha3":"ITA","ISO3166-1:numeric":"380","TMC:cid_58:tabcd_1:Class":"Area","TMC:cid_58:tabcd_1:LCLversion":"8.00","TMC:cid_58:tabcd_1:LocationCode":"11","admin_level":"2","alt_name:eo":"Italujo","alt_name:vi":"I-ta-li-a","boundary":"administrative","currency":"EUR","default_language":"it","flag":"http:\/\/upload.wikimedia.org\/wikipedia\/commons\/0\/03\/Flag_of_Italy.svg","int_name":"Italia","name":"Italia","name:ab":"\u0418\u0442\u0430\u043b\u0438\u0430","name:ace":"Itali","name:af":"Itali\u00eb","name:ak":"Italy","name:als":"Italien","name:am":"\u1323\u120d\u12eb\u1295","name:an":"Italia","name:ang":"Italia","name:ar":"\u0625\u064a\u0637\u0627\u0644\u064a\u0627","name:arc":"\u0710\u071d\u071b\u0720\u071d\u0710","name:arz":"\u0627\u064a\u0637\u0627\u0644\u064a\u0627","name:as":"\u0987\u099f\u09be\u09b2\u09c0","name:ast":"Italia","name:ay":"Italiya","name:az":"\u0130taliya","name:ba":"\u0418\u0442\u0430\u043b\u0438\u044f","name:bar":"Italien","name:bat-smg":"Ital\u0117j\u0117","name:bcl":"Italya","name:be":"\u0406\u0442\u0430\u043b\u0456\u044f","name:be-tarask":"\u0406\u0442\u0430\u043b\u0456\u044f","name:bg":"\u0418\u0442\u0430\u043b\u0438\u044f","name:bi":"Itali","name:bn":"\u0987\u09a4\u09be\u09b2\u09bf","name:bo":"\u0f68\u0f72\u0f0b\u0f4f\u0f0b\u0f63\u0f72\u0f0d","name:bpy":"\u0987\u09a4\u09be\u09b2\u09bf","name:br":"Italia","name:bs":"Italija","name:bug":"Italia","name:bxr":"\u0418\u0442\u0430\u0430\u043b\u0438","name:ca":"It\u00e0lia","name:cbk-zam":"Italia","name:cdo":"\u00c9-d\u00e2i-l\u00e9","name:ce":"\u0418\u0442\u0430\u043b\u0438","name:ceb":"Italya","name:chr":"\u13a2\u13d4\u13b5\u13f1","name:chy":"Italy","name:ckb":"\u0626\u06cc\u062a\u0627\u0644\u06cc\u0627","name:co":"Italia","name:cr":"\u1403\u1455\u14d6","name:crh":"\u0130taliya","name:cs":"It\u00e1lie","name:csb":"Italsk\u00f4","name:cu":"\u0418\u0442\u0430\u043b\u0457\ua657","name:cv":"\u0418\u0442\u0430\u043b\u0438","name:cy":"Yr Eidal","name:da":"Italien","name:de":"Italien","name:din":"Italia","name:diq":"\u0130talya","name:dsb":"Italska","name:dv":"\u0787\u07a8\u0793\u07a6\u078d\u07a9\u0788\u07a8\u078d\u07a7\u078c\u07b0","name:dz":"\u0f68\u0f80\u0f4a\u0f0b\u0f63\u0f72\u0f0b","name:ee":"Italy","name:el":"\u0399\u03c4\u03b1\u03bb\u03af\u03b1","name:eml":"It\u00e2glia","name:en":"Italy","name:eo":"Italio","name:es":"Italia","name:et":"Itaalia","name:eu":"Italia","name:ext":"It\u00e1lia","name:fa":"\u0627\u06cc\u062a\u0627\u0644\u06cc\u0627","name:ff":"Italiya","name:fi":"Italia","name:fo":"Italia","name:fr":"Italie","name:frp":"\u00c9talie","name:frr":"Itaalien","name:fur":"Italie","name:fy":"Itaalje","name:ga":"An Iod\u00e1il","name:gag":"\u0130taliya","name:gan":"\u610f\u5927\u5229","name:gd":"An Eadailt","name:gl":"Italia","name:gn":"It\u00e1lia","name:grc":"\u1f38\u03c4\u03b1\u03bb\u03af\u03b1","name:gu":"\u0a88\u0a9f\u0ab2\u0ac0","name:gv":"Yn Iddaal","name:hak":"Yi-thai-li","name:haw":"\u02bb\u012ak\u0101lia","name:he":"\u05d0\u05d9\u05d8\u05dc\u05d9\u05d4","name:hi":"\u0907\u091f\u0932\u0940","name:hif":"Italy","name:hr":"Italija","name:hsb":"Italska","name:ht":"Itali","name:hu":"Olaszorsz\u00e1g","name:hy":"\u053b\u057f\u0561\u056c\u056b\u0561","name:ia":"Italia","name:id":"Italia","name:ie":"Italia","name:ilo":"Italia","name:io":"Italia","name:is":"\u00cdtal\u00eda","name:it":"Italia","name:ja":"\u30a4\u30bf\u30ea\u30a2","name:jbo":"italias","name:jv":"Italia","name:ka":"\u10d8\u10e2\u10d0\u10da\u10d8\u10d0","name:kaa":"\u0130taliya","name:kab":"\u1e6celyan","name:kbd":"\u0423\u0440\u044b\u043c","name:kg":"Italia","name:ki":"Italia","name:kk":"\u0418\u0442\u0430\u043b\u0438\u044f","name:kl":"Italia","name:km":"\u17a2\u17ca\u17b8\u178f\u17b6\u179b\u17b8","name:kn":"\u0c87\u0c9f\u0cb2\u0cbf","name:ko":"\uc774\ud0c8\ub9ac\uc544","name:koi":"\u0418\u0442\u0430\u043b\u044c\u044f","name:krc":"\u0418\u0442\u0430\u043b\u0438\u044f","name:ku":"\u00cetalya","name:kv":"\u0418\u0442\u0430\u043b\u0438\u044f","name:kw":"Itali","name:ky":"\u0418\u0442\u0430\u043b\u0438\u044f","name:la":"Italia","name:lad":"Italia","name:lb":"Italien","name:lez":"\u0418\u0442\u0430\u043b\u0438\u044f","name:lg":"Yitale","name:li":"Itali\u00eb","name:lij":"Italia","name:lld":"Talia","name:lmo":"It\u00e0lia","name:ln":"Italya","name:lo":"\u0ead\u0eb4\u0e95\u0eb2\u0ea5\u0eb5","name:lt":"Italija","name:ltg":"Italeja","name:lv":"It\u0101lija","name:lzh":"\u7fa9\u5927\u5229","name:map-bms":"Italia","name:mdf":"\u0418\u0442\u0430\u043b\u0438\u0435","name:mg":"Italia","name:mhr":"\u0418\u0442\u0430\u043b\u0438\u0439","name:mi":"Itari","name:min":"Italia","name:mk":"\u0418\u0442\u0430\u043b\u0438\u0458\u0430","name:ml":"\u0d07\u0d31\u0d4d\u0d31\u0d32\u0d3f","name:mn":"\u0418\u0442\u0430\u043b\u0438","name:mr":"\u0907\u091f\u0932\u0940","name:ms":"Itali","name:mt":"Italja","name:mwl":"Eit\u00e1lia","name:my":"\u1021\u102e\u1010\u101c\u102e\u1014\u102d\u102f\u1004\u103a\u1004\u1036","name:mzn":"\u0627\u06cc\u062a\u0627\u0644\u06cc\u0627","name:na":"Itari","name:nah":"Italia","name:nan":"Italia","name:nap":"Italia","name:nds":"Italien","name:nds-nl":"Itali\u00ebn","name:ne":"\u0907\u091f\u093e\u0932\u0940","name:new":"\u0907\u091f\u093e\u0932\u0940","name:nl":"Itali\u00eb","name:nn":"Italia","name:no":"Italia","name:nov":"Italia","name:nrm":"Italie","name:nso":"Italia","name:nv":"\u00cddelii","name:oc":"It\u00e0lia","name:or":"\u0b07\u0b1f\u0b3e\u0b32\u0b40","name:os":"\u0418\u0442\u0430\u043b\u0438","name:pa":"\u0a07\u0a1f\u0a32\u0a40","name:pag":"Italia","name:pam":"Italia","name:pap":"Italia","name:pcd":"Italie","name:pdc":"Idali","name:pfl":"Idalje","name:pih":"Italii","name:pl":"W\u0142ochy","name:pms":"Italia","name:pnb":"\u0627\u0679\u0644\u06cc","name:pnt":"\u0399\u03c4\u03b1\u03bb\u03af\u03b1","name:ps":"\u0627\u06d0\u067c\u0627\u0644\u064a\u0627","name:pt":"It\u00e1lia","name:qu":"Italya","name:rm":"Italia","name:rmy":"Italiya","name:ro":"Italia","name:roa-tara":"Itaglie","name:ru":"\u0418\u0442\u0430\u043b\u0438\u044f","name:rue":"\u0406\u0442\u0430\u043b\u0456\u044f","name:rw":"Ubutaliyani","name:sa":"\u0907\u091f\u0932\u0940","name:sah":"\u0418\u0442\u0430\u043b\u0438\u044f","name:sc":"It\u00e0lia","name:scn":"Italia","name:sco":"Italy","name:se":"It\u00e1lia","name:sg":"Ital\u00f9ii","name:sh":"Italija","name:sk":"Taliansko","name:sl":"Italija","name:sm":"Italia","name:smn":"Italia","name:sms":"Italia","name:so":"Talyaaniga","name:sq":"Italia","name:sr":"\u0418\u0442\u0430\u043b\u0438\u0458\u0430","name:srn":"Italiyanikondre","name:ss":"INtaliyane","name:stq":"Italien","name:su":"Italia","name:sv":"Italien","name:sw":"Italia","name:szl":"Italij\u014f","name:ta":"\u0b87\u0ba4\u0bcd\u0ba4\u0bbe\u0bb2\u0bbf","name:te":"\u0c07\u0c1f\u0c32\u0c40","name:tet":"It\u00e1lia","name:tg":"\u0418\u0442\u043e\u043b\u0438\u0451","name:th":"\u0e1b\u0e23\u0e30\u0e40\u0e17\u0e28\u0e2d\u0e34\u0e15\u0e32\u0e25\u0e35","name:tk":"Itali\u00fda","name:tl":"Italya","name:tok":"ma Italija","name:tpi":"Itali","name:tr":"\u0130talya","name:tt":"\u0418\u0442\u0430\u043b\u0438\u044f","name:tw":"Italy","name:ty":"\u2019It\u0101ria","name:tzl":"Talia","name:udm":"\u0418\u0442\u0430\u043b\u0438\u044f","name:ug":"\u0626\u0649\u062a\u0627\u0644\u0649\u064a\u06d5","name:uk":"\u0406\u0442\u0430\u043b\u0456\u044f","name:ur":"\u0627\u0637\u0627\u0644\u06cc\u06c1","name:uz":"Italiya","name:ve":"Italy","name:vec":"Ita\u0142ia","name:vep":"Italii","name:vi":"\u00dd","name:vls":"Itoali\u00eb","name:vo":"Litaliy\u00e4n","name:vro":"Itaalia","name:wa":"It\u00e5leye","name:war":"Italya","name:wo":"Itaali","name:wuu":"\u610f\u5927\u5229","name:xal":"\u0418\u0442\u0430\u043b\u043c\u0443\u0434\u0438\u043d \u041e\u0440\u043d","name:xmf":"\u10d8\u10e2\u10d0\u10da\u10d8\u10d0","name:yi":"\u05d0\u05d9\u05d8\u05d0\u05dc\u05d9\u05e2","name:yo":"It\u00e1l\u00ed\u00e0","name:yue":"\u610f\u5927\u5229","name:zea":"It\u00e2li\u00eb","name:zh":"\u610f\u5927\u5229","name:zh-Hans":"\u610f\u5927\u5229","name:zh-Hant":"\u7fa9\u5927\u5229","name:zu":"ITaliya","official_language":"it","official_name":"Repubblica Italiana","official_name:cs":"Italsk\u00e1 republika","official_name:de":"Republik Italien","official_name:el":"\u0399\u03c4\u03b1\u03bb\u03b9\u03ba\u03ae \u0394\u03b7\u03bc\u03bf\u03ba\u03c1\u03b1\u03c4\u03af\u03b1","official_name:eo":"Itala Respubliko","official_name:zh":"\u610f\u5927\u5229\u5171\u548c\u56fd","official_name:zh-Hans":"\u610f\u5927\u5229\u5171\u548c\u56fd","official_name:zh-Hant":"\u7fa9\u5927\u5229\u5171\u548c\u570b","old_name:vi":"\u00dd \u0110\u1ea1i L\u1ee3i","population":"58983000","population:date":"2022-04-08","source:name:oc":"ieo-bdtopoc","start_date":"1946-06-10","timezone":"Europe\/Rome","type":"boundary","wikidata":"Q38","wikimedia_commons":"Category:Italy","wikipedia":"it:Italia"},"timestamp":1716078538,"representative_point":{"type":"Point","coordinates":[14.188594570351707,41.7035189]}},"geometry":{"type":"MultiPolygon","coordinates":[[[[6.8402109,45.8408135],[7.1859342,45.4042025],[7.0799457,45.2129562],[6.6272658,45.1068023],[7.0755967,44.6902404],[6.8561479,44.5331856],[6.887345,44.3614236],[7.3580157,44.1161135],[7.6844841,44.1739613],[7.4954976,43.8643503],[7.631016,43.5785906],[8.2350075,43.7250516],[8.8754185,44.1862056],[9.8671939,43.8188948],[9.9427936,43.7037736],[9.6557866,43.5390926],[9.5590006,43.1929537],[9.8282225,42.2611804],[11.6051936,41.9214356],[12.3769937,41.3683829],[12.6882106,40.7555796],[13.7834156,40.5033076],[15.5383706,39.6951006],[15.8309626,39.0399676],[15.5257626,38.5047606],[15.2723246,38.4771556],[15.5116016,38.8429066],[15.2028756,39.0191016],[14.8760806,38.7865146],[14.0944216,38.6132166],[14.2167586,38.3562916],[14.6833516,38.3606586],[14.0194996,38.2471956],[13.3477816,38.4248766],[12.6912526,38.3889256],[11.9108136,38.1700966],[11.7747366,37.9981566],[12.5264746,37.3932286],[14.3860586,36.6023036],[15.0600396,36.4402046],[15.3418406,36.5489446],[15.5887366,36.9720196],[15.4401256,37.5697586],[15.5471416,37.7781386],[16.2436626,37.7785116],[17.3943196,38.8496386],[17.4138536,39.2622076],[18.5459196,39.6426426],[18.7760866,40.1775766],[18.1604576,40.8183416],[16.5384616,41.4672686],[16.4248476,41.9853886],[16.0070776,42.1657946],[15.9122678,42.3843968],[15.0563956,42.2340896],[14.3376316,42.6770766],[13.8459466,43.6735196],[12.6261176,44.3321396],[12.5662046,44.5749716],[12.8238026,44.9099126],[12.8603545,45.35167],[13.2104814,45.4530566],[13.3844445,45.5659444],[13.4679768,45.5883846],[13.9183049,45.6312045],[13.4761639,46.0060818],[13.6642372,46.1779728],[13.3754696,46.297697],[13.7140622,46.5229856],[12.4424978,46.6884907],[12.143813,46.9137811],[12.1859595,47.0921462],[11.1644228,46.9658088],[11.0222673,46.7654482],[10.4696542,46.8549127],[10.4715543,46.5428645],[10.0439582,46.540118],[10.1323004,46.2248788],[9.9527592,46.3793014],[9.5495379,46.3023421],[9.4635487,46.5088764],[9.2822285,46.4964792],[9.0316322,45.8209678],[8.7859221,45.9891496],[8.8520348,46.0756306],[8.4444634,46.2489583],[8.4381944,46.4642213],[8.0856718,46.2665507],[8.1540248,46.1462187],[7.8635632,45.9167004],[7.0452884,45.9223722],[6.9416143,45.847641],[6.9322655,45.845846],[6.8693536,45.8393547],[6.8621218,45.8324848],[6.8536325,45.8372538],[6.8402109,45.8408135]],[[12.4033246,43.9527342],[12.4365217,43.9566339],[12.5150723,43.9895089],[12.4874043,43.8964693],[12.4033246,43.9527342]],[[12.4457878,41.9019669],[12.4554001,41.9073829],[12.4583653,41.9022574],[12.4545153,41.9002044],[12.4457878,41.9019669]]],[[[12.9081309,38.7575223],[13.1127856,38.4919906],[13.4570666,38.6865326],[13.2244209,38.9211172],[12.9081309,38.7575223]]],[[[12.1022461,35.6472886],[12.1780938,35.3810009],[12.7005276,35.2975676],[12.8727786,35.4434666],[12.8099806,35.6566462],[13.0561876,35.7118706],[13.1199516,35.9129116],[12.7854086,36.0686366],[12.6044966,35.9188176],[12.6834958,35.7128874],[12.1022461,35.6472886]]],[[[11.6744198,36.8423974],[11.9527741,36.5360846],[12.3045732,36.7363673],[12.0144849,37.0340553],[11.6744198,36.8423974]]],[[[8.8311745,41.2611155],[8.2110575,41.3072546],[7.9074575,40.9675756],[7.8778945,40.5599726],[8.0994754,40.2887173],[8.0206717,39.8400575],[8.1652115,39.6859828],[7.9506355,39.1183706],[8.3427135,38.6623126],[8.9388975,38.6830226],[9.8514196,39.0653326],[10.0948356,40.5382366],[10.0275896,40.9504806],[9.630964,41.4336638],[8.8311745,41.2611155]]],[[[8.958586,45.9648006],[8.975739,45.9616225],[8.9774152,45.9828986],[8.9668665,45.9841219],[8.958586,45.9648006]]]]}}