{"type":"Feature","properties":{"tags":{"ISO3166-1":"JE","ISO3166-1:alpha2":"JE","ISO3166-1:alpha3":"JEY","ISO3166-1:numeric":"832","admin_level":"2","alt_name:eo":"\u0134ersejo","alt_name:la":"Andium","boundary":"administrative","flag":"http:\/\/upload.wikimedia.org\/wikipedia\/commons\/1\/1c\/Flag_of_Jersey.svg","int_name":"Jersey","name":"Jersey","name:ace":"Jersey","name:af":"Jersey","name:als":"Jersey","name:an":"J\u00e8rri","name:ang":"C\u0113sar\u0113a","name:ar":"\u062c\u064a\u0631\u0632\u064a","name:ast":"Xers\u00e9i","name:az":"Cersi","name:be":"\u0414\u0436\u044d\u0440\u0441i","name:be-tarask":"\u0414\u0436\u044d\u0440\u0441\u0456","name:bg":"\u0414\u0436\u044a\u0440\u0441\u0438","name:bpy":"\u099c\u09be\u09b0\u09cd\u09b8\u09bf","name:br":"Jerzenez","name:bs":"Jersey","name:ca":"Jersey","name:chr":"\u13e8\u13b5\u13cf","name:cs":"Jersey","name:cy":"Jersey","name:da":"Jersey","name:de":"Jersey","name:dv":"\u0796\u07a7\u0790\u07ad","name:el":"\u03a5\u03b5\u03c1\u03c3\u03ad\u03b7","name:en":"Jersey","name:eo":"\u0134erzejo","name:es":"Jersey","name:et":"Jersey","name:eu":"Jersey","name:fa":"\u062c\u0631\u0632\u06cc","name:fi":"Jersey","name:fr":"Jersey","name:frp":"J\u00e8rseyi","name:frr":"Jersey","name:ga":"Geirs\u00ed","name:gd":"De\u00e0rsaidh","name:gl":"Illa de Jersey","name:gv":"Jersee","name:hak":"Jersey","name:he":"\u05d2'\u05e8\u05d6\u05d9","name:hr":"Jersey","name:hu":"Jersey","name:hy":"\u054b\u0565\u0580\u057d\u056b","name:id":"Jersey","name:io":"Jersey","name:is":"Jersey","name:it":"Isola di Jersey","name:ja":"\u30b8\u30e3\u30fc\u30b8\u30fc","name:jv":"Jersey","name:ka":"\u10ef\u10d4\u10e0\u10d6\u10d8","name:kn":"\u0c9c\u0cb0\u0ccd\u0cb8\u0cbf","name:ko":"\uc800\uc9c0 \uc12c","name:kw":"Jersenys","name:la":"Caesarea Insula","name:li":"Jersey","name:lij":"Jersey","name:lt":"D\u017eersis","name:lv":"D\u017e\u0113rsija","name:mi":"T\u014drehe","name:mr":"\u091c\u0930\u094d\u0938\u0940","name:ms":"Jersey","name:nan":"Jersey","name:nds-nl":"Jersey","name:ne":"\u091c\u0930\u094d\u0938\u0940","name:nl":"Jersey","name:nn":"Jersey","name:no":"Jersey","name:nov":"Jersey","name:nrm":"J\u00e8rri","name:oc":"Jersei","name:os":"\u0414\u0436\u0435\u0440\u0441\u0438","name:pa":"\u0a1c\u0a30\u0a38\u0a40","name:pl":"Jersey","name:pnb":"\u062c\u0631\u0633\u06cc","name:pt":"Jersey","name:ro":"Insula Jersey","name:ru":"\u0414\u0436\u0435\u0440\u0441\u0438","name:rw":"Jersey","name:sco":"Jersey","name:sh":"Jersey","name:sk":"Jersey","name:sl":"Jersey","name:sq":"Jersey","name:sr":"\u040f\u0435\u0440\u0437\u0438","name:su":"Jersey","name:sv":"Jersey","name:sw":"Jersey","name:ta":"\u0baf\u0bc7\u0bb0\u0bcd\u0b9a\u0bbf","name:te":"\u0c1c\u0c46\u0c30\u0c4d\u0c38\u0c40","name:th":"\u0e40\u0e08\u0e2d\u0e23\u0e4c\u0e0b\u0e35\u0e22\u0e4c","name:tl":"Hersey","name:tr":"Jersey","name:tt":"\u0496\u0435\u0440\u0441\u0438","name:uk":"\u0414\u0436\u0435\u0440\u0441\u0456","name:ur":"\u062c\u0631\u0632\u06cc","name:vi":"Jersey","name:war":"Jersey","name:wuu":"\u6770\u585e\u5c9b","name:xal":"\u0496\u0435\u0440\u0441\u0438\u043d \u0410\u0440\u043b","name:yo":"Jersey","name:yue":"\u6fa4\u897f\u5cf6","name:zh":"\u6cfd\u897f \/ \u6fa4\u897f","name:zh-Hans":"\u6cfd\u897f","name:zh-Hant":"\u6fa4\u897f","official_name":"Bailiwick of Jersey","official_name:eo":"Voktujo \u0134erzejo","timezone":"Europe\/Jersey","type":"boundary","wikidata":"Q785","wikipedia":"fr:Jersey"},"timestamp":1716078538,"representative_point":{"type":"Point","coordinates":[-2.193806901006507,49.15870445]}},"geometry":{"type":"Polygon","coordinates":[[[-2.5605483,49.219875],[-2.5267063,48.9268678],[-1.9846947,48.882373],[-1.8347019,49.2498845],[-2.0988795,49.4596091],[-2.5605483,49.219875]]]}}