{"type":"Feature","properties":{"tags":{"ISO3166-1":"JM","ISO3166-1:alpha2":"JM","ISO3166-1:alpha3":"JAM","ISO3166-1:numeric":"388","admin_level":"2","border_type":"nation","boundary":"administrative","default_language":"en","driving_side":"left","flag":"http:\/\/upload.wikimedia.org\/wikipedia\/commons\/0\/0a\/Flag_of_Jamaica.svg","name":"Jamaica","name:ar":"\u062c\u0627\u0645\u0627\u064a\u0643\u0627","name:br":"Jamaika","name:ckb":"\u062c\u0627\u0645\u0627\u06cc\u06a9\u0627","name:cs":"Jamajka","name:de":"Jamaika","name:el":"\u0399\u03b1\u03bc\u03b1\u03ca\u03ba\u03ae","name:en":"Jamaica","name:eo":"Jamajko","name:es":"Jamaica","name:fr":"Jama\u00efque","name:fy":"Jamaika","name:gn":"Ham\u00e1ika","name:hr":"Jamajka","name:io":"Jamaika","name:it":"Giamaica","name:ja":"\u30b8\u30e3\u30de\u30a4\u30ab","name:ko":"\uc790\uba54\uc774\uce74","name:ku":"Camayka","name:nl":"Jamaica","name:no":"Jamaica","name:oc":"Jamaica","name:pl":"Jamajka","name:pt":"Jamaica","name:ru":"\u042f\u043c\u0430\u0439\u043a\u0430","name:se":"Jamaica","name:sk":"Jamajka","name:sl":"Jamajka","name:smn":"Jamaika","name:sms":"Jamaika","name:sv":"Jamaica","name:ta":"\u0b9c\u0bae\u0bc7\u0b95\u0bcd\u0b95\u0bbe","name:tzl":"Xhamieca","name:uk":"\u042f\u043c\u0430\u0439\u043a\u0430","name:vo":"Cameke\u00e4n","name:zh":"\u7259\u4e70\u52a0 \/ \u7259\u8cb7\u52a0","name:zh-Hans":"\u7259\u4e70\u52a0","name:zh-Hant":"\u7259\u8cb7\u52a0","official_name:en":"Commonwealth of Jamaica","source:name:br":"ofis publik ar brezhoneg","timezone":"America\/Jamaica","type":"boundary","wikidata":"Q766","wikipedia":"en:Jamaica"},"timestamp":1716078538,"representative_point":{"type":"Point","coordinates":[-77.19697711029107,17.7401595]}},"geometry":{"type":"Polygon","coordinates":[[[-78.5782366,18.2690507],[-78.3985447,16.7677633],[-78.2651253,16.6028568],[-75.773733,17.3225305],[-76.1764778,18.2836962],[-76.8366246,18.6038864],[-77.9325623,18.715702],[-78.3565739,18.6050186],[-78.5782366,18.2690507]]]}}