{"type":"Feature","properties":{"tags":{"ISO3166-1":"JO","ISO3166-1:alpha2":"JO","ISO3166-1:alpha3":"JOR","ISO3166-1:numeric":"400","admin_level":"2","alt_name:vi":"Gio\u00f3c-\u0111a-ni;Gio\u00f3c\u0111ani;Giooc\u0111ani;\u01af\u1edbc \u0110\u00e1n","border_type":"administrative","boundary":"administrative","default_language":"ar","flag":"http:\/\/upload.wikimedia.org\/wikipedia\/commons\/c\/c0\/Flag_of_Jordan.svg","name":"\u0627\u0644\u0623\u0631\u062f\u0646","name:ace":"Yordania","name:af":"Jordani\u00eb","name:als":"Jordanien","name:alt":"\u0627\u0644\u0623\u0631\u062f\u0646","name:am":"\u1306\u122d\u12f3\u1295","name:an":"Chordania","name:ar":"\u0627\u0644\u0623\u0631\u062f\u0646","name:arc":"\u071d\u0718\u072a\u0715\u0722\u0722","name:arz":"\u0627\u0644\u0627\u0631\u062f\u0646","name:ast":"Xordania","name:az":"\u0130ordaniya","name:ba":"\u0418\u043e\u0440\u0434\u0430\u043d\u0438\u044f","name:bar":"Jordanien","name:bat-smg":"Juordan\u0117j\u0117","name:bcl":"Yordanya","name:be":"\u0406\u0430\u0440\u0434\u0430\u043d\u0456\u044f","name:be-tarask":"\u042f\u0440\u0434\u0430\u043d\u0456\u044f","name:bg":"\u0419\u043e\u0440\u0434\u0430\u043d\u0438\u044f","name:bjn":"Yordania","name:bm":"Ordon","name:bn":"\u099c\u09b0\u09cd\u09a6\u09be\u09a8","name:bo":"\u0f62\u0f97\u0f7c\u0f62\u0f0b\u0f4c\u0f53\u0f0d","name:bpy":"\u099c\u09b0\u09cd\u09a1\u09be\u09a8","name:br":"Jordania","name:bs":"Jordan","name:bug":"Yordania","name:bxr":"\u0419\u043e\u0440\u0434\u0430\u043d","name:ca":"Jord\u00e0nia","name:cdo":"I\u00f3k-d\u00e1ng","name:ceb":"Hordanya","name:ckb":"\u0626\u0648\u0631\u062f\u0646","name:crh":"Urdun","name:cs":"Jord\u00e1nsko","name:csb":"Jordani\u00f4","name:cv":"\u0418\u043e\u0440\u0434\u0430\u043d\u0438","name:cy":"Gwlad Iorddonen","name:da":"Jordan","name:de":"Jordanien","name:diq":"Urdun","name:dsb":"Jordaniska","name:dv":"\u0787\u07aa\u0783\u07aa\u078b\u07aa\u0782\u07b0","name:el":"\u0399\u03bf\u03c1\u03b4\u03b1\u03bd\u03af\u03b1","name:en":"Jordan","name:eo":"Jordanio","name:es":"Jordania","name:et":"Jordaania","name:eu":"Jordania","name:ext":"Jordania","name:fa":"\u0627\u0631\u062f\u0646","name:fi":"Jordania","name:fo":"Jordan","name:fr":"Jordanie","name:frp":"J\u00b7ordanie","name:fy":"Jordaanje","name:ga":"An Iord\u00e1in","name:gag":"\u0130ordaniya","name:gd":"I\u00f2rdan","name:gl":"Xordania","name:gn":"Horyt\u00e1\u00f1a","name:gu":"\u0a9c\u0ac9\u0ab0\u0acd\u0aa1\u0aa8","name:gv":"Yn Jordaan","name:hak":"Yok-tan","name:haw":"Iored\u0101ne","name:he":"\u05d9\u05e8\u05d3\u05df","name:hi":"\u091c\u0949\u0930\u094d\u0921\u0928","name:hif":"Jordan","name:hr":"Jordan","name:hsb":"Jordaniska","name:ht":"J\u00f2dani","name:hu":"Jord\u00e1nia","name:hy":"\u0540\u0578\u0580\u0564\u0561\u0576\u0561\u0576","name:ia":"Jordania","name:id":"Yordania","name:ie":"Jordania","name:ilo":"Hordania","name:io":"Jordania","name:is":"J\u00f3rdan\u00eda","name:it":"Giordania","name:ja":"\u30e8\u30eb\u30c0\u30f3","name:jbo":"gugdeju'o","name:jv":"Yordania","name:ka":"\u10d8\u10dd\u10e0\u10d3\u10d0\u10dc\u10d8\u10d0","name:kab":"Urdun","name:kbd":"\u0419\u043e\u0440\u0434\u0430\u043d","name:kk":"\u0418\u043e\u0440\u0434\u0430\u043d\u0438\u044f","name:kl":"Jordan","name:km":"\u17a0\u17d2\u179f\u1780\u178a\u1784\u17cb","name:ko":"\uc694\ub974\ub2e8","name:krc":"\u0418\u043e\u0440\u0434\u0430\u043d\u0438\u044f","name:ks":"\u0627\u0631\u062f\u0646","name:ku":"Urdun","name:ku-Arab":"\u0626\u0648\u0631\u062f\u0648\u0646","name:kv":"\u0418\u043e\u0440\u0434\u0430\u043d\u0438\u044f","name:kw":"Jordan","name:la":"Iordania","name:lb":"Jordanien","name:lez":"\u0418\u043e\u0440\u0434\u0430\u043d\u0438\u044f","name:li":"Jordani\u00eb","name:lij":"Giordannia","name:lmo":"Giurdania","name:ln":"Zordan\u00ed","name:lt":"Jordanija","name:lv":"Jord\u0101nija","name:mdf":"\u0418\u043e\u0440\u0434\u0430\u043d\u0438\u0435","name:mi":"H\u014drano","name:mk":"\u0408\u043e\u0440\u0434\u0430\u043d","name:ml":"\u0d1c\u0d4b\u0d7c\u0d26\u0d3e\u0d7b","name:mn":"\u0419\u043e\u0440\u0434\u0430\u043d","name:mr":"\u091c\u0949\u0930\u094d\u0921\u0928","name:ms":"Jordan","name:mt":"\u0120ordan","name:my":"\u1002\u103b\u1031\u102c\u103a\u1012\u1014\u103a\u1014\u102d\u102f\u1004\u103a\u1004\u1036","name:mzn":"\u0627\u0648\u0631\u062f\u0648\u0646","name:na":"Djordan","name:nah":"Iordania","name:nan":"Iok-t\u00e0n","name:nap":"Giordania","name:nds":"Jordanien","name:nl":"Jordani\u00eb","name:nn":"Jordan","name:no":"Jordan","name:nov":"Jordan","name:nv":"J\u00f3o\u02bcdan","name:oc":"Jordania","name:or":"\u0b1c\u0b4b\u0b30\u0b4d\u0b21\u0b3e\u0b28","name:os":"\u0418\u043e\u0440\u0434\u0430\u043d\u0438","name:pa":"\u0a1c\u0a3e\u0a30\u0a21\u0a28","name:pam":"Hordanya","name:pap":"Jordan","name:pih":"Jordan","name:pl":"Jordania","name:pms":"Giordania","name:pnb":"\u0627\u0631\u062f\u0646","name:ps":"\u0627\u0631\u062f\u0646","name:pt":"Jord\u00e2nia","name:qu":"Hurdanya","name:ro":"Iordania","name:ru":"\u0418\u043e\u0440\u0434\u0430\u043d\u0438\u044f","name:rw":"Yorudani","name:sa":"\u091c\u093e\u0930\u094d\u0921\u0928","name:sah":"\u0418\u043e\u0440\u0434\u0430\u043d\u0438\u044f","name:scn":"Giurdania","name:sco":"Jordan","name:se":"Jordania","name:sh":"Jordan","name:simple":"Jordan","name:sk":"Jord\u00e1nsko","name:sl":"Jordanija","name:smn":"Jordania","name:sms":"Jordania","name:so":"Urdun","name:sq":"Jordania","name:sr":"\u0408\u043e\u0440\u0434\u0430\u043d","name:ss":"IJoridane","name:stq":"Jordanien","name:su":"Yordania","name:sv":"Jordanien","name:sw":"Yordani","name:szl":"Jordanij\u014f","name:ta":"\u0b9c\u0bcb\u0bb0\u0bcd\u0ba4\u0bbe\u0ba9\u0bcd","name:te":"\u0c1c\u0c4b\u0c30\u0c4d\u0c21\u0c3e\u0c28\u0c4d","name:th":"\u0e1b\u0e23\u0e30\u0e40\u0e17\u0e28\u0e08\u0e2d\u0e23\u0e4c\u0e41\u0e14\u0e19","name:tk":"Iordani\u00fda","name:tl":"Hordan","name:tr":"\u00dcrd\u00fcn","name:tt":"\u04ae\u0440\u0434\u04af\u043d","name:tzl":"Xhordan","name:udm":"\u0418\u043e\u0440\u0434\u0430\u043d\u0438\u044f","name:ug":"\u0626\u0649\u0626\u0648\u0631\u062f\u0627\u0646\u0649\u064a\u06d5","name:uk":"\u0419\u043e\u0440\u0434\u0430\u043d\u0456\u044f","name:ur":"\u0627\u0631\u062f\u0646","name:uz":"Iordaniya","name:vec":"Zordania","name:vi":"Jordan","name:vo":"Yord\u00e4n","name:vro":"Jordaania","name:war":"Hordanya","name:wo":"Jordaani","name:wuu":"\u7ea6\u65e6","name:yi":"\u05d9\u05d0\u05e8\u05d3\u05d0\u05e0\u05d9\u05e2","name:yo":"J\u1ecd\u0301rd\u00e1n\u00ec","name:yue":"\u7d04\u65e6","name:zea":"Jordaoni\u00eb","name:zh":"\u7ea6\u65e6","name:zh-Hans":"\u7ea6\u65e6","name:zh-Hant":"\u7d04\u65e6","official_name":"\u0627\u0644\u0645\u0645\u0644\u0643\u0629 \u0627\u0644\u0623\u0631\u062f\u0646\u064a\u0629 \u0627\u0644\u0647\u0627\u0634\u0645\u064a\u0629","official_name:ang":"Hascemisce Cyner\u012bce \u00fe\u00e6s Iordanes","official_name:ar":"\u0627\u0644\u0645\u0645\u0644\u0643\u0629 \u0627\u0644\u0623\u0631\u062f\u0646\u064a\u0629 \u0627\u0644\u0647\u0627\u0634\u0645\u064a\u0629","official_name:cs":"Jord\u00e1nsk\u00e9 h\u00e1\u0161imovsk\u00e9 kr\u00e1lovstv\u00ed","official_name:de":"Haschemitisches K\u00f6nigreich Jordanien","official_name:en":"Hashemite Kingdom of Jordan","official_name:eo":"Ha\u015demida Re\u011dlando Jordanio","official_name:es":"Reino Hachemita de Jordania","official_name:fa":"\u067e\u0627\u062f\u0634\u0627\u0647\u06cc \u0627\u064f\u0631\u062f\u064f\u0646 \u0647\u0627\u0634\u0645\u06cc","official_name:fr":"Royaume hach\u00e9mite de Jordanie","official_name:gn":"Tavet\u00e3 Hachemita Horyt\u00e1\u00f1a","official_name:he":"\u05d4\u05de\u05de\u05dc\u05db\u05d4 \u05d4\u05d9\u05e8\u05d3\u05e0\u05d9\u05ea \u05d4\u05d4\u05d0\u05e9\u05de\u05d9\u05ea","official_name:pt":"Reino Haxemita da Jord\u00e2nia","official_name:ru":"\u0418\u043e\u0440\u0434\u0430\u043d\u0441\u043a\u043e\u0435 \u0425\u0430\u0448\u0438\u043c\u0438\u0442\u0441\u043a\u043e\u0435 \u041a\u043e\u0440\u043e\u043b\u0435\u0432\u0441\u0442\u0432\u043e","official_name:ur":"\u06c1\u0627\u0634\u0645\u06cc \u0645\u0645\u0644\u06a9\u062a \u0627\u0631\u062f\u0646","official_name:xal":"\u0425\u0430\u0448\u0438\u043c\u0438\u0442 \u0496\u043e\u0440\u0434\u0438\u043d \u041d\u0443\u0442\u0433","sqkm":"89342","timezone":"Asia\/Amman","type":"boundary","wikidata":"Q810","wikipedia":"ar:\u0627\u0644\u0623\u0631\u062f\u0646"},"timestamp":1716078538,"representative_point":{"type":"Point","coordinates":[36.322018172858236,31.27994595]}},"geometry":{"type":"Polygon","coordinates":[[[34.8844372,29.3751955],[36.0728117,29.183401],[36.7849032,29.8679012],[37.5055049,30.0007688],[37.6655574,30.3326227],[37.9971461,30.5006607],[37.0061712,31.5006395],[39.2008198,32.1542832],[39.2592617,32.3544992],[39.0428354,32.3029513],[38.7929745,33.3734848],[36.8380938,32.311354],[35.7564962,32.7452784],[35.5612638,32.6459022],[35.5549603,32.3890173],[35.476012,31.49312],[34.921211,29.4533796],[34.8844372,29.3751955]]]}}