{"type":"Feature","properties":{"tags":{"ISO3166-1":"KH","ISO3166-1:alpha2":"KH","ISO3166-1:alpha3":"KHM","ISO3166-1:numeric":"116","admin_level":"2","boundary":"administrative","default_language":"km","flag":"http:\/\/upload.wikimedia.org\/wikipedia\/commons\/8\/83\/Flag_of_Cambodia.svg","int_name":"Cambodia","name":"\u1796\u17d2\u179a\u17c7\u179a\u17b6\u1787\u17b6\u178e\u17b6\u1785\u1780\u17d2\u179a\u200b\u1780\u1798\u17d2\u1796\u17bb\u1787\u17b6","name:ace":"Kamboja","name:af":"Kambodja","name:als":"Kambodscha","name:am":"\u12ab\u121d\u1266\u12f2\u12eb","name:an":"Cambocha","name:ang":"Cambodia","name:ar":"\u0643\u0645\u0628\u0648\u062f\u064a\u0627","name:arz":"\u0643\u0627\u0645\u0628\u0648\u062f\u064a\u0627","name:ast":"Camboya","name:az":"Kamboca","name:ba":"\u041a\u0430\u043c\u0431\u043e\u0434\u0436\u0430","name:bar":"Kambodscha","name:bat-smg":"Kambuod\u017ea","name:bcl":"Kambodya","name:be":"\u041a\u0430\u043c\u0431\u043e\u0434\u0436\u0430","name:be-tarask":"\u041a\u0430\u043c\u0431\u043e\u0434\u0436\u0430","name:bg":"\u041a\u0430\u043c\u0431\u043e\u0434\u0436\u0430","name:bn":"\u0995\u09ae\u09cd\u09ac\u09cb\u09a1\u09bf\u09af\u09bc\u09be","name:bo":"\u0f41\u0f58\u0f0b\u0f54\u0f7c\u0f0b\u0f5b\u0f0d","name:bpy":"\u0995\u09ae\u09cd\u09ac\u09cb\u09a1\u09bf\u09af\u09bc\u09be","name:br":"Kambodja","name:bs":"Kambod\u017ea","name:bug":"Kamboja","name:bxr":"\u041a\u0430\u043c\u0431\u043e\u0436","name:ca":"Cambodja","name:ce":"\u041a\u0430\u043c\u0431\u043e\u0434\u0436\u0430","name:ceb":"Kamboya","name:ckb":"\u06a9\u06d5\u0645\u0628\u06c6\u062f\u06cc\u0627","name:crh":"Kambo\u00e7iya","name:cs":"Kambod\u017ea","name:csb":"Kamb\u00f2d\u017c\u00f4","name:cv":"\u041a\u0430\u043c\u0431\u043e\u0434\u0436\u0430","name:cy":"Cambodia","name:da":"Cambodja","name:de":"Kambodscha","name:diq":"Kambo\u00e7ya","name:dsb":"Kambod\u017ea","name:dv":"\u0786\u07ac\u0782\u07b0\u0784\u07af\u0791\u07a8\u0787\u07a7","name:dz":"\u0f40\u0f58\u0f0b\u0f56\u0f7c\u0f0b\u0f4c\u0f72\u0f0b\u0f61\u0f0b","name:el":"\u039a\u03b1\u03bc\u03c0\u03cc\u03c4\u03b6\u03b7","name:en":"Cambodia","name:eo":"Kambo\u011do","name:es":"Camboya","name:et":"Kambod\u017ea","name:eu":"Kanbodia","name:ext":"Camboya","name:fa":"\u06a9\u0627\u0645\u0628\u0648\u062c","name:fi":"Kambod\u017ea","name:fo":"Kambodja","name:fr":"Cambodge","name:frp":"Cambodg\u00b7e","name:fy":"Kambodja","name:ga":"An Chamb\u00f3id","name:gag":"Kamboca","name:gan":"\u67ec\u57d4\u5be8","name:gd":"Cambuidea","name:gl":"Camboxa","name:gn":"Kamboja","name:gu":"\u0a95\u0aae\u0acd\u0aac\u0acb\u0aa1\u0ac0\u0aaf\u0abe","name:gv":"Yn Chamboyd","name:ha":"Kambodiya","name:hak":"K\u00e1n-pu-chh\u00e0i","name:haw":"Kamabodia","name:he":"\u05e7\u05de\u05d1\u05d5\u05d3\u05d9\u05d4","name:hi":"\u0915\u092e\u094d\u092c\u094b\u0921\u093f\u092f\u093e","name:hif":"Cambodia","name:hr":"Kambod\u017ea","name:hsb":"Kambod\u017aa","name:ht":"Kanb\u00f2dj","name:hu":"Kambodzsa","name:hy":"\u053f\u0561\u0574\u0562\u0578\u057b\u0561","name:ia":"Cambodgia","name:id":"Kamboja","name:ie":"Cambodja","name:ilo":"Cambodia","name:io":"Kambodja","name:is":"Kamb\u00f3d\u00eda","name:it":"Cambogia","name:ja":"\u30ab\u30f3\u30dc\u30b8\u30a2","name:jbo":"kamputceas","name:jv":"Kamboja","name:ka":"\u10d9\u10d0\u10db\u10d1\u10dd\u10ef\u10d0","name:kbd":"\u041a\u0430\u043c\u0431\u043e\u0434\u0436\u044d","name:kk":"\u041a\u0430\u043c\u0431\u043e\u0434\u0436\u0430","name:km":"\u1796\u17d2\u179a\u17c7\u179a\u17b6\u1787\u17b6\u178e\u17b6\u1785\u1780\u17d2\u179a\u1780\u1798\u17d2\u1796\u17bb\u1787\u17b6","name:km:IPA":"pr\u0115\u0259h ri\u0259.ci\u0259.na\u02d0.ca\u0294 kam.pu.ci\u0259","name:kn":"\u0c95\u0cbe\u0c82\u0cac\u0ccb\u0ca1\u0cbf\u0caf","name:ko":"\uce84\ubcf4\ub514\uc544","name:ku":"Kamboca","name:kv":"\u041a\u0430\u043c\u0431\u043e\u0434\u0436\u0430","name:kw":"Kamboji","name:la":"Cambosia","name:lb":"Kambodscha","name:li":"Cambodja","name:lij":"Camboggia","name:lmo":"Cambogia","name:ln":"Kamboji","name:lo":"\u0e9b\u0eb0\u0ec0\u0e97\u0e94\u0e81\u0eb3\u0e9b\u0eb9\u0ec0\u0e88\u0e8d","name:lt":"Kambod\u017ea","name:lv":"Kambod\u017ea","name:lzh":"\u67ec\u57d4\u5be8","name:map-bms":"Kamboja","name:mdf":"\u041a\u0430\u043c\u0431\u043e\u0434\u0436\u0430","name:mg":"Kambodia","name:mi":"Kamap\u014dtia","name:mk":"\u041a\u0430\u043c\u0431\u043e\u045f\u0430","name:ml":"\u0d15\u0d02\u0d2c\u0d4b\u0d21\u0d3f\u0d2f","name:mn":"\u041a\u0430\u043c\u0431\u043e\u0436","name:mr":"\u0915\u0902\u092c\u094b\u0921\u093f\u092f\u093e","name:ms":"Kemboja","name:mt":"Kambodja","name:my":"\u1000\u1019\u1039\u1018\u1031\u102c\u1012\u102e\u1038\u101a\u102c\u1038\u1014\u102d\u102f\u1004\u103a\u1004\u1036","name:na":"Kambodja","name:nah":"Camboya","name:nan":"Kampuchea","name:nap":"Cambogia","name:nds":"Kambodscha","name:nl":"Cambodja","name:nn":"Kambodsja","name:no":"Kambodsja","name:nov":"Kambodia","name:oc":"Camb\u00f2tja","name:or":"\u0b15\u0b2e\u0b4d\u0b2c\u0b4b\u0b21\u0b3c\u0b3f\u0b06","name:os":"\u041a\u0430\u043c\u0431\u043e\u0434\u0436\u00e6","name:pa":"\u0a15\u0a70\u0a2c\u0a4b\u0a21\u0a40\u0a06","name:pam":"Kambodya","name:pih":"Kamboedya","name:pl":"Kambod\u017ca","name:pms":"Camb\u00f2gia","name:pnb":"\u06a9\u0645\u067e\u0648\u0686\u06cc\u0627","name:ps":"\u06a9\u0645\u0628\u0648\u062f\u06cc\u0627","name:pt":"Camboja","name:qu":"Kambuya","name:rm":"Cambodscha","name:ro":"Cambodgia","name:roa-rup":"Cambogia","name:ru":"\u041a\u0430\u043c\u0431\u043e\u0434\u0436\u0430","name:rw":"Kambodiya","name:sah":"\u041a\u0430\u043c\u0431\u043e\u0434\u044c\u0430","name:scn":"Camboggia","name:sco":"Cambodie","name:se":"Kambodja","name:sh":"Kambod\u017ea","name:si":"\u0d9a\u0dcf\u0db8\u0dca\u0db6\u0ddd\u0da2\u0dba","name:sk":"Kambod\u017ea","name:sl":"Kambod\u017ea","name:smn":"Kambod\u017ea","name:sms":"Kambod\u017ea","name:so":"Kambodiya","name:sq":"Kamboxhia","name:sr":"\u041a\u0430\u043c\u0431\u043e\u045f\u0430","name:ss":"IKhambodiya","name:su":"Kamboja","name:sv":"Kambodja","name:sw":"Kamboja","name:szl":"Kambod\u017ca","name:ta":"\u0b95\u0bae\u0bcd\u0baa\u0bcb\u0b9f\u0bbf\u0baf\u0bbe","name:te":"\u0c15\u0c02\u0c2c\u0c4b\u0c21\u0c3f\u0c2f\u0c3e","name:tg":"\u041a\u0430\u043c\u0431\u043e\u04b7\u0430","name:th":"\u0e1b\u0e23\u0e30\u0e40\u0e17\u0e28\u0e01\u0e31\u0e21\u0e1e\u0e39\u0e0a\u0e32","name:tk":"Kambo\u00e7i\u00fda","name:tl":"Kamboya","name:tr":"Kambo\u00e7ya","name:tt":"\u041a\u0430\u043c\u0431\u043e\u0497\u0430","name:tzl":"Camputsch","name:udm":"\u041a\u0430\u043c\u0431\u043e\u0434\u0436\u0430","name:ug":"\u0643\u0627\u0645\u0628\u0648\u062c\u0627","name:uk":"\u041a\u0430\u043c\u0431\u043e\u0434\u0436\u0430","name:ur":"\u06a9\u0645\u0628\u0648\u0688\u06cc\u0627","name:uz":"Kambodja","name:vi":"Cao Mi\u00ean","name:vo":"Kamboc\u00e4n","name:vro":"Kambod\u017ea","name:war":"Camboya","name:wo":"Kamboodi","name:wuu":"\u67ec\u57d4\u5be8","name:xal":"\u041a\u0430\u043c\u0431\u0443\u0434\u0438\u043d \u041d\u0443\u0442\u0433","name:yi":"\u05e7\u05d0\u05de\u05d1\u05d0\u05d3\u05d9\u05e2","name:yo":"K\u00e0mb\u00f3d\u00ed\u00e0","name:yue":"\u67ec\u57d4\u5be8","name:zea":"Cambodja","name:zh":"\u67ec\u57d4\u5be8","name:zh-Hans":"\u67ec\u57d4\u5be8","name:zh-Hant":"\u67ec\u57d4\u5be8","official_name:ckb":"\u0634\u0627\u0646\u0634\u06cc\u0646\u06cc \u06a9\u06d5\u0645\u0628\u06c6\u062f\u06cc\u0627","official_name:cs":"Kambod\u017esk\u00e9 kr\u00e1lovstv\u00ed","official_name:de":"K\u00f6nigreich Kambodscha","official_name:en":"Kingdom of Cambodia","official_name:es":"Reino de Camboya","official_name:fr":"Royaume du Cambodge","official_name:ru":"\u041a\u043e\u0440\u043e\u043b\u0435\u0432\u0441\u0442\u0432\u043e \u041a\u0430\u043c\u0431\u043e\u0434\u0436\u0430","timezone":"Asia\/Phnom_Penh","type":"boundary","wikidata":"Q424","wikipedia":"en:Cambodia"},"timestamp":1716078538,"representative_point":{"type":"Point","coordinates":[104.77193297048846,12.05075795]}},"geometry":{"type":"Polygon","coordinates":[[[105.206471,14.343339],[105.0824705,14.209568],[104.8058488,14.4374188],[103.1688132,14.3348519],[102.9388319,14.19539],[102.6242014,13.6087138],[102.3400866,13.5596573],[102.505485,12.682034],[102.787419,12.415466],[102.70351,12.172681],[102.9141851,11.6551688],[102.7569699,11.4017269],[102.5851547,11.1216974],[102.6862606,9.8956603],[103.0522427,9.4110961],[103.9608992,10.074506],[103.8051129,10.365674],[103.97325,10.4744977],[104.0710119,10.1548084],[104.5969033,10.5327565],[104.8690738,10.5222001],[105.0983022,10.7210119],[105.0828739,10.9566534],[105.3381348,10.8598854],[105.7774395,11.0321425],[105.849688,10.863089],[106.1909496,10.7889074],[106.1872756,11.0516229],[105.865463,11.284259],[105.80973,11.618715],[106.042086,11.778382],[106.4512361,11.670871],[106.4116726,11.9747187],[106.7208527,11.9684478],[107.5438972,12.3508772],[107.616953,13.5258572],[107.3353814,14.1149751],[107.5565718,14.6860512],[106.9672016,14.314101],[106.5451251,14.5919671],[106.0013347,14.3716975],[106.1881626,14.0623299],[106.1053464,13.9096752],[105.5584376,14.1604345],[105.3620143,14.1044572],[105.206471,14.343339]]]}}