{"type":"Feature","properties":{"tags":{"ISO3166-1":"KM","ISO3166-1:alpha2":"KM","ISO3166-1:alpha3":"COM","ISO3166-1:numeric":"174","admin_level":"2","border_type":"nation","boundary":"administrative","flag":"http:\/\/upload.wikimedia.org\/wikipedia\/commons\/9\/94\/Flag_of_the_Comoros.svg","name":"Comores Komori \u062c\u0632\u0631 \u0627\u0644\u0642\u0645\u0631","name:ab":"\u041a\u043e\u043c\u043e\u0440\u0442\u04d9\u0438 \u0410\u0434\u0433\u044c\u044b\u043b\u0431\u0436\u044c\u0430\u0445\u0430\u049b\u04d9\u0430","name:af":"Comore-eilande","name:als":"Komoren","name:am":"\u12ae\u121e\u122e\u1235","name:an":"Comoras","name:ar":"\u062c\u0632\u0631 \u0627\u0644\u0642\u0645\u0631","name:ary":"\u062c\u0632\u0631 \u0644\u0642\u0648\u0645\u0648\u0631","name:arz":"\u062c\u0632\u0631 \u0627\u0644\u0642\u0645\u0631","name:ast":"Comores","name:avk":"Komoria","name:az":"Komor adalar\u0131","name:azb":"\u06a9\u0648\u0645\u0648\u0631 \u0622\u062f\u0627\u0644\u0627\u0631\u06cc","name:ba":"\u041a\u043e\u043c\u043e\u0440","name:ban":"Komoro","name:bar":"Komorn","name:bat_smg":"Kuomor\u0101","name:bcl":"Komoros","name:be":"\u041a\u0430\u043c\u043e\u0440\u0441\u043a\u0456\u044f \u0410\u0441\u0442\u0440\u0430\u0432\u044b","name:be-tarask":"\u041a\u0430\u043c\u043e\u0440\u0441\u043a\u0456\u044f \u0430\u0441\u0442\u0440\u0430\u0432\u044b","name:bg":"\u041a\u043e\u043c\u043e\u0440\u0441\u043a\u0438 \u043e\u0441\u0442\u0440\u043e\u0432\u0438","name:bh":"\u0915\u094b\u092e\u094b\u0930\u094b\u0938","name:bjn":"Komoro","name:bm":"Komore gun","name:bn":"\u0995\u09cb\u09ae\u09cb\u09b0\u09cb\u09b8","name:bnt":"\u0642\u0645\u0631","name:bnt_rm":"Komori","name:bo":"\u0f41\u0f7c\u0f0b\u0f58\u0f7c\u0f0b\u0f62\u0f7c\u0f0b\u0f66\u0f74\u0f0d","name:bpy":"\u0995\u09cb\u09ae\u09cb\u09b0\u09cb\u09b8","name:br":"Komorez","name:bs":"Komori","name:bxr":"\u041a\u043e\u043c\u043e\u0440\u043e\u0439 \u0430\u0440\u0430\u043b\u043d\u0443\u0443\u0434","name:ca":"Comores","name:cbk-zam":"Komoras","name:cdo":"Comoros","name:ce":"\u041a\u043e\u043c\u043e\u0440\u0438\u0439\u043d \u0433\u04c0\u0430\u0439\u0440\u0435\u043d\u0430\u0448","name:ceb":"Comoros","name:chr":"\u13aa\u13bc\u13b3\u13cd","name:ckb":"\u062f\u0648\u0648\u0631\u06af\u06d5\u06a9\u0627\u0646\u06cc \u0642\u06d5\u0645\u06d5\u0631","name:crh":"Komorlar","name:cs":"Komory","name:cv":"\u041a\u043e\u043c\u043e\u0440 \u0443\u0442\u0440\u0430\u0432\u0115\u0441\u0435\u043c","name:cy":"Y Comoros","name:da":"Comorerne","name:dag":"Comoros","name:de":"Komoren","name:diq":"Komoroy","name:dsb":"Komory","name:dty":"\u0915\u094b\u092e\u094b\u0930\u094b\u0938","name:dv":"\u0796\u07aa\u0792\u07aa\u0783\u07aa\u07a4\u07a6\u0789\u07a6\u0783\u07aa","name:ee":"Comoros","name:el":"\u039a\u03bf\u03bc\u03cc\u03c1\u03b5\u03c2","name:en":"Comoros","name:eo":"Komoroj","name:es":"Comoras","name:et":"Komoorid","name:eu":"Komoreak","name:fa":"\u0627\u062a\u062d\u0627\u062f \u0642\u0645\u0631","name:ff":"Komoor","name:fi":"Komorit","name:fo":"Komoroyggjar","name:fr":"Comores","name:frp":"Comores","name:frr":"Komooren","name:fy":"Komoaren","name:ga":"Aontas Oile\u00e1in Chom\u00f3ra","name:gag":"Komorlar","name:gcr":"Komor","name:gd":"Na h-Eileanan Chomoro","name:gl":"Comores","name:gn":"Kom\u00f3ra","name:gom":"\u0915\u094b\u092e\u094b\u0930\u094b\u0938","name:gv":"Ny h-Ellanyn Chomoro","name:ha":"Komoros","name:hak":"Comoros","name:he":"\u05e7\u05d5\u05de\u05d5\u05e8\u05d5","name:hi":"\u0915\u094b\u092e\u094b\u0930\u094b\u0938","name:hif":"Comoros","name:hr":"Komori","name:hsb":"Komory","name:ht":"Kom\u00f2","name:hu":"Comore-szigetek","name:hy":"\u053f\u0578\u0574\u0578\u0580\u0575\u0561\u0576 \u056f\u0572\u0566\u056b\u0576\u0565\u0580","name:ia":"Comoros","name:id":"Komoro","name:ie":"Comoros","name:ig":"Comoros","name:ilo":"Komoros","name:io":"Komori","name:is":"K\u00f3moreyjar","name:it":"Comore","name:ja":"\u30b3\u30e2\u30ed","name:jam":"Komoros","name:jbo":"komoros","name:jv":"Komoro","name:ka":"\u10d9\u10dd\u10db\u10dd\u10e0\u10d8\u10e1 \u10d9\u10e3\u10dc\u10eb\u10e3\u10da\u10d4\u10d1\u10d8\u10e1 \u10d9\u10d0\u10d5\u10e8\u10d8\u10e0\u10d8","name:kab":"Qamar","name:kab-Arab":"\u0642\u0645\u0631","name:kg":"Komoro","name:ki":"Comoros","name:kk":"\u041a\u043e\u043c\u043e\u0440\u043b\u0430\u0440","name:kmr":"\u06a9\u06c6\u0645\u06c6\u0631","name:kn":"\u0c95\u0cca\u0cae\u0cca\u0cb0\u0cca\u0cb8\u0ccd","name:ko":"\ucf54\ubaa8\ub85c","name:ku":"Komor","name:ku-Arab":"\u06a9\u06c6\u0645\u06c6\u0631","name:kw":"Komorys","name:ky":"\u041a\u043e\u043c\u043e\u0440\u043b\u043e\u0440","name:la":"Insulae Comorianae","name:lad":"Komoras","name:lb":"Komoren","name:lg":"Comoros","name:li":"Comore","name:lij":"Isoe Comore","name:lld":"Comore","name:lmo":"Cumor","name:ln":"Komori","name:lrc":"\u06a9\u0648\u0645\u0644\u06ca\u0633 \u0645\u06cc\u065b\u0646\u0627\u06a4\u0671\u06cc\u0627 \u06a9\u0648\u0645\u06ca\u0631","name:lt":"Komorai","name:lv":"Komoras","name:mg":"K\u00f4m\u00f4ro","name:mi":"Komoro","name:min":"Komoro","name:mk":"\u041a\u043e\u043c\u043e\u0440\u0438","name:ml":"\u0d15\u0d4a\u0d2e\u0d4b\u0d31\u0d38\u0d4d","name:mn":"\u041a\u043e\u043c\u043e\u0440\u043e\u0441","name:mni":"\uabc0\uabe3\uabc3\uabe3\uabd4\uabe3\uabc1","name:mr":"\u0915\u094b\u092e\u094b\u0930\u094b\u0938","name:ms":"Comoros","name:mt":"Komoros","name:my":"\u1000\u102d\u102f\u1019\u102d\u102f\u101b\u102d\u102f\u1014\u102d\u102f\u1004\u103a\u1004\u1036","name:mzn":"\u06a9\u0648\u0645\u0648\u0631","name:na":"Komorot","name:nah":"Comoras","name:nan":"Comoros","name:nds":"Komoren","name:nds_nl":"Komoren","name:ne":"\u0915\u094b\u092e\u094b\u0930\u094b\u0938","name:new":"\u0915\u094b\u092e\u094b\u0930\u094b\u0938","name:nl":"Comoren","name:nn":"Komorane","name:no":"Komorene","name:nov":"Komoros","name:nso":"Comoros","name:nv":"Oolj\u00e9\u00e9\u02bc Biyaadi K\u00e9yah Dah Ndaa\u02bcee\u0142\u00ed","name:oc":"Com\u00f2ras","name:olo":"Komorat","name:om":"Komoroos","name:or":"\u0b15\u0b4b\u0b2e\u0b4b\u0b30\u0b4b\u0b38","name:os":"\u041a\u043e\u043c\u043e\u0440\u0442\u00e6","name:pa":"\u0a15\u0a3e\u0a2e\u0a3e\u0a30\u0a4b\u0a38","name:pam":"Komoras","name:pap":"Comores","name:pi":"\u0915\u094b\u092e\u094b\u0930\u094b\u0938","name:pih":"Komoros","name:pl":"Komory","name:pms":"Com\u00f2re","name:pnb":"\u0627\u062a\u062d\u0627\u062f \u0627\u0644\u0642\u0645\u0631\u06cc","name:ps":"\u0642\u0645\u0631\u067c\u0627\u067e\u0648\u06ab\u0627\u0646","name:pt":"Comores","name:qu":"Kumurakuna","name:rm":"Comoras","name:ro":"Comore","name:roa_rup":"Comore","name:ru":"\u041a\u043e\u043c\u043e\u0440\u0441\u043a\u0438\u0435 \u043e\u0441\u0442\u0440\u043e\u0432\u0430","name:rw":"Komore","name:sa":"\u0915\u094b\u092e\u094b\u0930\u094b\u0938","name:sah":"\u041a\u043e\u043c\u043e\u0440\u0434\u0430\u0440","name:sat":"\u1c60\u1c73\u1c62\u1c73\u1c68\u1c73\u1c65","name:sc":"Comoras","name:scn":"Comori","name:sco":"Comoros","name:sd":"\u06aa\u0648\u0645\u0648\u0631\u0648\u0633","name:se":"Komorosullot","name:sg":"K\u00f6m\u00f4ro","name:sh":"Komori","name:shn":"\u1019\u102d\u1030\u1004\u103a\u1038\u1076\u1030\u101d\u103a\u1087\u1019\u1030\u101d\u103a\u1087\u101b\u1030\u1010\u103a\u1088","name:si":"\u0d9a\u0ddc\u0db8\u0dbb\u0ddc\u0dc3\u0dca","name:simple":"Comoros","name:sk":"Komory","name:sl":"Komori","name:sm":"Comoros","name:smn":"Komoreh","name:sms":"Komoor","name:sn":"Comoros","name:so":"Komoros","name:sq":"Komoret","name:sr":"\u041a\u043e\u043c\u043e\u0440\u0438","name:ss":"IKhomoro","name:st":"Comoros","name:stq":"Komore","name:su":"Komoro","name:sv":"Komorerna","name:sw":"Komori","name:szl":"K\u016fmory","name:ta":"\u0b95\u0bca\u0bae\u0bca\u0bb0\u0bcb\u0b9a\u0bc1","name:te":"\u0c15\u0c4a\u0c2e\u0c4a\u0c30\u0c4b\u0c38\u0c4d","name:tg":"\u0418\u0442\u0442\u0438\u04b3\u043e\u0434\u0438 \u049a\u0430\u043c\u0430\u0440","name:th":"\u0e1b\u0e23\u0e30\u0e40\u0e17\u0e28\u0e04\u0e2d\u0e42\u0e21\u0e42\u0e23\u0e2a","name:tk":"Komor Adalary","name:tl":"Comoros","name:tr":"Komorlar","name:ts":"Comoros","name:tt":"\u041a\u043e\u043c\u043e\u0440\u043b\u0430\u0440","name:udm":"\u041a\u043e\u043c\u043e\u0440\u044a\u0451\u0441","name:ug":"\u0643\u0648\u0645\u0648\u0631 \u0626\u0627\u0631\u0627\u0644\u0644\u0649\u0631\u0649","name:uk":"\u041a\u043e\u043c\u043e\u0440\u0441\u044c\u043a\u0456 \u041e\u0441\u0442\u0440\u043e\u0432\u0438","name:ur":"\u0627\u062a\u062d\u0627\u062f \u0627\u0644\u0642\u0645\u0631\u06cc","name:vec":"Comore","name:vep":"Komoran Sared","name:vi":"Comoros","name:vls":"Comoorn","name:vo":"Komoru\u00e4ns","name:vro":"Komooriq","name:war":"Comoros","name:wo":"Komoor","name:wuu":"\u79d1\u6469\u7f85","name:xal":"\u041a\u043e\u043c\u043e\u0440\u043c\u0443\u0434\u0438\u043d \u0410\u0440\u043b\u0438\u043d \u041d\u0438\u0438\u0446\u04d9\u043d","name:xmf":"\u10d9\u10dd\u10db\u10dd\u10e0\u10d8\u10e8 \u10d9\u10dd\u10d9\u10d4\u10e4\u10d8\u10e8 \u10e0\u10e1\u10ee\u10e3","name:yi":"\u05e7\u05d0\u05de\u05d0\u05e8\u05d0\u05e1","name:yo":"K\u00f2m\u00f3r\u00f2","name:yue":"\u79d1\u6469\u7f85","name:za":"Comoros","name:zea":"Como\u00f4r'n","name:zh":"\u79d1\u6469\u7f57 \/ \u845b\u6469 \/ \u79d1\u6469\u6d1b","name:zh-Hans":"\u79d1\u6469\u7f57","name:zh-Hant-CN":"\u79d1\u6469\u7f85","name:zh-TW":"\u845b\u6469","name:zu":"IsiKhomorosi","official_name":"Union des Comores;\u0627\u0644\u0627\u062a\u062d\u0627\u062f \ufe8d\ufedf\ufed8\ufee4\ufeae\u064a;Udzima wa Komori","official_name:ar":"\u0627\u0644\u0627\u062a\u0651\u062d\u0627\u062f \u0627\u0644\u0642\u0645\u0631\u064a\u0651","official_name:cs":"Komorsk\u00fd svaz","official_name:en":"Union of the Comoros","official_name:es":"Uni\u00f3n de las Comoras","official_name:fa":"\u0645\u062c\u0645\u0639\u200c\u0627\u0644\u062c\u0632\u0627\u06cc\u0631 \u0642\u0645\u0631","official_name:fr":"Union des Comores","official_name:he":"\u05d4\u05d0\u05d9\u05d7\u05d5\u05d3 \u05e9\u05dc \u05d0\u05d9\u05d9 \u05e7\u05d5\u05de\u05d5\u05e8\u05d5","official_name:ru":"\u0421\u043e\u044e\u0437 \u041a\u043e\u043c\u043e\u0440\u0441\u043a\u0438\u0445 \u041e\u0441\u0442\u0440\u043e\u0432\u043e\u0432","official_name:ur":"\u0627\u062a\u062d\u0627\u062f \u0627\u0644\u0642\u0645\u0631\u06cc","timezone":"Indian\/Comoro","type":"boundary","wikidata":"Q970","wikipedia":"ar:\u062c\u0632\u0631 \u0627\u0644\u0642\u0645\u0631"},"timestamp":1716078538,"representative_point":{"type":"Point","coordinates":[43.915052223052996,-12.07211635]}},"geometry":{"type":"Polygon","coordinates":[[[42.8262181,-11.803432],[43.5259961,-12.5639198],[44.4374566,-12.9854371],[44.9730591,-12.1975229],[43.4281462,-11.1721574],[43.1456707,-11.2344261],[42.8262181,-11.803432]]]}}