{"type":"Feature","properties":{"tags":{"ISO3166-1":"KR","ISO3166-1:alpha2":"KR","ISO3166-1:alpha3":"KOR","ISO3166-1:numeric":"410","admin_level":"2","alt_name:en":"Korea","alt_name:eo":"Sud-Koreujo;Sud-Koreo","alt_name:ko-KP":"\ub0a8\uc870\uc120","alt_name:ko-KR":"\ud55c\uad6d","alt_name:nan":"H\u00e2n-kok","alt_name:ru":"\u042e\u0436\u043d\u0430\u044f \u041a\u043e\u0440\u0435\u044f","alt_name:vi":"Nam H\u00e0n;Nam Tri\u1ec1u Ti\u00ean;\u0110\u1ea1i H\u00e0n","alt_name:zh-Hant":"\u97d3\u570b","boundary":"administrative","capital_city":"\uc11c\uc6b8","country_code_fips":"KR","default_language":"ko","flag":"http:\/\/upload.wikimedia.org\/wikipedia\/commons\/0\/09\/Flag_of_South_Korea.svg","geonames:id":"1835841","int_name":"\ub300\ud55c\ubbfc\uad6d","is_capital":"country","name":"\ub300\ud55c\ubbfc\uad6d","name:ab":"\u0410\u043b\u0430\u0434\u0430\u0442\u04d9\u0438 \u041a\u043e\u0440\u0435\u0438\u0430","name:ace":"Kor\u00e8a Seulatan","name:af":"Suid-Korea","name:ak":"Anaafo Koria","name:als":"S\u00fcdkorea","name:am":"\u12f0\u1261\u1265 \u12ae\u122d\u12eb","name:an":"Corea d'o Sur","name:ang":"S\u016b\u00fecor\u0113a","name:ar":"\u0643\u0648\u0631\u064a\u0627 \u0627\u0644\u062c\u0646\u0648\u0628\u064a\u0629","name:arz":"\u0643\u0648\u0631\u064a\u0627 \u0627\u0644\u062c\u0646\u0648\u0628\u064a\u0647","name:as":"\u09a6\u0995\u09cd\u09b7\u09bf\u09a3 \u0995\u09cb\u09f0\u09bf\u09af\u09bc\u09be","name:ast":"Corea del Sur","name:az":"C\u0259nubi Koreya","name:ba":"\u041a\u04e9\u043d\u044c\u044f\u04a1 \u041a\u043e\u0440\u0435\u044f","name:bar":"S\u00fcdkorea","name:bat":"P\u0117it\u016b Kuoriej\u0117","name:bcl":"Sur nin Korea","name:be":"\u041f\u0430\u045e\u0434\u043d\u0451\u0432\u0430\u044f \u041a\u0430\u0440\u044d\u044f","name:be-tarask":"\u0420\u044d\u0441\u043f\u0443\u0431\u043b\u0456\u043a\u0430 \u041a\u0430\u0440\u044d\u044f","name:bg":"\u042e\u0436\u043d\u0430 \u041a\u043e\u0440\u0435\u044f","name:bi":"Saot Koria","name:bn":"\u09a6\u0995\u09cd\u09b7\u09bf\u09a3 \u0995\u09cb\u09b0\u09bf\u09af\u09bc\u09be","name:bo":"\u0f63\u0fb7\u0f7c\u0f0b\u0f40\u0f7c\u0f0b\u0f62\u0f72\u0f0b\u0f61\u0f0d","name:bpy":"\u0996\u09be \u0995\u09cb\u09b0\u09bf\u09af\u09bc\u09be","name:br":"Korea ar Su","name:bs":"Ju\u017ena Koreja","name:bug":"Korea Selatan","name:bxr":"\u0423\u0440\u0434\u0430 \u0421\u043e\u043b\u043e\u043d\u0433\u043e\u0441","name:ca":"Corea del Sud","name:cdo":"H\u00e0ng-gu\u00f3k","name:ce":"\u041a\u044a\u0438\u043b\u0431\u0430 \u041a\u043e\u0440\u0435\u0439","name:ceb":"Habagatang Korea","name:chr":"\u13a4\u13a6\u13be\u13ed \u13a2\u13d7\u13b5 \u13aa\u13b4\u13a0","name:ckb":"\u06a9\u06c6\u0631\u06cc\u0627\u06cc \u0628\u0627\u0634\u0648\u0648\u0631","name:crh":"Cen\u00fcbiy Koreya","name:cs":"Ji\u017en\u00ed Korea","name:csb":"Rep\u00f9blika K\u00f2reji","name:cy":"De Corea","name:da":"Sydkorea","name:de":"S\u00fcdkorea","name:diq":"Korya Veroci","name:dsb":"P\u00f3dpo\u0142dnjowa Koreja","name:dv":"\u078b\u07ac\u0786\u07aa\u0782\u07aa \u0786\u07ae\u0783\u07ac\u0787\u07a7","name:dz":"\u0f63\u0fb7\u0f7c\u0f0b\u0f40\u0f7c\u0f0b\u0f62\u0f72\u0f0b\u0f61\u0f0b","name:ee":"South Korea","name:el":"\u039d\u03cc\u03c4\u03b9\u03b1 \u039a\u03bf\u03c1\u03ad\u03b1","name:en":"South Korea","name:eo":"Sud-Koreio","name:es":"Corea del Sur","name:et":"L\u00f5una-Korea","name:eu":"Hego Korea","name:ext":"Corea del Sul","name:fa":"\u06a9\u0631\u0647 \u062c\u0646\u0648\u0628\u06cc","name:fi":"Etel\u00e4-Korea","name:fo":"Su\u00f0urkorea","name:fr":"Cor\u00e9e du Sud","name:frp":"Cor\u00ea du Sud","name:fy":"S\u00fad-Korea","name:ga":"An Ch\u00f3ir\u00e9 Theas","name:gag":"\u00dc\u00fclen Koreya","name:gan":"South Korea","name:gd":"Coirea a Deas","name:gl":"Corea do Sur","name:gn":"Yvykorea","name:gu":"\u0aa6\u0a95\u0acd\u0ab7\u0abf\u0aa3 \u0a95\u0acb\u0ab0\u0abf\u0aaf\u0abe","name:gv":"Yn Chorea Yiass","name:hak":"Thai-h\u00f2n m\u00ecn-koet","name:haw":"K\u014dlea Hema","name:he":"\u05e7\u05d5\u05e8\u05d9\u05d0\u05d4 \u05d4\u05d3\u05e8\u05d5\u05de\u05d9\u05ea","name:hi":"\u0926\u0915\u094d\u0937\u093f\u0923 \u0915\u094b\u0930\u093f\u092f\u093e","name:hif":"South Korea","name:hr":"Ju\u017ena Koreja","name:hsb":"Ju\u017ena Koreja","name:ht":"Kore disid","name:hu":"D\u00e9l-Korea","name:hy":"\u0540\u0561\u0580\u0561\u057e\u0561\u0575\u056b\u0576 \u053f\u0578\u0580\u0565\u0561","name:ia":"Corea del Sud","name:id":"Korea Selatan","name:ie":"Sud-Korea","name:ilo":"Abagatan a Korea","name:io":"Sud-Korea","name:is":"Su\u00f0ur-K\u00f3rea","name:it":"Corea del Sud","name:ja":"\u5927\u97d3\u6c11\u56fd","name:jbo":"snanu zei .xanguk","name:jv":"Kor\u00e9a Kidul","name:ka":"\u10e1\u10d0\u10db\u10ee\u10e0\u10d4\u10d7\u10d8 \u10d9\u10dd\u10e0\u10d4\u10d0","name:kab":"Kurya n Wen\u1e93ul","name:kbd":"\u041a\u04c0\u044d\u0440\u0435\u0439 \u0420\u0435\u0441\u043f\u0443\u0431\u043b\u0438\u043a\u044d","name:ki":"South Korea","name:kk":"\u041e\u04a3\u0442\u04af\u0441\u0442\u0456\u043a \u041a\u043e\u0440\u0435\u044f","name:kl":"Korea Kujalleq","name:km":"\u1780\u17bc\u179a\u17c9\u17c1\u1781\u17b6\u1784\u178f\u17d2\u1794\u17bc\u1784","name:kn":"\u0ca6\u0c95\u0ccd\u0cb7\u0cbf\u0ca3 \u0c95\u0cca\u0cb0\u0cbf\u0caf\u0cbe","name:ko":"\ub300\ud55c\ubbfc\uad6d","name:ko-Hani":"\u5927\u97d3\u6c11\u570b","name:ko-Latn":"Daehan-minguk","name:krc":"\u041a\u043e\u0440\u0435\u044f \u0420\u0435\u0441\u043f\u0443\u0431\u043b\u0438\u043a\u0430","name:ks":"\u0926\u0915\u094d\u0937\u093f\u0923 \u0915\u094b\u0930\u093f\u092f\u093e","name:ku":"Kor\u00eaya Ba\u015f\u00fbr","name:kv":"\u041a\u043e\u0440\u0435\u044f \u0420\u0435\u0441\u043f\u0443\u0431\u043b\u0438\u043a\u0430","name:kw":"Korea Dhyhow","name:ky":"\u041a\u043e\u0440\u0435\u044f \u0420\u0435\u0441\u043f\u0443\u0431\u043b\u0438\u043a\u0430\u0441\u044b","name:la":"Corea Meridionalis","name:lad":"Korea del Sud","name:lb":"S\u00fcdkorea","name:lez":"\u0420\u0435\u0441\u043f\u0443\u0431\u043b\u0438\u043a\u0430 \u041a\u043e\u0440\u0435\u044f","name:li":"Zuud-Korea","name:lij":"Corea do Sud","name:lmo":"Curea del S\u00fcd","name:ln":"Kore ya Sidi","name:lo":"\u0e9b\u0eb0\u0ec0\u0e97\u0e94\u0ec0\u0e81\u0ebb\u0eb2\u0eab\u0ebc\u0eb5\u0ec3\u0e95\u0ec9","name:lt":"Piet\u0173 Kor\u0117ja","name:lv":"Dienvidkoreja","name:lzh":"\u5927\u97d3\u6c11\u570b","name:mg":"Korea Atsimo","name:mhr":"\u041a\u0435\u0447\u044b\u0432\u0430\u043b\u0432\u0435\u043b \u041a\u043e\u0440\u0435\u0439","name:mi":"K\u014drea-ki-te-tonga","name:min":"Korea Salatan","name:mk":"\u0420\u0435\u043f\u0443\u0431\u043b\u0438\u043a\u0430 \u041a\u043e\u0440\u0435\u0458\u0430","name:ml":"\u0d26\u0d15\u0d4d\u0d37\u0d3f\u0d23 \u0d15\u0d4a\u0d31\u0d3f\u0d2f","name:mn":"\u04e8\u043c\u043d\u04e9\u0434 \u0421\u043e\u043b\u043e\u043d\u0433\u043e\u0441","name:mr":"\u0926\u0915\u094d\u0937\u093f\u0923 \u0915\u094b\u0930\u093f\u092f\u093e","name:ms":"Korea Selatan","name:mt":"Korea t'Isfel","name:my":"\u1010\u1031\u102c\u1004\u103a\u1000\u102d\u102f\u101b\u102e\u1038\u101a\u102c\u1038\u1014\u102d\u102f\u1004\u103a\u1004\u1036","name:na":"Ripubrikin Korea","name:nah":"Corea Huitztl\u0101mpa","name:nan":"L\u00e2m-h\u00e2n","name:nap":"Corea d''o Sud","name:nds":"S\u00fc\u00fcdkorea","name:nds-nl":"Zuud-Korea","name:ne":"\u0926\u0915\u094d\u0937\u093f\u0923 \u0915\u094b\u0930\u093f\u092f\u093e","name:new":"\u0926\u0915\u094d\u0937\u093f\u0923 \u0915\u094b\u0930\u093f\u092f\u093e","name:nl":"Zuid-Korea","name:nn":"S\u00f8r-Korea","name:no":"S\u00f8r-Korea","name:nov":"Sud Korea","name:nrm":"Cor\u00e9e du Sud","name:nv":"Kol\u00edya Bik\u00e9yah Sh\u00e1di\u02bc\u00e1\u00e1hj\u00ed Si\u02bc\u00e1n\u00edg\u00ed\u00ed","name:oc":"Cor\u00e8a del Sud","name:or":"\u0b26\u0b15\u0b4d\u0b37\u0b3f\u0b23 \u0b15\u0b4b\u0b30\u0b3f\u0b06","name:os":"\u0425\u0443\u0441\u0441\u0430\u0440 \u041a\u043e\u0440\u0435\u0439","name:pam":"Mauling Korea","name:pap":"Sur Korea","name:pih":"Sowth Koriya","name:pl":"Korea Po\u0142udniowa","name:pms":"Cor\u00e9a d\u00ebl Sud","name:pnb":"\u062f\u06a9\u06be\u0646\u06cc \u06a9\u0648\u0631\u06cc\u0627","name:ps":"\u0633\u0648\u06d0\u0644\u064a \u06a9\u0648\u0631\u064a\u0627","name:pt":"Coreia do Sul","name:qu":"Urin Kuriya","name:rm":"Corea dal sid","name:ro":"Coreea de Sud","name:roa-tara":"Coree d'u Sud","name:ru":"\u0420\u0435\u0441\u043f\u0443\u0431\u043b\u0438\u043a\u0430 \u041a\u043e\u0440\u0435\u044f","name:rue":"\u042e\u0436\u043d\u0430 \u041a\u043e\u0440\u0435\u044f","name:rw":"Koreya y\u2019Amajyepfo","name:sa":"\u0926\u0915\u094d\u0937\u093f\u0923 \u0915\u094b\u0930\u093f\u092f\u093e","name:sah":"\u0421\u043e\u0495\u0443\u0440\u0443\u0443 \u041a\u044d\u0440\u0438\u044d\u0439\u044d","name:sc":"Corea de su Sud","name:scn":"Corea d\u00fb Sud","name:sco":"Sooth Korea","name:se":"Lulli-Korea","name:sg":"Kor\u00ebe t\u00ee Mbongo","name:sh":"Ju\u017ena Koreja","name:si":"\u0daf\u0d9a\u0dd4\u0dab\u0dd4 \u0d9a\u0ddc\u0dbb\u0dd2\u0dba\u0dcf\u0dc0","name:sk":"Ju\u017en\u00e1 K\u00f3rea","name:sl":"Ju\u017ena Koreja","name:sm":"Kolea i Saute","name:smn":"Maad\u00e2-Korea","name:sms":"Saujj-Korea","name:sn":"Korea, South","name:so":"Koonfur Kuuriya","name:sq":"Koreja e Jugut","name:sr":"\u0408\u0443\u0436\u043d\u0430 \u041a\u043e\u0440\u0435\u0458\u0430","name:ss":"IKhoriya leseNingizimu","name:su":"Kor\u00e9a Kidul","name:sv":"Sydkorea","name:sw":"Korea Kusini","name:szl":"Po\u0142edniow\u014f Koryj\u014f","name:ta":"\u0ba4\u0bc6\u0ba9\u0bcd\u0b95\u0bca\u0bb0\u0bbf\u0baf\u0bbe","name:te":"\u0c26\u0c15\u0c4d\u0c37\u0c3f\u0c23 \u0c15\u0c4a\u0c30\u0c3f\u0c2f\u0c3e","name:tet":"Koreia S\u00fal","name:th":"\u0e1b\u0e23\u0e30\u0e40\u0e17\u0e28\u0e40\u0e01\u0e32\u0e2b\u0e25\u0e35\u0e43\u0e15\u0e49","name:tk":"G\u00fcnorta Kore\u00fda","name:tl":"Timog Korea","name:tpi":"Saut Koria","name:tr":"G\u00fcney Kore","name:tt":"\u041a\u04e9\u043d\u044c\u044f\u043a \u041a\u043e\u0440\u0435\u044f","name:udm":"\u0420\u0435\u0441\u043f\u0443\u0431\u043b\u0438\u043a\u0430 \u041a\u043e\u0440\u0435\u044f","name:ug":"\u062c\u06d5\u0646\u06c7\u0628\u0649\u064a \u0686\u0627\u06cb\u0634\u064a\u06d5\u0646","name:uk":"\u041f\u0456\u0432\u0434\u0435\u043d\u043d\u0430 \u041a\u043e\u0440\u0435\u044f","name:ur":"\u062c\u0646\u0648\u0628\u06cc \u06a9\u0648\u0631\u06cc\u0627","name:uz":"Janubiy Koreya","name:vec":"Corea del Sud","name:vi":"H\u00e0n Qu\u1ed1c","name:vo":"Sul\u00fcda-Korey\u00e4n","name:vro":"L\u00f5un\u00f5-Korea","name:war":"Salatan nga Korea","name:wo":"Kore gu B\u00ebj-saalum","name:wuu":"\u5927\u97e9\u6c11\u56fd","name:xmf":"\u10dd\u10d1\u10df\u10d0\u10d7\u10d4 \u10d9\u10dd\u10e0\u10d4\u10d0","name:yi":"\u05d3\u05e8\u05d5\u05dd \u05e7\u05d0\u05e8\u05e2\u05e2","name:yo":"K\u00f2r\u00e9\u00e0 G\u00fa\u00fas\u00f9","name:yue":"\u5357\u97d3","name:za":"Hanzgoz","name:zh":"\u97e9\u56fd \/ \u5357\u97d3","name:zh-Hans":"\u97e9\u56fd","name:zh-Hant":"\u5357\u97d3","name:zh-Hant-CN":"\u97d3\u570b","name:zh-Latn-pinyin":"H\u00e1ngu\u00f3","official_name":"\ub300\ud55c\ubbfc\uad6d","official_name:ab":"\u041a\u043e\u0440\u0435\u0438\u0430 \u0410\u0440\u0435\u0441\u043f\u0443\u0431\u043b\u0438\u043a\u0430","official_name:af":"Republiek van Korea","official_name:ar":"\u062c\u0645\u0647\u0648\u0631\u064a\u0629 \u0643\u0648\u0631\u064a\u0627","official_name:bat-smg":"Kuor\u0117j\u0117s Respobl\u0117ka","official_name:be":"\u0420\u044d\u0441\u043f\u0443\u0431\u043b\u0456\u043a\u0430 \u041a\u0430\u0440\u044d\u044f","official_name:bg":"\u0420\u0435\u043f\u0443\u0431\u043b\u0438\u043a\u0430 \u041a\u043e\u0440\u0435\u044f","official_name:br":"Republik Korea","official_name:ca":"Rep\u00fablica de Corea","official_name:cdo":"D\u00e2i-h\u00e0ng M\u00ecng-gu\u00f3k","official_name:el":"\u0394\u03b7\u03bc\u03bf\u03ba\u03c1\u03b1\u03c4\u03af\u03b1 \u03c4\u03b7\u03c2 \u039a\u03bf\u03c1\u03ad\u03b1\u03c2","official_name:en":"Republic of Korea","official_name:eo":"Korea Respubliko","official_name:et":"Korea Vabariik","official_name:fa":"\u062c\u0645\u0647\u0648\u0631\u06cc \u06a9\u0631\u0647","official_name:fi":"Korean tasavalta","official_name:fr":"R\u00e9publique de Cor\u00e9e","official_name:hu":"Koreai K\u00f6zt\u00e1rsas\u00e1g","official_name:id":"Republik Korea","official_name:it":"Repubblica di Corea","official_name:ku":"Komara Kor\u00eay\u00ea","official_name:la":"Respublica Coreana","official_name:lb":"Republik Korea","official_name:lt":"Kor\u0117jos Respublika","official_name:lv":"Korejas Republika","official_name:mi":"Repupirita o K\u014drea","official_name:mn":"\u0411\u04af\u0433\u0434 \u041d\u0430\u0439\u0440\u0430\u043c\u0434\u0430\u0445 \u0421\u043e\u043b\u043e\u043d\u0433\u043e\u0441 \u0423\u043b\u0441","official_name:nan":"T\u0101i-h\u00e2n B\u00een-kok","official_name:os":"\u0420\u0435\u0441\u043f\u0443\u0431\u043b\u0438\u043a\u00e6 \u041a\u043e\u0440\u0435\u0439","official_name:pl":"Republika Korei","official_name:pt":"Rep\u00fablica da Coreia","official_name:ru":"\u0420\u0435\u0441\u043f\u0443\u0431\u043b\u0438\u043a\u0430 \u041a\u043e\u0440\u0435\u044f","official_name:sk":"K\u00f3rejsk\u00e1 republika","official_name:sv":"Republiken Korea","official_name:ur":"\u062c\u0645\u06c1\u0648\u0631\u06cc\u06c1 \u06a9\u0648\u0631\u06cc\u0627","official_name:uz":"Koreya Respublikasi","official_name:vi":"\u0110\u1ea1i H\u00e0n D\u00e2n Qu\u1ed1c","official_name:yue":"\u5927\u97d3\u6c11\u570b","official_name:zh":"\u5927\u97e9\u6c11\u56fd \/ \u5927\u97d3\u6c11\u570b","official_name:zh-Hans":"\u5927\u97e9\u6c11\u56fd","official_name:zh-Hant":"\u5927\u97d3\u6c11\u570b","timezone":"Asia\/Seoul","type":"boundary","wikidata":"Q884","wikipedia":"ko:\ub300\ud55c\ubbfc\uad6d"},"timestamp":1716078538,"representative_point":{"type":"Point","coordinates":[127.79654346305617,35.7724185]}},"geometry":{"type":"MultiPolygon","coordinates":[[[[131.5925215,37.2934475],[131.8103598,37.0428467],[132.1454428,37.2178898],[131.91267,37.4467888],[131.5925215,37.2934475]]],[[[130.5184363,37.5491368],[130.8500861,37.2535602],[131.2172697,37.5285151],[130.908424,37.7533741],[130.5184363,37.5491368]]],[[[125.4263063,37.6492146],[125.5524186,37.4453372],[125.8678027,37.4094203],[125.2882816,36.5916074],[125.847992,35.6782285],[125.7760229,35.4497421],[124.9790948,34.8184152],[124.8364258,34.1091822],[125.0190993,33.863474],[126.0590716,33.6998995],[125.9079076,33.2727241],[126.3054753,32.9104556],[127.1231071,33.2972627],[127.1924969,33.5968912],[126.9153195,33.7591991],[127.7225872,33.8533105],[127.9990615,34.1233011],[128.8162752,34.343261],[129.1741142,35.0417291],[129.6690341,35.3999801],[129.8326489,35.9927301],[129.6299898,36.2875404],[129.6741615,37.1137598],[128.6537873,38.6177023],[128.3100317,38.594205],[128.0617729,38.3072797],[127.1333217,38.3136844],[126.6705336,37.9579462],[126.6626179,37.7807247],[125.4263063,37.6492146]]],[[[124.4182576,38.05],[124.4813622,37.6571848],[124.7840359,37.5666135],[124.9775524,37.6873674],[124.8499999,38],[124.4182576,38.05]]]]}}