{"type":"Feature","properties":{"tags":{"ISO3166-1":"KY","ISO3166-1:alpha2":"KY","ISO3166-1:alpha3":"CYM","ISO3166-1:numeric":"136","admin_level":"2","alt_name:de":"Kaimaninseln","alt_name:el":"\u039d\u03ae\u03c3\u03bf\u03b9 \u039a\u03b1\u03cb\u03bc\u03ac\u03bd;\u039d\u03b7\u03c3\u03b9\u03ac \u039a\u03b1\u03cb\u03bc\u03ac\u03bd;\u039d\u03b7\u03c3\u03b9\u03ac \u039a\u03ad\u03b9\u03bc\u03b1\u03bd","alt_name:eo":"Kejmanoj","alt_name:ku":"Girav\u00ean Kayman\u00ea","alt_name:ru":"\u041a\u0430\u0439\u043c\u0430\u043d\u043e\u0432\u044b \u043e\u0441\u0442\u0440\u043e\u0432\u0430","boundary":"administrative","capital_city":"George Town","country_code_fips":"CJ","country_code_iso3166_1_alpha_2":"KY","default_language":"en","flag":"http:\/\/upload.wikimedia.org\/wikipedia\/commons\/0\/0f\/Flag_of_the_Cayman_Islands.svg","geonames:id":"3580718","int_name":"Cayman Islands","maritime":"yes","name":"Cayman Islands","name:af":"Kaaimanseilande","name:ak":"Kemanfo Islands","name:am":"\u12ab\u12ed\u121b\u1295 \u12f0\u1234\u1276\u127d","name:ar":"\u062c\u0632\u0631 \u0627\u0644\u0643\u0627\u064a\u0645\u0627\u0646","name:ast":"Islles Caim\u00e1n","name:az":"Kayman Adalar\u0131","name:be":"\u041a\u0430\u0439\u043c\u0430\u043d\u0430\u0432\u044b \u0430\u0441\u0442\u0440\u0430\u0432\u044b","name:bg":"\u041a\u0430\u0439\u043c\u0430\u043d\u043e\u0432\u0438 \u043e\u0441\u0442\u0440\u043e\u0432\u0438","name:bm":"Bama Gun","name:bn":"\u0995\u09c7\u09ae\u09cd\u09af\u09be\u09a8 \u09a6\u09cd\u09ac\u09c0\u09aa\u09aa\u09c1\u099e\u09cd\u099c","name:bo":"\u0f41\u0f7a\u0f0b\u0f58\u0f7a\u0f53\u0f0b\u0f42\u0fb3\u0f72\u0f44\u0f0b\u0f55\u0fb2\u0f53\u0f0d","name:br":"Inizi Cayman","name:bs":"Kajmanska Ostrva","name:ca":"Illes Caiman","name:chr":"\u13a8\u13a2\u13b9\u13c2 \u13da\u13a6\u13da\u13db\u13a2","name:ckb":"\u062f\u0648\u0648\u0631\u06af\u06d5\u06a9\u0627\u0646\u06cc \u06a9\u0627\u06cc\u0645\u0627\u0646","name:cs":"Kajmansk\u00e9 ostrovy","name:cy":"Ynysoedd Cayman","name:da":"Cayman\u00f8erne","name:de":"Kaimaninseln","name:dz":"\u0f41\u0f7a\u0f0b\u0f58\u0f7a\u0f53\u0f0b\u0f42\u0fb3\u0f72\u0f44\u0f0b\u0f5a\u0f7c\u0f58","name:ee":"Kayman \u0192udomekpowo nutome","name:el":"\u039d\u03ae\u03c3\u03bf\u03b9 \u039a\u03ad\u03b9\u03bc\u03b1\u03bd","name:en":"Cayman Islands","name:eo":"Kajmana Insularo","name:es":"Islas Caim\u00e1n","name:et":"Kaimanisaared","name:eu":"Kaiman uharteak","name:fa":"\u062c\u0632\u0627\u06cc\u0631 \u06a9\u0627\u06cc\u0645\u0627\u0646","name:ff":"Duu\u0257e Kaymaa","name:fi":"Caymansaaret","name:fo":"Caymanoyggjarnar","name:fr":"\u00celes Ca\u00efmans","name:fur":"Isulis Cayman","name:fy":"de Kaaimaneilannen","name:ga":"Oile\u00e1in Cayman","name:gd":"Na h-Eileanan Caimean","name:gl":"Illas Caim\u00e1n","name:gu":"\u0a95\u0ac7\u0aaf\u0aae\u0ac7\u0aa8 \u0a86\u0a87\u0ab2\u0ac5\u0a82\u0aa1\u0acd\u0ab8","name:gv":"Ellanyn Cayman","name:ha":"Tsibiran Kaiman","name:hak":"Cayman Khi\u00f9n-t\u00f3","name:he":"\u05d0\u05d9\u05d9 \u05e7\u05d9\u05d9\u05de\u05df","name:hi":"\u0915\u0947\u092e\u0948\u0928 \u0926\u094d\u0935\u0940\u092a\u0938\u092e\u0942\u0939","name:hr":"Kajmanski Otoci","name:hu":"Kajm\u00e1n-szigetek","name:ia":"Insulas de Caiman","name:id":"Kepulauan Cayman","name:io":"Insuli Kaiman","name:is":"Caymaneyjar","name:it":"Isole Cayman","name:ja":"\u30b1\u30a4\u30de\u30f3\u8af8\u5cf6","name:ka":"\u10d9\u10d0\u10d8\u10db\u10d0\u10dc\u10d8\u10e1 \u10d9\u10e3\u10dc\u10eb\u10e3\u10da\u10d4\u10d1\u10d8","name:kab":"Tigzirin n Kamyan","name:ki":"Visiwa vya Kayman","name:km":"\u1780\u17c4\u17c7\u200b\u1780\u17c3\u1798\u17c9\u1784\u17cb","name:kn":"\u0c95\u0cc7\u0cae\u0ca8\u0ccd \u0ca6\u0ccd\u0cb5\u0cc0\u0caa\u0c97\u0cb3\u0cc1","name:ko":"\ucf00\uc774\ub9e8\uc81c\ub3c4","name:ks":"\u06a9\u06cc\u0645\u064e\u0646 \u062c\u0654\u0632\u06cc\u0656\u0631\u0655","name:ksh":"de Kaiman-Enselle","name:ku":"Girav\u00ean Cayman\u00ea","name:la":"Insulae Caimanenses","name:lb":"Kaimaninselen","name:lg":"Bizinga ebya Kayimaani","name:ln":"Bisanga bya Kay\u00edma","name:lo":"\u0e84\u0eb2\u0e8d\u0ec1\u0ea1\u0e99 \u0ead\u0eb4\u0e94\u0ec1\u0ea5\u0e99","name:lt":"Kaiman\u0173 salos","name:lv":"Kaimanu salas","name:mg":"Nosy Kayman","name:mk":"\u041a\u0430\u0458\u043c\u0430\u043d\u0441\u043a\u0438 \u041e\u0441\u0442\u0440\u043e\u0432\u0438","name:ml":"\u0d15\u0d47\u0d2f\u0d4d\u0d2e\u0d3e\u0d7b \u0d26\u0d4d\u0d35\u0d40\u0d2a\u0d41\u0d15\u0d7e","name:mn":"\u041a\u0430\u0439\u043c\u0430\u043d\u044b \u0410\u0440\u043b\u0443\u0443\u0434","name:mr":"\u0915\u0947\u092e\u0928 \u092c\u0947\u091f\u0947","name:mt":"G\u017cejjer Kajmani","name:my":"\u1000\u1031\u1019\u1014\u103a \u1000\u103b\u103d\u1014\u103a\u1038\u1005\u102f","name:nan":"Cayman K\u00fbn-t\u00f3","name:ne":"\u0915\u0947\u092f\u092e\u093e\u0928 \u091f\u093e\u092a\u0941","name:nl":"Kaaimaneilanden","name:nn":"Cayman\u00f8yane","name:no":"Cayman\u00f8yene","name:or":"\u0b15\u0b47\u0b2e\u0b4d\u0b5f\u0b3e\u0b28\u0b4d \u0b26\u0b4d\u0b2c\u0b40\u0b2a\u0b2a\u0b41\u0b1e\u0b4d\u0b1c","name:pl":"Kajmany","name:pt":"Ilhas Cayman","name:rm":"Inslas Cayman","name:rn":"Ibirwa bya Keyimani","name:ro":"Insulele Cayman","name:ru":"\u041e\u0441\u0442\u0440\u043e\u0432\u0430 \u041a\u0430\u0439\u043c\u0430\u043d","name:se":"Cayman-sullot","name:sg":"\u00c2z\u00fb\u00e2 Ngund\u00eb, Kaim\u00e4ni","name:si":"\u0d9a\u0dda\u0db8\u0db1\u0dca \u0daf\u0dd6\u0db4\u0dad\u0dca","name:sk":"Kajmanie ostrovy","name:sl":"Kajmanski otoki","name:sn":"Zvitsuwa zveCayman","name:sr":"\u041a\u0430\u0458\u043c\u0430\u043d\u0441\u043a\u0430 \u041e\u0441\u0442\u0440\u0432\u0430","name:sv":"Cayman\u00f6arna","name:sw":"Visiwa vya Kayman","name:ta":"\u0b95\u0bc7\u0bae\u0bc6\u0ba9\u0bcd \u0ba4\u0bc0\u0bb5\u0bc1\u0b95\u0bb3\u0bcd","name:te":"\u0c15\u0c47\u0c2e\u0c3e\u0c28\u0c4d \u0c26\u0c40\u0c35\u0c41\u0c32\u0c41","name:th":"\u0e2b\u0e21\u0e39\u0e48\u0e40\u0e01\u0e32\u0e30\u0e40\u0e04\u0e22\u0e4c\u0e41\u0e21\u0e19","name:ti":"\u12ab\u12ed\u121b\u1295 \u12f0\u1234\u1276\u127d","name:to":"\u02bbOtumotu Keimeni","name:tr":"Cayman Adalar\u0131","name:uk":"\u041a\u0430\u0439\u043c\u0430\u043d\u043e\u0432\u0456 \u043e\u0441\u0442\u0440\u043e\u0432\u0438","name:ur":"\u06a9\u06cc\u0645\u06cc\u0646 \u0622\u0626\u0644\u06cc\u0646\u0688\u0632","name:vi":"Qu\u1ea7n \u0111\u1ea3o Cayman","name:yo":"Or\u00edl\u1eb9\u0301\u00e8de Et\u00edokun K\u00e1m\u00e1n\u00ec","name:zh":"\u5f00\u66fc\u7fa4\u5c9b \/ \u958b\u66fc\u7fa4\u5cf6","name:zh-Hans":"\u5f00\u66fc\u7fa4\u5c9b","name:zh-Hant":"\u958b\u66fc\u7fa4\u5cf6","name:zu":"i-Cayman Islands","population":"49035","timezone":"America\/Cayman","type":"boundary","wikidata":"Q5785","wikipedia":"en:Cayman Islands"},"timestamp":1716078538,"representative_point":{"type":"Point","coordinates":[-79.9174627243246,19.703182249999998]}},"geometry":{"type":"MultiPolygon","coordinates":[[[[-80.3204778,19.6897542],[-80.0655094,19.4582624],[-79.6426399,19.5504903],[-79.5126448,19.7783104],[-79.7706486,19.9557147],[-80.3204778,19.6897542]]],[[[-81.6261442,19.4206418],[-81.4192299,19.0645594],[-81.0144641,19.1162606],[-80.8741926,19.3066962],[-81.0827606,19.5540612],[-81.4491081,19.5890429],[-81.6261442,19.4206418]]]]}}