{"type":"Feature","properties":{"tags":{"ISO3166-1":"KZ","ISO3166-1:alpha2":"KZ","ISO3166-1:alpha3":"KAZ","ISO3166-1:numeric":"398","admin_level":"2","alt_name:ar":"\u0642\u0632\u062e\u0633\u062a\u0627\u0646;\u0642\u0632\u0627\u0642\u0633\u062a\u0627\u0646","alt_name:eo":"Kaza\u0125ujo;Kaza\u0125stano","alt_name:vi":"Ca-d\u1eafc-xtan","boundary":"administrative","flag":"http:\/\/upload.wikimedia.org\/wikipedia\/commons\/d\/d3\/Flag_of_Kazakhstan.svg","int_name":"Kazakhstan","int_ref":"KZ","name":"\u049a\u0430\u0437\u0430\u049b\u0441\u0442\u0430\u043d","name:ab":"\u049e\u0430\u0437\u0430\u049f\u0441\u04ad\u0430\u043d","name:ace":"Kazakhstan","name:af":"Kasakstan","name:als":"Kasachstan","name:am":"\u12ab\u12db\u12ad\u1235\u1273\u1295","name:an":"Cazaquist\u00e1n","name:ang":"Casahstan","name:ar":"\u0643\u0627\u0632\u0627\u062e\u0633\u062a\u0627\u0646","name:arc":"\u0729\u0719\u0729\u0723\u071b\u0710\u0722","name:arz":"\u0643\u0627\u0632\u0627\u062e\u0633\u062a\u0627\u0646","name:ast":"Kazakst\u00e1n","name:av":"\u0425\u044a\u0430\u0437\u0430\u0445\u044a\u0438\u0441\u0442\u0430\u043d","name:az":"Qazax\u0131stan","name:ba":"\u04a0\u0430\u0499\u0430\u0493\u0441\u0442\u0430\u043d","name:bar":"Kasachstan","name:bat-smg":"Kazakstans","name:bcl":"Kasahistan","name:be":"\u041a\u0430\u0437\u0430\u0445\u0441\u0442\u0430\u043d","name:be-tarask":"\u041a\u0430\u0437\u0430\u0445\u0441\u0442\u0430\u043d","name:bg":"\u041a\u0430\u0437\u0430\u0445\u0441\u0442\u0430\u043d","name:bi":"Kazakhstan","name:bn":"\u0995\u09be\u099c\u09be\u0996\u09b8\u09cd\u09a4\u09be\u09a8","name:bo":"\u0f40\u0f5b\u0f0b\u0f40\u0f72\u0f66\u0f74\u0f0b\u0f42\u0f4f\u0f53\u0f0d","name:bpy":"\u0995\u09be\u099c\u09be\u0996\u09b8\u09cd\u09a4\u09be\u09a8","name:br":"Kazakstan","name:bs":"Kazahstan","name:bug":"Kazakhstan","name:bxr":"\u041a\u0430\u0437\u0430\u0445\u0441\u0442\u0430\u043d","name:ca":"Kazakhstan","name:ce":"\u041a\u0445\u0430\u0437\u0430\u043a\u0445\u0441\u0442\u0430\u043d","name:ceb":"Kasahistan","name:chr":"\u13a7\u13cc\u13a9\u13cd\u13d4\u13c2","name:ckb":"\u06a9\u0627\u0632\u0627\u062e\u0633\u062a\u0627\u0646","name:crh":"Qazahistan","name:cs":"Kazachst\u00e1n","name:csb":"Kazachstan","name:cu":"\u041a\u0430\ua641\u0430\u0445\u0441\u0442\u0430\u043d\u044a","name:cv":"\u041a\u0430\u0437\u0430\u0445\u0441\u0442\u0430\u043d","name:cy":"Kazakstan","name:da":"Kasakhstan","name:de":"Kasachstan","name:diq":"Qazax\u0131stan","name:dsb":"Kazachstan","name:dv":"\u0786\u07a6\u0792\u07a6\u0786\u07a8\u0790\u07b0\u078c\u07a7\u0782\u07b0","name:ee":"Kazakhstan","name:el":"\u039a\u03b1\u03b6\u03b1\u03ba\u03c3\u03c4\u03ac\u03bd","name:en":"Kazakhstan","name:eo":"Kaza\u0125io","name:es":"Kazajist\u00e1n","name:et":"Kasahstan","name:eu":"Kazakhstan","name:ext":"Cazast\u00e1n","name:fa":"\u0642\u0632\u0627\u0642\u0633\u062a\u0627\u0646","name:fi":"Kazakstan","name:fo":"Kasakstan","name:fr":"Kazakhstan","name:frp":"Kazacstan","name:frr":"Kasachstan","name:fy":"Kazakstan","name:ga":"An Chasacst\u00e1in","name:gag":"Kazahstan","name:gd":"Casachst\u00e0n","name:gl":"Casaquist\u00e1n","name:gn":"Kazajist\u00e1n","name:gu":"\u0a95\u0a9d\u0abe\u0a95\u0abf\u0ab8\u0acd\u0aa4\u0abe\u0aa8","name:gv":"Yn Chassaghstaan","name:hak":"H\u00e2-sat-khiet-s\u1e73\u0302-th\u00e1n","name:haw":"Kasakana","name:he":"\u05e7\u05d6\u05d7\u05e1\u05d8\u05df","name:hi":"\u0915\u091c\u093c\u093e\u0916\u093c\u093f\u0938\u094d\u0924\u093e\u0928","name:hif":"Kazakhstan","name:hr":"Kazahstan","name:hsb":"Kazachstan","name:ht":"Kazakstan","name:hu":"Kazahszt\u00e1n","name:hy":"\u0542\u0561\u0566\u0561\u056d\u057d\u057f\u0561\u0576","name:ia":"Kazakhstan","name:id":"Kazakhstan","name:ie":"Kazakstan","name:ilo":"Kazakstan","name:io":"Kazakstan","name:is":"Kasakstan","name:it":"Kazakistan","name:ja":"\u30ab\u30b6\u30d5\u30b9\u30bf\u30f3","name:jbo":"kazaksTAN","name:jv":"Kazakhstan","name:ka":"\u10e7\u10d0\u10d6\u10d0\u10ee\u10d4\u10d7\u10d8","name:kaa":"Qazaqstan","name:kbd":"\u041a\u044a\u0430\u0437\u0430\u0445\u044a\u0441\u0442\u044d\u043d","name:kg":"Kazakhstan","name:kk":"\u049a\u0430\u0437\u0430\u049b\u0441\u0442\u0430\u043d","name:kl":"Kasakhstani","name:km":"\u1780\u17b6\u179f\u17b6\u1780\u17cb\u179f\u17d2\u1790\u17b6\u1793","name:kn":"\u0c95\u0c9c\u0cbe\u0c95\u0cb8\u0ccd\u0ca5\u0cbe\u0ca8\u0ccd","name:ko":"\uce74\uc790\ud750\uc2a4\ud0c4","name:koi":"\u041a\u0430\u0437\u0430\u0445\u0441\u0442\u0430\u043d","name:krc":"\u041a\u044a\u0430\u0437\u0430\u043a\u044a\u0441\u0442\u0430\u043d","name:ku":"Qazaxistan","name:kv":"\u041a\u0430\u0437\u0430\u0445\u0441\u0442\u0430\u043d","name:kw":"Pow Kazagh","name:ky":"\u041a\u0430\u0437\u0430\u043a\u0441\u0442\u0430\u043d \u0420\u0435\u0441\u043f\u0443\u0431\u043b\u0438\u043a\u0430\u0441\u044b","name:la":"Kazachstania","name:lad":"Kazakistan","name:lb":"Kasachstan","name:lez":"\u041a\u044a\u0430\u0437\u0430\u043a\u044a\u0441\u0442\u0430\u043d","name:li":"Kazachstan","name:lij":"Kazakistan","name:lmo":"Kazakistan","name:ln":"Kazakst\u00e1ni","name:lt":"Kazachstanas","name:ltg":"Kazaheja","name:lv":"Kazahst\u0101na","name:lzh":"\u54c8\u85a9\u514b","name:mdf":"\u041a\u0430\u0437\u0430\u0445\u0441\u0442\u0430\u043d","name:mg":"Kazakst\u00e0na","name:mhr":"\u041a\u0430\u0437\u0430\u0445\u0441\u0442\u0430\u043d","name:mi":"Katat\u0101nga","name:min":"Kazakhstan","name:mk":"\u041a\u0430\u0437\u0430\u0445\u0441\u0442\u0430\u043d","name:ml":"\u0d16\u0d38\u0d3e\u0d16\u0d4d\u0d38\u0d4d\u0d25\u0d3e\u0d7b","name:mn":"\u041a\u0430\u0437\u0430\u0445\u0441\u0442\u0430\u043d","name:mr":"\u0915\u091d\u093e\u0915\u0938\u094d\u0924\u093e\u0928","name:ms":"Kazakhstan","name:mt":"Ka\u017cakistan","name:my":"\u1000\u102c\u1007\u1000\u103a\u1005\u1010\u1014\u103a\u1014\u102d\u102f\u1004\u103a\u1004\u1036","name:mzn":"\u0642\u0632\u0627\u0642\u0626\u0648\u0646","name:na":"Kadaketan","name:nah":"Cazactl\u0101lpan","name:nan":"Kazakhstan","name:nds":"Kasachstan","name:nds-nl":"Kazakstan","name:new":"\u0915\u091c\u093e\u0916\u094d\u0938\u094d\u0924\u093e\u0928","name:nl":"Kazachstan","name:nn":"Kasakhstan","name:no":"Kasakhstan","name:nov":"Kasakstan","name:nv":"K\u02bcazah Bik\u00e9yah","name:oc":"Cazacstan","name:or":"\u0b15\u0b3e\u0b1c\u0b3e\u0b16\u0b38\u0b4d\u0b24\u0b3e\u0b28","name:os":"\u0425\u044a\u0430\u0437\u0430\u0445\u0441\u0442\u0430\u043d","name:pa":"\u0a15\u0a1c\u0a3e\u0a16\u0a38\u0a24\u0a3e\u0a28","name:pam":"Kazastan","name:pap":"Kazachstan","name:pih":"Kazakstaan","name:pl":"Kazachstan","name:pms":"Kazakistan","name:pnb":"\u0642\u0627\u0632\u0642\u0633\u062a\u0627\u0646","name:ps":"\u0642\u0632\u0627\u0642\u0633\u062a\u0627\u0646","name:pt":"Cazaquist\u00e3o","name:qu":"Qasaqsuyu","name:rm":"Kasachstan","name:ro":"Kazahstan","name:roa-rup":"Kazahstan","name:roa-tara":"Kazakistan","name:ru":"\u041a\u0430\u0437\u0430\u0445\u0441\u0442\u0430\u043d","name:rue":"\u041a\u0430\u0437\u0430\u0445\u0441\u0442\u0430\u043d","name:rw":"Kazakisitani","name:sa":"\u0915\u091c\u093e\u0915\u0938\u094d\u0925\u093e\u0928","name:sah":"\u041a\u0430\u0437\u0430\u0445\u0441\u0442\u0430\u0430\u043d","name:scn":"Kazakistan","name:sco":"Kazakhstan","name:se":"Kazakstan","name:sh":"Kazahstan","name:si":"\u0d9a\u0dc3\u0d9a\u0dca\u0dc3\u0dca\u0dad\u0dcf\u0db1\u0dba","name:sk":"Kazachstan","name:sl":"Kazahstan","name:smn":"Kazakstan","name:sms":"Kazakstaan","name:so":"Kasakhstan","name:sq":"Kazakistani","name:sr":"\u041a\u0430\u0437\u0430\u0445\u0441\u0442\u0430\u043d","name:srn":"Kazachstan","name:ss":"IKhazakhi","name:stq":"Kasachstan","name:su":"Kazastan","name:sv":"Kazakstan","name:sw":"Kazakhstan","name:szl":"Kazachst\u014dn","name:ta":"\u0b95\u0b9a\u0b95\u0bcd\u0bb8\u0bcd\u0ba4\u0bbe\u0ba9\u0bcd","name:te":"\u0c15\u0c1c\u0c15\u0c38\u0c4d\u0c24\u0c3e\u0c28\u0c4d","name:tg":"\u049a\u0430\u0437\u043e\u049b\u0438\u0441\u0442\u043e\u043d","name:th":"\u0e1b\u0e23\u0e30\u0e40\u0e17\u0e28\u0e04\u0e32\u0e0b\u0e31\u0e04\u0e2a\u0e16\u0e32\u0e19","name:tk":"Gazagystan","name:tl":"Kazakhstan","name:tr":"Kazakistan","name:tt":"\u041a\u0430\u0437\u0430\u043a\u044a\u0441\u0442\u0430\u043d","name:udm":"\u041a\u0430\u0437\u0430\u0445\u0441\u0442\u0430\u043d","name:ug":"\u0642\u0627\u0632\u0627\u0642\u0649\u0633\u062a\u0627\u0646","name:uk":"\u041a\u0430\u0437\u0430\u0445\u0441\u0442\u0430\u043d","name:ur":"\u0642\u0627\u0632\u0642\u0633\u062a\u0627\u0646","name:uz":"Qozog\u02bbiston","name:vec":"Kazakistan","name:vep":"Kazahstan","name:vi":"Kazakhstan","name:vo":"Kazakist\u00e4n","name:vro":"Kasastan","name:war":"Kasahistan","name:wo":"Kasakistaan","name:wuu":"\u54c8\u8428\u514b\u65af\u5766","name:xal":"\u0425\u0430\u0441\u0433\u0443\u0434\u0438\u043d \u041e\u0440\u043d","name:xmf":"\u10e7\u10d0\u10d6\u10d0\u10ee\u10d4\u10d7\u10d8","name:yi":"\u05e7\u05d0\u05d6\u05d0\u05db\u05e1\u05d8\u05d0\u05df","name:yo":"K\u00e0s\u00e0kst\u00e1n","name:yue":"\u54c8\u85a9\u514b","name:za":"Hahsazgwswhdanj","name:zea":"Kazachstan","name:zh":"\u54c8\u8428\u514b\u65af\u5766","name:zh-Hans":"\u54c8\u8428\u514b\u65af\u5766","name:zh-Hant":"\u54c8\u85a9\u514b","official_name:ar":"\u062c\u0645\u0647\u0648\u0631\u064a\u0629 \u0643\u0627\u0632\u0627\u062e\u0633\u062a\u0627\u0646","official_name:cs":"Republika Kazachst\u00e1n","official_name:en":"Republic of Kazakhstan","official_name:eo":"Respubliko Kaza\u0125io","official_name:es":"Rep\u00fablica de Kazajist\u00e1n","official_name:ru":"\u0420\u0435\u0441\u043f\u0443\u0431\u043b\u0438\u043a\u0430 \u041a\u0430\u0437\u0430\u0445\u0441\u0442\u0430\u043d","official_name:zh":"\u54c8\u8428\u514b\u65af\u5766\u5171\u548c\u56fd","official_name:zh-Hans":"\u54c8\u8428\u514b\u65af\u5766\u5171\u548c\u56fd","official_name:zh-Hant":"\u54c8\u85a9\u514b\u5171\u548c\u570b","source:name:oc":"Lo Congr\u00e8s","type":"boundary","wikidata":"Q232","wikipedia":"kk:\u049a\u0430\u0437\u0430\u049b\u0441\u0442\u0430\u043d"},"timestamp":1716078538,"representative_point":{"type":"Point","coordinates":[66.3074148512657,48.006936350000004]}},"geometry":{"type":"Polygon","coordinates":[[[87.2878499,49.1140742],[87.3156336,49.2310833],[87.0307157,49.2528804],[86.8271741,49.5454254],[86.6182488,49.5703775],[86.7810989,49.7943469],[86.5899075,49.8070677],[86.2020375,49.4661128],[85.2575191,49.5885235],[84.9854889,49.9067722],[85.0355435,50.0524943],[84.3625226,50.2054649],[83.9726623,50.7953988],[83.4324488,51.0093789],[82.7328173,50.9272716],[82.5674696,50.7468424],[81.4493382,50.755926],[81.4125874,50.9757418],[81.0597635,50.9479034],[81.1463635,51.2118797],[80.6776732,51.3167498],[80.4470866,51.2082857],[80.4822429,50.9686871],[80.0679769,50.8528895],[80.0758658,50.7382076],[77.9065061,53.29141],[76.5040997,54.0317861],[76.44044,54.1673306],[76.7564658,54.161826],[76.9289614,54.4577679],[75.3751078,54.0699691],[75.4410767,53.9723507],[75.0462878,53.7926662],[74.4571137,53.6911004],[74.3829131,53.4559241],[73.9008664,53.6512261],[73.4382659,53.4353948],[73.2528958,53.6742283],[73.4522778,53.8761856],[73.6909568,53.8562287],[73.7676751,54.0540553],[73.275814,53.942662],[72.6083603,54.1370506],[72.5327246,54.0435594],[72.7144825,53.9508897],[72.4866879,53.9007542],[72.3695826,54.0833483],[72.5070029,54.1399711],[72.0326976,54.3664699],[72.1843064,54.120593],[71.7519675,54.2537612],[71.7204594,54.1064617],[71.1789715,54.0949458],[70.9985715,54.3360786],[71.1986884,54.3117026],[71.2932122,54.6677509],[71.0304616,54.7784824],[71.0188383,55.085095],[70.8074641,55.2926304],[70.2043533,55.1463726],[68.9326858,55.4420271],[69.001168,55.2884639],[68.7486541,55.3788423],[68.6197954,55.198213],[68.1771478,55.1987932],[68.3151931,55.0766291],[68.2347429,54.9689587],[65.489554,54.655537],[65.2144536,54.541393],[65.221956,54.334286],[64.974791,54.424178],[63.1713545,54.1937674],[62.5943792,54.0737683],[62.5100236,53.9128576],[62.4187937,54.046982],[61.9323322,53.9499079],[61.400587,54.0868636],[61.2798674,53.9285743],[61.0293566,53.9551112],[61.2271763,53.795613],[60.9002873,53.6286665],[61.5932608,53.5261239],[61.2586516,53.5080373],[61.1770356,53.3117561],[62.1473649,53.0680022],[62.0293354,52.9510472],[61.0086368,52.9781089],[60.714553,52.6630268],[61.0667983,52.3470908],[60.001992,51.9932809],[60.5174884,51.7977253],[60.41554,51.6470009],[60.9356265,51.6152641],[60.9989583,51.4677838],[61.6897852,51.2559632],[61.4490006,50.8061229],[60.8331435,50.6620365],[60.3252084,50.6702543],[60.1459693,50.8400094],[59.8131772,50.535508],[59.509517,50.4953129],[59.4792952,50.6414793],[58.6564001,50.8086365],[58.6141735,51.0474024],[58.3210316,51.1622791],[57.7719418,51.1384157],[57.7618164,50.9202119],[57.5070278,50.8759514],[57.1847713,51.1149613],[56.704428,51.077521],[56.7126274,50.9706772],[56.5137287,51.0858606],[55.7362457,50.5503002],[54.591044,51.0296014],[54.7313548,50.6193289],[54.5448205,50.5277123],[54.4136108,50.6206947],[54.5181701,50.854636],[53.6683845,51.2254048],[53.4264155,51.482231],[52.5606107,51.4530308],[52.3586696,51.7758986],[51.856608,51.6738058],[51.738729,51.4651675],[51.3801758,51.4761548],[51.2404462,51.5631264],[51.3801834,51.6412244],[50.7681628,51.7730366],[50.8120335,51.5850431],[50.5851824,51.6458348],[50.3731352,51.332611],[49.4546664,51.1255932],[49.4229079,50.8486852],[48.5706275,50.632365],[48.9034293,50.0183874],[48.7456239,49.9213212],[48.2266738,49.8679889],[47.5416847,50.4606519],[47.3003385,50.3032138],[47.3213875,50.0636718],[46.9025552,49.8637806],[46.7822421,49.3398769],[47.0513427,49.1655883],[46.4932179,48.432558],[47.1229738,48.2685031],[47.2111172,48.0822157],[47.0499372,47.9977513],[47.1944439,47.76084],[48.2093704,47.6916271],[48.9959671,46.7430837],[48.5352722,46.7062855],[48.5479411,46.5572664],[49.886117,46.045769],[50.1468194,46.4773194],[51.2384528,46.8500139],[51.6042667,46.6026194],[52.6520722,46.7066833],[52.7984917,46.6053889],[52.6754278,45.8112861],[52.4719222,45.607825],[51.4064694,45.5232056],[50.8716306,45.1156222],[50.0170694,45.1868722],[49.8082944,44.9752667],[50.1032333,44.2835944],[50.5487667,44.1438056],[51.0968111,43.4507833],[51.1326417,43.05145],[52.3928472,42.6017583],[52.2290194,42.1171056],[52.2670368,41.6142587],[52.984788,42.121175],[54.2163678,42.3792099],[54.928925,41.928325],[55.430472,41.279495],[55.9985531,41.3222103],[55.9989203,45.0001361],[58.5879414,45.5906784],[61.1075956,44.3604948],[62.004055,43.505401],[63.3490764,43.6504846],[64.5348607,43.5706872],[65.0021563,43.7153968],[65.8441558,42.8582546],[66.0966931,42.9381375],[65.99871,41.937179],[66.5331066,41.8769466],[66.7091523,41.1425258],[67.965538,41.148967],[68.1274869,41.0384463],[67.9764181,40.8322516],[68.4815488,40.5710088],[68.6631848,40.5994345],[68.5221477,41.017327],[68.7285721,40.9696525],[69.1493858,41.4317381],[70.943305,42.263467],[71.0889746,42.4843773],[71.002555,42.587646],[71.2634396,42.771983],[71.8180014,42.8312416],[73.5134667,42.4181089],[73.4174291,42.5698254],[73.5442632,43.0279111],[74.2042207,43.2669039],[74.7499278,42.9897261],[75.711571,42.7971894],[75.8235176,42.9402527],[76.343846,42.860756],[76.9715902,42.9870497],[79.200844,42.8044523],[79.504877,42.459887],[79.964108,42.436598],[80.1744037,42.2108441],[80.2893285,42.2600836],[80.1619896,42.6303331],[80.2599508,42.827599],[80.6013071,42.8929406],[80.3841734,43.0459032],[80.8072807,43.1772719],[80.396238,44.1101139],[80.4104826,44.610393],[79.8819854,44.9106776],[81.7717552,45.3860334],[81.9220346,45.228887],[82.5601012,45.2034839],[82.5428316,45.4209581],[82.2588014,45.6164839],[83.031327,47.2232667],[83.9164281,46.9728003],[84.7591835,47.0046508],[84.944232,46.8628509],[85.5346574,47.049095],[85.7029578,47.3800725],[85.5265731,48.0258791],[85.7170915,48.3649674],[86.5854302,48.5380353],[86.852827,49.110571],[87.2878499,49.1140742]]]}}