{"type":"Feature","properties":{"tags":{"ISO3166-1":"LI","ISO3166-1:alpha2":"LI","ISO3166-1:alpha3":"LIE","ISO3166-1:numeric":"438","admin_level":"2","boundary":"administrative","default_language":"de","flag":"http:\/\/upload.wikimedia.org\/wikipedia\/commons\/4\/47\/Flag_of_Liechtenstein.svg","int_name":"Liechtenstein","land_area":"administrative","name":"Liechtenstein","name:ar":"\u0644\u064a\u062e\u062a\u0646\u0634\u062a\u0627\u064a\u0646","name:arc":"\u0720\u071d\u071f\u071b\u0722\u072b\u071b\u071d\u0722","name:be":"\u041bi\u0445\u0442\u044d\u043d\u0448\u0442\u044d\u0439\u043d","name:bs":"Lihten\u0161tajn","name:ckb":"\u0644\u06cc\u062e\u062a\u0646\u0634\u062a\u0627\u06cc\u0646","name:cs":"Lichten\u0161tejnsko","name:de":"Liechtenstein","name:el":"\u039b\u03af\u03c7\u03c4\u03b5\u03bd\u03c3\u03c4\u03b1\u03ca\u03bd","name:en":"Liechtenstein","name:eo":"Li\u0125ten\u015dtejno","name:es":"Liechtenstein","name:fa":"\u0644\u06cc\u062e\u062a\u0646\u200c\u0627\u0634\u062a\u0627\u06cc\u0646","name:fi":"Liechtenstein","name:fo":"Liktinstein","name:fr":"Liechtenstein","name:fy":"Lychtenstein","name:gn":"Liechytente\u0129","name:grc":"\u039b\u03b5\u03c5\u03c7\u03b5\u03bd\u03c4\u03af\u03b1","name:hr":"Lihten\u0161tajn","name:ia":"Liechtenstein","name:io":"Liechtenstein","name:it":"Liechtenstein","name:ja":"\u30ea\u30d2\u30c6\u30f3\u30b7\u30e5\u30bf\u30a4\u30f3","name:jbo":"lixtenctain","name:ku":"L\u00eenxini\u015ftayn","name:la":"Lichtenstenum","name:lt":"Lichten\u0161teinas","name:mi":"R\u012bkeneteina","name:mk":"\u041b\u0438\u0445\u0442\u0435\u043d\u0448\u0442\u0430\u0458\u043d","name:nds":"Liechtensteen","name:nl":"Liechtenstein","name:pa":"\u0a32\u0a40\u0a16\u0a1f\u0a28\u0a38\u0a3c\u0a1f\u0a3e\u0a08\u0a28","name:pl":"Liechtenstein","name:pt":"Listenstaine","name:ru":"\u041b\u0438\u0445\u0442\u0435\u043d\u0448\u0442\u0435\u0439\u043d","name:se":"Liechtenstein","name:sk":"Lichten\u0161tajnsko","name:sl":"Lihten\u0161tajn","name:smn":"Liechtenstein","name:sms":"Liechtenstei\u02b9nn","name:sr":"\u041b\u0438\u0445\u0442\u0435\u043d\u0448\u0442\u0430\u0458\u043d","name:sr-Latn":"Lihten\u0161tajn","name:syc":"\u0720\u071d\u071f\u071b\u0722\u072b\u071b\u071d\u0722","name:szl":"Liechtenstein","name:ta":"\u0bb2\u0bc0\u0b95\u0bcd\u0b95\u0bbf\u0ba9\u0bcd\u0bb8\u0bcd\u0b9f\u0bc8\u0ba9\u0bcd","name:tok":"ma Lisensan","name:tzl":"Lic'htenschtain","name:uk":"\u041b\u0456\u0445\u0442\u0435\u043d\u0448\u0442\u0435\u0439\u043d","name:ur":"\u0644\u062e\u0679\u0646\u0634\u0679\u0627\u0626\u0646","name:vo":"Ligt\u00e4nst\u00e4n","name:zh":"\u5217\u652f\u6566\u58eb\u767b \/ \u5217\u652f\u6566\u65af\u767b","name:zh-Hans":"\u5217\u652f\u6566\u58eb\u767b","name:zh-Hant":"\u5217\u652f\u6566\u65af\u767b","official_name":"F\u00fcrstentum Liechtenstein","official_name:cs":"Lichten\u0161tejnsk\u00e9 kn\u00ed\u017eectv\u00ed","official_name:de":"F\u00fcrstentum Liechtenstein","official_name:en":"Principality of Liechtenstein","official_name:eo":"Princlando Li\u0125ten\u015dtejno","official_name:es":"Principado de Liechtenstein","official_name:fi":"Liechtensteinin ruhtinaskunta","official_name:fr":"Principaut\u00e9 du Liechtenstein","official_name:gn":"Liechytente\u0129 Mburuvichavete ra'y reku\u00e1i","official_name:grc":"\u03a0\u03c1\u03b9\u03b3\u03ba\u03b9\u03c0\u1fb6\u03c4\u03bf\u03bd \u03c4\u1fc6\u03c2 \u039b\u03b5\u03c5\u03c7\u03b5\u03bd\u03c4\u03af\u03b1\u03c2","official_name:la":"Principatus Lichtensteni","official_name:mk":"\u041a\u043d\u0435\u0436\u0435\u0432\u0441\u0442\u0432\u043e \u041b\u0438\u0445\u0442\u0435\u043d\u0448\u0442\u0430\u0458\u043d","official_name:pl":"Ksi\u0119stwo Liechtensteinu","official_name:pt":"Principado de Liechtenstein","official_name:ru":"\u041a\u043d\u044f\u0436\u0435\u0441\u0442\u0432\u043e \u041b\u0438\u0445\u0442\u0435\u043d\u0448\u0442\u0435\u0439\u043d","official_name:sk":"Lichten\u0161tajnsk\u00e9 knie\u017eatstvo","ref:nuts":"LI0;LI00;LI000","ref:nuts:1":"LI0","ref:nuts:2":"LI00","ref:nuts:3":"LI000","timezone":"Europe\/Vaduz","type":"boundary","wikidata":"Q347","wikipedia":"de:Liechtenstein"},"timestamp":1716078538,"representative_point":{"type":"Point","coordinates":[9.546911556970336,47.1594125]}},"geometry":{"type":"Polygon","coordinates":[[[9.5307487,47.270581],[9.4717767,47.0615162],[9.6070544,47.0607725],[9.5307487,47.270581]]]}}