{"type":"Feature","properties":{"tags":{"ISO3166-1":"ME","ISO3166-1:alpha2":"ME","ISO3166-1:alpha3":"MNE","ISO3166-1:numeric":"499","admin_level":"2","boundary":"administrative","flag":"http:\/\/upload.wikimedia.org\/wikipedia\/commons\/6\/64\/Flag_of_Montenegro.svg","int_name":"Montenegro","name":"Crna Gora \/ \u0426\u0440\u043d\u0430 \u0413\u043e\u0440\u0430","name:ace":"Mont\u00e9n\u00e8gr\u00f4","name:af":"Montenegro","name:als":"Montenegro","name:am":"\u121e\u1295\u1274\u1294\u130d\u122e","name:an":"Montenegro","name:ang":"Sweartbeorg","name:ar":"\u0627\u0644\u062c\u0628\u0644 \u0627\u0644\u0623\u0633\u0648\u062f","name:arc":"\u071b\u0718\u072a\u0710 \u0710\u0718\u071f\u0721\u0710","name:arz":"\u0645\u0648\u0646\u062a\u064a\u0646\u064a\u062c\u0631\u0648","name:ast":"Montenegru","name:av":"\u0427\u0435\u044d\u0440\u0430\u0431 \u041c\u0435\u044d\u0440","name:az":"Monteneqro","name:ba":"\u0427\u0435\u0440\u043d\u043e\u0433\u043e\u0440\u0438\u044f","name:bar":"Montenegro","name:bat-smg":"Joudkaln\u0117j\u0117","name:bcl":"Montenegro","name:be":"\u0427\u0430\u0440\u043d\u0430\u0433\u043e\u0440\u044b\u044f","name:be-tarask":"\u0427\u0430\u0440\u043d\u0430\u0433\u043e\u0440\u044b\u044f","name:bg":"\u0427\u0435\u0440\u043d\u0430 \u0433\u043e\u0440\u0430","name:bi":"Montenegro","name:bn":"\u09ae\u09a8\u09cd\u099f\u09bf\u09a8\u09bf\u0997\u09cd\u09b0\u09cb","name:bo":"\u0f58\u0f7c\u0f53\u0f0b\u0f4a\u0f7a\u0f53\u0f72\u0f42\u0f0b\u0f62\u0f7c\u0f0d","name:bpy":"\u09ae\u09a8\u09cd\u099f\u09bf\u09a8\u09bf\u0997\u09cd\u09b0\u09cb","name:br":"Montenegro","name:bs":"Crna Gora","name:bxr":"\u041c\u043e\u043d\u0442\u0435\u043d\u0435\u0433\u0440\u043e","name:ca":"Montenegro","name:ce":"I\u0430\u044c\u0440\u0436\u0430\u043b\u0430\u044c\u043c\u043d\u0438","name:ceb":"Montenegro","name:ckb":"\u0645\u06c6\u0646\u062a\u06cc\u0646\u06cc\u06af\u0631\u06c6","name:crh":"Montenegro","name:cs":"\u010cern\u00e1 Hora","name:csb":"Cz\u00f4rnog\u00f3ra","name:cu":"\u0427\u0440\u044c\u043d\u0430 \u0413\u043e\u0440\u0430","name:cv":"\u0427\u0435\u0440\u043d\u043e\u0433\u043e\u0440\u0438","name:cy":"Montenegro","name:da":"Montenegro","name:de":"Montenegro","name:diq":"Montenegro","name:dsb":"Carnog\u00f3rska","name:dv":"\u0789\u07ae\u0782\u07b0\u0793\u07ac\u0782\u07a9\u078e\u07aa\u0783\u07af","name:ee":"Montenegro","name:el":"\u039c\u03b1\u03c5\u03c1\u03bf\u03b2\u03bf\u03cd\u03bd\u03b9\u03bf","name:en":"Montenegro","name:eo":"Montenegro","name:es":"Montenegro","name:et":"Montenegro","name:eu":"Montenegro","name:ext":"Montenegru","name:fa":"\u0645\u0648\u0646\u062a\u0647\u200c\u0646\u06af\u0631\u0648","name:fi":"Montenegro","name:fo":"Montenegro","name:fr":"Mont\u00e9n\u00e9gro","name:frp":"Mont\u00e8n\u00e8gro","name:frr":"Montenegro","name:fy":"Montenegro","name:ga":"Montain\u00e9agr\u00f3","name:gag":"\u00c7ernogoriya","name:gd":"Am Monadh Neagrach","name:gl":"Montenegro","name:gn":"Monten\u00e9gyro","name:gu":"\u0aae\u0acb\u0aa8\u0acd\u0a9f\u0ac7\u0aa8\u0ac0\u0a97\u0acd\u0ab0\u0acb","name:gv":"Montenegro","name:hak":"M\u00f9ng-thi\u030dt-nui-k\u00f4-l\u00f2","name:haw":"Montenegero","name:he":"\u05de\u05d5\u05e0\u05d8\u05e0\u05d2\u05e8\u05d5","name:hif":"Montenegro","name:hr":"Crna Gora","name:hsb":"\u010corna Hora","name:ht":"Montenegwo","name:hu":"Montenegr\u00f3","name:hy":"\u0549\u0565\u057c\u0576\u0578\u0563\u0578\u0580\u056b\u0561","name:ia":"Montenegro","name:id":"Montenegro","name:ie":"Montenegro","name:ilo":"Montenegro","name:io":"Montenegro","name:is":"Svartfjallaland","name:it":"Montenegro","name:ja":"\u30e2\u30f3\u30c6\u30cd\u30b0\u30ed","name:jbo":"tsrnagoras","name:jv":"Monten\u00e9gro","name:ka":"\u10e9\u10d4\u10e0\u10dc\u10dd\u10d2\u10dd\u10e0\u10d8\u10d0","name:kaa":"Shernogoriya","name:kbd":"\u041a\u044a\u0443\u0449\u0445\u044c\u044d\u0444\u04c0\u044b\u0446\u04c0\u044d","name:kg":"Monte Negro","name:kk":"\u0427\u0435\u0440\u043d\u043e\u0433\u043e\u0440\u0438\u044f","name:kl":"Montenegro","name:kn":"\u0cae\u0cbe\u0c82\u0c9f\u0cc6\u0ca8\u0cc6\u0c97\u0ccd\u0cb0\u0cca","name:ko":"\ubaac\ud14c\ub124\uadf8\ub85c","name:koi":"\u0426\u04e7\u0440\u043d\u0430\u0433\u043e\u0440\u0430","name:krc":"\u0427\u0435\u0440\u043d\u043e\u0433\u043e\u0440\u0438\u044f","name:ku":"Montenegro","name:kv":"\u0427\u0435\u0440\u043d\u043e\u0433\u043e\u0440\u0438\u044f","name:kw":"Montenegro","name:ky":"\u041c\u043e\u043d\u0442\u0435\u043d\u0435\u0433\u0440\u043e","name:la":"Mons Niger","name:lad":"Montenegro","name:lb":"Montenegro","name:li":"Montenegro","name:lij":"Monteneigro","name:lmo":"Muntnegher","name:ln":"Montenegro","name:lt":"Juodkalnija","name:ltg":"Malnkalneja","name:lv":"Melnkalne","name:mhr":"\u0428\u0435\u043c\u043a\u0443\u0440\u044b\u043a \u042d\u043b","name:mi":"Monoten\u012bkoro","name:mk":"\u0426\u0440\u043d\u0430 \u0413\u043e\u0440\u0430","name:ml":"\u0d2e\u0d4b\u0d23\u0d4d\u0d1f\u0d46\u0d28\u0d46\u0d17\u0d4d\u0d30\u0d4a","name:mr":"\u092e\u093e\u0901\u091f\u0947\u0928\u093f\u0917\u094d\u0930\u094b","name:ms":"Montenegro","name:mt":"Montenegro","name:my":"\u1019\u103d\u1014\u103a\u1010\u102e\u1014\u102e\u1002\u101b\u102d\u102f\u1038\u1014\u102d\u102f\u1004\u103a\u1004\u1036","name:na":"Montenegro","name:nah":"Tl\u012bltep\u0113c","name:nan":"O\u0358-soa\u207f Ki\u014dng-h\u00f4-kok","name:nap":"Montenegro","name:nds":"Montenegro","name:nds-nl":"Montenegro","name:ne":"\u092e\u094b\u0928\u094d\u091f\u0947\u0928\u0947\u0917\u094d\u0930\u094b","name:nl":"Montenegro","name:nn":"Montenegro","name:no":"Montenegro","name:nov":"Montenegro","name:nrm":"Crna Gora","name:nv":"Dzi\u0142izhin Bik\u00e9yah","name:oc":"Montenegro","name:or":"\u0b2e\u0b4b\u0b23\u0b4d\u0b1f\u0b47\u0b28\u0b47\u0b17\u0b4d\u0b30\u0b4b","name:os":"\u0427\u0435\u0440\u043d\u043e\u0433\u043e\u0440\u0438","name:pa":"\u0a2e\u0a4b\u0a02\u0a1f\u0a47\u0a28\u0a47\u0a17\u0a30\u0a4b","name:pap":"Montenegro","name:pcd":"No\u00e9rmont","name:pih":"Montiniegrow","name:pl":"Czarnog\u00f3ra","name:pms":"Montn\u00e8igr","name:pnb":"\u0645\u0648\u0646\u0679\u06cc \u0646\u06cc\u06af\u0631\u0648","name:pnt":"\u039c\u03b1\u03c5\u03c1\u03bf\u03b2\u03bf\u03cd\u03bd\u03b9\u03bf\u03bd","name:ps":"\u0645\u0627\u0646\u062a\u06d0\u0646\u06d0\u06ab\u0631\u0648","name:pt":"Montenegro","name:qu":"Yanaurqu","name:ro":"Muntenegru","name:roa-rup":"Montenegro","name:roa-tara":"Mondegnure","name:ru":"\u0427\u0435\u0440\u043d\u043e\u0433\u043e\u0440\u0438\u044f","name:rw":"Montenegoro","name:sah":"\u041c\u043e\u043d\u0442\u0435\u043d\u0435\u0433\u0440\u043e","name:sc":"Montenegro","name:scn":"Montenegru","name:sco":"Montenegro","name:se":"Montenegro","name:sh":"Crna Gora","name:sk":"\u010cierna Hora","name:sl":"\u010crna gora","name:sm":"Montenegro","name:smn":"Montenegro","name:sms":"Montenegro","name:so":"Montenegro","name:sq":"Mali i Zi","name:sr":"\u0426\u0440\u043d\u0430 \u0413\u043e\u0440\u0430","name:sr-Latn":"Crna Gora","name:ss":"IMonthenekho","name:stq":"Montenegro","name:su":"Mont\u00e9n\u00e9gro","name:sv":"Montenegro","name:sw":"Montenegro","name:szl":"Cz\u014frn\u014f G\u014dra","name:ta":"\u0bae\u0bca\u0ba3\u0bcd\u0b9f\u0bc6\u0ba9\u0bc7\u0b95\u0bc1\u0bb0\u0bcb","name:tg":"\u041c\u043e\u043d\u0442\u0435\u043d\u0435\u0433\u0440\u043e","name:th":"\u0e1b\u0e23\u0e30\u0e40\u0e17\u0e28\u0e21\u0e2d\u0e19\u0e40\u0e15\u0e40\u0e19\u0e42\u0e01\u0e23","name:tk":"\u00c7ernogori\u00fda","name:tl":"Montenegro","name:tr":"Karada\u011f","name:tt":"\u041c\u043e\u043d\u0442\u0435\u043d\u0435\u0433\u0440\u043e","name:tzl":"Muntnegreu","name:ug":"\u0686\u06d0\u0631\u0646\u0648\u06af\u0648\u0631\u0649\u064a\u06d5","name:uk":"\u0427\u043e\u0440\u043d\u043e\u0433\u043e\u0440\u0456\u044f","name:ur":"\u0645\u0648\u0646\u0679\u06cc\u0646\u06cc\u06af\u0631\u0648","name:uz":"Chernogoriya","name:vec":"Monten\u00e9gro","name:vep":"Mustm\u00e4gi","name:vi":"Montenegro","name:vls":"Montenegro","name:vo":"Montenegr\u00e4n","name:vro":"Mont\u00f5negro","name:war":"Montenegro","name:wo":"Montenegro","name:wuu":"\u9ed1\u5c71\u5171\u548c\u56fd","name:xal":"\u0425\u0430\u0440 \u0423\u0443\u043b\u0438\u043d \u041e\u0440\u043d","name:xmf":"\u10e9\u10d4\u10e0\u10dc\u10dd\u10d2\u10dd\u10e0\u10d8\u10d0","name:yi":"\u05de\u05d0\u05e0\u05d8\u05e2\u05e0\u05e2\u05d2\u05e8\u05d0","name:yo":"Monten\u1eb9\u0301gr\u00f2","name:yue":"\u9ed1\u5c71","name:zea":"Montenehro","name:zh":"\u9ed1\u5c71","name:zh-Hans":"\u9ed1\u5c71","name:zh-Hant":"\u8499\u7279\u5167\u54e5\u7f85","official_name":"Crna Gora","ref:nuts":"ME0;ME00;ME000","ref:nuts:1":"ME0","ref:nuts:2":"ME00","ref:nuts:3":"ME000","timezone":"Europe\/Podgorica","type":"boundary","wikidata":"Q236","wikipedia":"en:Montenegro"},"timestamp":1716078538,"representative_point":{"type":"Point","coordinates":[19.089491602658114,42.621714999999995]}},"geometry":{"type":"Polygon","coordinates":[[[18.4195781,42.2096003],[19.2103411,41.6849866],[19.3814341,41.8836275],[19.2808461,42.1804052],[19.6272654,42.5933027],[19.7273204,42.6610848],[19.8314213,42.4658321],[20.0762998,42.5558234],[20.0246529,42.7651386],[20.3529276,42.8333801],[19.2256624,43.5284295],[18.9124408,43.5032805],[19.0087836,43.2506054],[18.9108882,43.3606749],[18.6881249,43.2547137],[18.4503926,42.8167857],[18.5559858,42.5811295],[18.4380795,42.5555843],[18.5398406,42.3923873],[18.4195781,42.2096003]]]}}