{"type":"Feature","properties":{"tags":{"ISO3166-1":"MH","ISO3166-1:alpha2":"MH","ISO3166-1:alpha3":"MHL","ISO3166-1:numeric":"584","admin_level":"2","alt_name:eo":"Mar\u015dala Insularo","boundary":"administrative","driving_side":"right","flag":"http:\/\/upload.wikimedia.org\/wikipedia\/commons\/2\/2e\/Flag_of_the_Marshall_Islands.svg","name":"\u1e42aje\u1e37","name:ar":"\u062c\u0632\u0631 \u0645\u0627\u0631\u0634\u0627\u0644","name:az":"Mar\u015fall adalar\u0131","name:bg":"\u041c\u0430\u0440\u0448\u0430\u043b\u043e\u0432\u0438 \u043e\u0441\u0442\u0440\u043e\u0432\u0438","name:cs":"Marshallovy ostrovy","name:da":"Marshall\u00f8erne","name:de":"Marshallinseln","name:el":"\u039d\u03ae\u03c3\u03bf\u03b9 \u039c\u03ac\u03c1\u03c3\u03b1\u03bb","name:en":"Marshall Islands","name:eo":"Mar\u015daloj","name:es":"Islas Marshall","name:et":"Marshalli Saared","name:fi":"Marshallinsaaret","name:fr":"\u00celes Marshall","name:gn":"Ypa'\u0169ngu\u00e9ra Marshall","name:he":"\u05d0\u05d9\u05d9 \u05de\u05e8\u05e9\u05dc","name:hr":"Mar\u0161alovi Otoci","name:hu":"Marshall-szigetek","name:ia":"Insulas Marshall","name:io":"Insuli Marshall","name:is":"Marshalleyjar","name:it":"Isole Marshall","name:ja":"\u30de\u30fc\u30b7\u30e3\u30eb\u8af8\u5cf6","name:jbo":"marcal.dapl","name:mh":"\u1e42aje\u1e37","name:mk":"\u041c\u0430\u0440\u0448\u0430\u043b\u0441\u043a\u0438 \u041e\u0441\u0442\u0440\u043e\u0432\u0438","name:mt":"G\u017cejjer Marshall","name:nl":"Marshalleilanden","name:no":"Marshall\u00f8yene","name:oc":"Illas Marshall","name:pl":"Wyspy Marshalla","name:pt":"Ilhas Marshall","name:ro":"Insulele Marshall","name:ru":"\u041c\u0430\u0440\u0448\u0430\u043b\u043b\u043e\u0432\u044b \u041e\u0441\u0442\u0440\u043e\u0432\u0430","name:se":"Marshallsullot","name:sk":"Marshallove ostrovy","name:sl":"Marshallovi otoki","name:smn":"Marshallsuolluuh","name:sms":"Marshall-su\u00f5llu","name:sv":"Marshall\u00f6arna","name:szl":"Wyspy \u00f4d Marshalla","name:ta":"\u0bae\u0bbe\u0bb0\u0bcd\u0b9a\u0bb2\u0bcd \u0ba4\u0bc0\u0bb5\u0bc1\u0b95\u0bb3\u0bcd","name:tr":"Marshall Adalar\u0131","name:uk":"\u041c\u0430\u0440\u0448\u0430\u043b\u043b\u043e\u0432\u0456 \u041e\u0441\u0442\u0440\u043e\u0432\u0438","name:uz":"Marshall orollari","name:vi":"Qu\u1ea7n \u0111\u1ea3o Marshall","name:vo":"Marjalu\u00e4ns","name:zh":"\u9a6c\u7ecd\u5c14\u7fa4\u5c9b \/ \u99ac\u7d39\u723e\u7fa4\u5cf6","name:zh-Hans":"\u9a6c\u7ecd\u5c14\u7fa4\u5c9b","name:zh-Hant":"\u99ac\u7d39\u723e\u7fa4\u5cf6","official_name:en":"Republic of the Marshall Islands","official_name:es":"Rep\u00fablica de las Islas Marshall","official_name:gn":"Tavakuairet\u00e3 Ypa'\u0169ngu\u00e9ra Marshall","official_name:pt":"Rep\u00fablica das Ilhas Marshall","official_name:ru":"\u0420\u0435\u0441\u043f\u0443\u0431\u043b\u0438\u043a\u0430 \u041c\u0430\u0440\u0448\u0430\u043b\u043b\u043e\u0432\u044b \u041e\u0441\u0442\u0440\u043e\u0432\u0430","source:name:oc":"Lo Congr\u00e8s","type":"boundary","wikidata":"Q709","wikipedia":"en:Marshall Islands"},"timestamp":1716078538,"representative_point":{"type":"Point","coordinates":[167.7953223704529,8.230816999999998]}},"geometry":{"type":"MultiPolygon","coordinates":[[[[168.782336,10.065578],[168.956617,9.677624],[169.641306,9.319341],[169.892209,8.878551],[170.810803,8.129033],[170.836953,7.078487],[171.567628,5.952493],[172.299785,5.720632],[172.130857,7.175021],[171.408562,8.527225],[171.036122,10.431638],[170.132087,10.645546],[170.051003,11.307182],[169.745701,11.540567],[169.350765,11.265123],[169.323691,10.274299],[168.913369,10.241643],[168.782336,10.065578]]],[[[169.868198,12.244406],[170.118201,11.98007],[170.352048,12.258734],[170.075652,12.496517],[169.868198,12.244406]]],[[[164.989649,11.619802],[165.694297,10.174996],[165.321463,9.265824],[165.414245,8.937008],[165.704194,8.732167],[166.176084,8.716433],[168.096137,7.605062],[168.545855,7.150582],[169.174972,5.989372],[168.448408,4.684717],[168.572564,4.415064],[168.829874,4.404719],[169.923693,6.048404],[169.134217,7.886657],[168.312662,8.324637],[167.607502,9.561295],[167.003647,9.544559],[166.766002,10.937359],[167.582876,11.125326],[167.704755,11.486979],[165.423758,11.916247],[165.150752,11.873154],[164.989649,11.619802]]],[[[168.678774,14.736085],[168.856049,14.362342],[169.214085,14.56377],[169.011154,14.910866],[168.678774,14.736085]]],[[[167.882097,5.654275],[168.094714,5.388645],[168.3369,5.617919],[168.099617,5.846401],[167.882097,5.654275]]],[[[161.835502,11.538628],[162.196021,11.142053],[162.454465,11.179469],[162.599291,11.437936],[162.493088,11.738797],[162.24442,11.887837],[161.835502,11.538628]]],[[[160.591628,9.863379],[160.90158,9.576502],[161.18963,9.726728],[160.875446,10.072249],[160.591628,9.863379]]]]}}