{"type":"Feature","properties":{"tags":{"ISO3166-1":"MK","ISO3166-1:alpha2":"MK","ISO3166-1:alpha3":"MKD","ISO3166-1:numeric":"807","admin_level":"2","alt_name:ar":"\u0645\u0642\u062f\u0648\u0646\u064a\u0627 \u0627\u0644\u0634\u0645\u0627\u0644\u064a\u0629","alt_name:eo":"Nord-Makedonujo","alt_name:vi":"B\u1eafc Ma-x\u00ea-\u0111\u00f4-ni-a;Ma-x\u00ea-\u0111\u00f4-ni-a;B\u1eafc M\u00e1c-k\u00ea-\u0111\u00f4n-ni-a;M\u00e1c-k\u00ea-\u0111\u00f4n-ni-a","boundary":"administrative","default_language":"mk","fixme":"name:xx-North Macedonia official_name:xx-Republic of North Macedonia old_name:xx-Macedonia old_official_name:xx-Republic of Macedonia","flag":"https:\/\/upload.wikimedia.org\/wikipedia\/commons\/7\/79\/Flag_of_North_Macedonia.svg","int_name":"North Macedonia","name":"\u0421\u0435\u0432\u0435\u0440\u043d\u0430 \u041c\u0430\u043a\u0435\u0434\u043e\u043d\u0438\u0458\u0430","name:UN:ar":"\u062c\u0645\u0647\u0648\u0631\u064a\u0629 \u0634\u0645\u0627\u0644 \u0645\u0642\u062f\u0648\u0646\u064a\u0627","name:UN:el":"\u0392\u03cc\u03c1\u03b5\u03b9\u03b1 \u039c\u03b1\u03ba\u03b5\u03b4\u03bf\u03bd\u03af\u03b1","name:UN:en":"Republic of North Macedonia","name:UN:es":"Macedonia del Norte","name:UN:he":"\u05d4\u05e8\u05e4\u05d5\u05d1\u05dc\u05d9\u05e7\u05d4 \u05d4\u05d9\u05d5\u05d2\u05d5\u05e1\u05dc\u05d1\u05d9\u05ea \u05dc\u05e9\u05e2\u05d1\u05e8 \u05e9\u05dc \u05de\u05e7\u05d3\u05d5\u05e0\u05d9\u05d4","name:UN:sk":"B\u00fdval\u00e1 Juhoslovansk\u00e1 Republika Maced\u00f3nsko","name:UN:zh":"\u524d\u5357\u65af\u62c9\u592b\u7684\u9a6c\u5176\u987f\u5171\u548c\u56fd","name:ar":"\u0634\u0645\u0627\u0644 \u0645\u0642\u062f\u0648\u0646\u064a\u0627","name:bg":"\u0421\u0435\u0432\u0435\u0440\u043d\u0430 \u041c\u0430\u043a\u0435\u0434\u043e\u043d\u0438\u044f","name:bs":"Sjeverna Makedonija","name:ca":"Maced\u00f2nia del Nord","name:chr":"\u13e7\u13f4\u13e2 \u13b9\u13ce\u13d9\u13c2\u13ef","name:cs":"Severn\u00ed Makedonie","name:cy":"Gogledd Macedonia","name:da":"Nordmakedonien","name:de":"Nordmazedonien","name:el":"\u0392\u03cc\u03c1\u03b5\u03b9\u03b1 \u039c\u03b1\u03ba\u03b5\u03b4\u03bf\u03bd\u03af\u03b1","name:en":"North Macedonia","name:eo":"Nord-Makedonio","name:es":"Macedonia del Norte","name:et":"P\u00f5hja-Makedoonia","name:eu":"Ipar Mazedonia","name:fa":"\u0645\u0642\u062f\u0648\u0646\u06cc\u0647 \u0634\u0645\u0627\u0644\u06cc","name:fr":"Mac\u00e9doine du Nord","name:fy":"Noard-Masedoanje","name:gd":"Masadoinia a Tuath","name:gl":"Macedonia do Norte","name:gn":"Yvate Masend\u00f3\u00f1a","name:gv":"Massadoan Hwoaie","name:he":"\u05de\u05e7\u05d3\u05d5\u05e0\u05d9\u05d4 \u05d4\u05e6\u05e4\u05d5\u05e0\u05d9\u05ea","name:hif":"Macedonia","name:hr":"Sjeverna Makedonija","name:hu":"\u00c9szak-Maced\u00f3nia","name:hy":"\u0544\u0561\u056f\u0565\u0564\u0578\u0576\u056b\u0561\u0575\u056b \u0540\u0561\u0576\u0580\u0561\u057a\u0565\u057f\u0578\u0582\u0569\u0575\u0578\u0582\u0576","name:it":"Macedonia del Nord","name:ja":"\u5317\u30de\u30b1\u30c9\u30cb\u30a2","name:ko":"\ubd81\ub9c8\ucf00\ub3c4\ub2c8\uc544","name:ku":"Komara Makedonyay\u00ea","name:kv":"\u041c\u0430\u043a\u0435\u0434\u043e\u043d\u0438\u044f \u0420\u0435\u0441\u043f\u0443\u0431\u043b\u0438\u043a\u0430","name:kw":"Repoblek Makedoni","name:la":"Macedonia Septentrionalis","name:lad":"Makedonia","name:lb":"Nordmazedonien","name:li":"Noord-Macedoni\u00eb","name:lij":"Ma\u00e7ed\u00f2nia","name:lmo":"Macedonia","name:lt":"\u0160iaur\u0117s Makedonija","name:ltg":"Makedonejis Republika","name:lv":"Zieme\u013cma\u0137edonija","name:mdf":"\u041c\u0430\u043a\u0435\u0434\u043e\u043d\u0438\u0435","name:mhr":"\u041c\u0430\u043a\u0435\u0434\u043e\u043d\u0438\u0439","name:mi":"Maker\u014dnia","name:mk":"\u0421\u0435\u0432\u0435\u0440\u043d\u0430 \u041c\u0430\u043a\u0435\u0434\u043e\u043d\u0438\u0458\u0430","name:ml":"\u0d31\u0d3f\u0d2a\u0d4d\u0d2a\u0d2c\u0d4d\u0d32\u0d3f\u0d15\u0d4d \u0d13\u0d2b\u0d4d \u0d2e\u0d3e\u0d38\u0d3f\u0d21\u0d4b\u0d23\u0d3f\u0d2f","name:mn":"\u0411\u04af\u0433\u0434 \u041d\u0430\u0439\u0440\u0430\u043c\u0434\u0430\u0445 \u041c\u0430\u043a\u0435\u0434\u043e\u043d \u0423\u043b\u0441","name:mr":"\u092e\u0945\u0938\u093f\u0921\u094b\u0928\u093f\u092f\u093e","name:ms":"Republik Macedonia","name:mt":"Repubblika tal-Ma\u010bedonja","name:my":"\u1019\u1000\u103a\u1005\u102e\u1012\u102d\u102f\u1038\u1014\u102e\u1038\u101a\u102c\u1038\u1014\u102d\u102f\u1004\u103a\u1004\u1036","name:na":"Matedoniya","name:nah":"Tl\u0101catlahtohc\u0101y\u014dtl Macedonia","name:nan":"Makedonija Ki\u014dng-h\u00f4-kok","name:nds":"Republiek Makedonien","name:nds-nl":"Massedoni\u00eb","name:ne":"\u092e\u094d\u092f\u093e\u0938\u0947\u0921\u094b\u0928\u093f\u092f\u093e","name:nl":"Noord-Macedoni\u00eb","name:nn":"Nord-Makedonia","name:no":"Nord-Makedonia","name:oc":"Republica de Maced\u00f2nia","name:or":"\u0b2e\u0b3e\u0b38\u0b3f\u0b21\u0b4b\u0b28\u0b3f\u0b06","name:os":"\u0420\u0435\u0441\u043f\u0443\u0431\u043b\u0438\u043a\u00e6 \u041c\u0430\u043a\u0435\u0434\u043e\u043d\u0438","name:pa":"\u0a2e\u0a15\u0a26\u0a42\u0a28\u0a40\u0a06 \u0a17\u0a23\u0a30\u0a3e\u0a1c","name:pam":"Republika ning Makedonia","name:pap":"Macedonia","name:pcd":"Mach\u00e9do\u00e8ne","name:pih":"Repablik o' Masedoenya","name:pl":"Macedonia P\u00f3\u0142nocna","name:pms":"Maced\u00f2nia","name:ps":"\u062f \u0645\u0642\u062f\u0648\u0646\u064a\u06d0 \u0648\u0644\u0633\u0645\u0634\u0631\u064a\u0632\u0647","name:pt":"Maced\u00f3nia do Norte","name:pt-BR":"Maced\u00f4nia do Norte","name:qu":"Makidunya","name:rmy":"Nordutni Makedoniya","name:ro":"Macedonia de Nord","name:roa-rup":"Machedonia","name:roa-tara":"Macidonie","name:ru":"\u0421\u0435\u0432\u0435\u0440\u043d\u0430\u044f \u041c\u0430\u043a\u0435\u0434\u043e\u043d\u0438\u044f","name:rw":"Masedoniya","name:sa":"\u092e\u0947\u0938\u0947\u0921\u094b\u0928\u093f\u092f\u093e","name:sah":"\u041c\u0430\u043a\u0435\u0434\u043e\u043d\u0438\u044f","name:sc":"Matzed\u00f2nia","name:scn":"Macidonia","name:sco":"Macedonie","name:se":"Davvi-Makedonia","name:sh":"Severna Makedonija","name:sk":"Severn\u00e9 Maced\u00f3nsko","name:sl":"Severna Makedonija","name:smn":"Tave-Makedonia","name:sms":"T\u00e2\u02b9vv-Makedonia","name:so":"Makedonia","name:sq":"Maqedonia e Veriut","name:sr":"\u0421\u0435\u0432\u0435\u0440\u043d\u0430 \u041c\u0430\u043a\u0435\u0434\u043e\u043d\u0438\u0458\u0430","name:sr-Latn":"Severna Makedonija","name:ss":"IMakhedoniya","name:stq":"Makedonien","name:su":"Mak\u00e9donia","name:sv":"Nordmakedonien","name:sw":"Jamhuri ya Masedonia","name:szl":"Maced\u014dnij\u014f","name:ta":"\u0bae\u0bbe\u0b95\u0bcd\u0b95\u0b9f\u0bcb\u0ba9\u0bbf\u0baf\u0b95\u0bcd \u0b95\u0bc1\u0b9f\u0bbf\u0baf\u0bb0\u0b9a\u0bc1","name:te":"\u0c2e\u0c47\u0c38\u0c3f\u0c21\u0c4b\u0c28\u0c3f\u0c2f\u0c3e","name:tg":"\u04b6\u0443\u043c\u04b3\u0443\u0440\u0438\u0438 \u041c\u0430\u049b\u0434\u0443\u043d\u0438\u044f","name:th":"\u0e1b\u0e23\u0e30\u0e40\u0e17\u0e28\u0e21\u0e32\u0e0b\u0e34\u0e42\u0e14\u0e40\u0e19\u0e35\u0e22\u0e40\u0e2b\u0e19\u0e37\u0e2d","name:tk":"Makedoni\u00fda Respublikasy","name:tl":"Republika ng Masedonya","name:tr":"Kuzey Makedonya","name:tt":"\u041c\u0430\u043a\u0435\u0434\u043e\u043d\u0438\u044f \u0496\u04e9\u043c\u04bb\u04af\u0440\u0438\u044f\u0442\u0435","name:udm":"\u041c\u0430\u043a\u0435\u0434\u043e\u043d\u0438\u044f \u0420\u0435\u0441\u043f\u0443\u0431\u043b\u0438\u043a\u0430","name:ug":"\u0645\u0627\u0643\u06d0\u062f\u0648\u0646\u0649\u064a\u06d5","name:uk":"\u041f\u0456\u0432\u043d\u0456\u0447\u043d\u0430 \u041c\u0430\u043a\u0435\u0434\u043e\u043d\u0456\u044f","name:ur":"\u0634\u0645\u0627\u0644\u06cc \u0645\u0642\u062f\u0648\u0646\u06cc\u06c1","name:uz":"Makedoniya Respublikasi","name:vec":"Republica de Macedonia","name:vep":"Makedonii","name:vi":"B\u1eafc Macedonia","name:vls":"N\u00f4ord-Macedoni\u00eb","name:vo":"Nol\u00fcda-Makedoniy\u00e4n","name:war":"Republika han Macedonia","name:wo":"R\u00e9ewum Maseduwaan","name:wuu":"\u5317\u9a6c\u5176\u987f","name:xal":"\u041c\u0430\u0441\u0438\u0434\u0438\u043d \u041e\u0440\u043d","name:xmf":"\u10db\u10d0\u10d9\u10d4\u10d3\u10dd\u10dc\u10d8\u10d0","name:yi":"\u05e8\u05e2\u05e4\u05d5\u05d1\u05dc\u05d9\u05e7 \u05e4\u05d5\u05df \u05de\u05d0\u05e7\u05e2\u05d3\u05d0\u05e0\u05d9\u05e2","name:yo":"Or\u00edl\u1eb9\u0300-\u00e8d\u00e8 Ol\u00f3m\u00ecnira il\u1eb9\u0300 Mak\u1eb9d\u00f3n\u00ed\u00e0","name:yue":"\u5317\u99ac\u5176\u9813\u5171\u548c\u570b","name:zea":"Macedoni\u00eb","name:zh":"\u5317\u9a6c\u5176\u987f","name:zh-Hans":"\u5317\u9a6c\u5176\u987f","name:zh-Hant":"\u5317\u99ac\u5176\u9813","official_name":"\u0420\u0435\u043f\u0443\u0431\u043b\u0438\u043a\u0430 \u0421\u0435\u0432\u0435\u0440\u043d\u0430 \u041c\u0430\u043a\u0435\u0434\u043e\u043d\u0438\u0458\u0430","official_name:ar":"\u062c\u0645\u0647\u0648\u0631\u064a\u0629 \u0634\u0645\u0627\u0644 \u0645\u0642\u062f\u0648\u0646\u064a\u0627","official_name:bg":"\u0420\u0435\u043f\u0443\u0431\u043b\u0438\u043a\u0430 \u0421\u0435\u0432\u0435\u0440\u043d\u0430 \u041c\u0430\u043a\u0435\u0434\u043e\u043d\u0438\u044f","official_name:bs":"Republika Sjeverna Makedonija","official_name:ca":"Rep\u00fablica de Maced\u00f2nia del Nord","official_name:cs":"Republika Severn\u00ed Makedonie","official_name:cy":"Gweriniaeth Gogledd Macedonia","official_name:de":"Republik Nordmazedonien","official_name:el":"\u0394\u03b7\u03bc\u03bf\u03ba\u03c1\u03b1\u03c4\u03af\u03b1 \u03c4\u03b7\u03c2 \u0392\u03cc\u03c1\u03b5\u03b9\u03b1\u03c2 \u039c\u03b1\u03ba\u03b5\u03b4\u03bf\u03bd\u03af\u03b1\u03c2","official_name:en":"Republic of North Macedonia","official_name:eo":"Respubliko Makedonujo","official_name:es":"Rep\u00fablica de Macedonia del Norte","official_name:eu":"Ipar Mazedoniako Errepublika","official_name:fa":"\u062c\u0645\u0647\u0648\u0631\u06cc \u0645\u0642\u062f\u0648\u0646\u06cc\u0647 \u0634\u0645\u0627\u0644\u06cc","official_name:fr":"R\u00e9publique de Mac\u00e9doine du Nord","official_name:gl":"Rep\u00fablica de Macedonia do Norte","official_name:he":"\u05e8\u05e4\u05d5\u05d1\u05dc\u05d9\u05e7\u05ea \u05de\u05e7\u05d3\u05d5\u05e0\u05d9\u05d4 \u05d4\u05e6\u05e4\u05d5\u05e0\u05d9\u05ea","official_name:hr":"Republika Sjeverna Makedonija","official_name:it":"Repubblica della Macedonia del Nord","official_name:mk":"\u0420\u0435\u043f\u0443\u0431\u043b\u0438\u043a\u0430 \u0421\u0435\u0432\u0435\u0440\u043d\u0430 \u041c\u0430\u043a\u0435\u0434\u043e\u043d\u0438\u0458\u0430","official_name:nl":"Republiek Noord-Macedoni\u00eb","official_name:nn":"Republikken Nord-Makedonia","official_name:no":"Republikken Nord-Makedonia","official_name:pl":"Republika Macedonii P\u00f3\u0142nocnej","official_name:se":"D\u00e1ssev\u00e1ldi Davvi-Makedonia","official_name:sk":"Republika Severn\u00e9 Maced\u00f3nsko","official_name:sl":"Republika Severna Makedonija","official_name:sq":"Republika e Maqedonis\u00eb s\u00eb Veriut","official_name:sr":"\u0420\u0435\u043f\u0443\u0431\u043b\u0438\u043a\u0430 \u0421\u0435\u0432\u0435\u0440\u043d\u0430 \u041c\u0430\u043a\u0435\u0434\u043e\u043d\u0438\u0458\u0430","official_name:sr-Latn":"Republika Severna Makedonija","official_name:th":"\u0e2a\u0e32\u0e18\u0e32\u0e23\u0e13\u0e23\u0e31\u0e10\u0e21\u0e32\u0e0b\u0e34\u0e42\u0e14\u0e40\u0e19\u0e35\u0e22\u0e40\u0e2b\u0e19\u0e37\u0e2d","official_name:tr":"Kuzey Makedonya Cumhuriyeti","official_name:uk":"\u0420\u0435\u0441\u043f\u0443\u0431\u043b\u0456\u043a\u0430 \u041c\u0430\u043a\u0435\u0434\u043e\u043d\u0456\u044f","official_name:ur":"\u062c\u0645\u06c1\u0648\u0631\u06cc\u06c1 \u0634\u0645\u0627\u0644\u06cc \u0645\u0642\u062f\u0648\u0646\u06cc\u06c1","official_name:vi":"C\u1ed9ng h\u00f2a B\u1eafc Macedonia","official_name:zh":"\u5317\u9a6c\u5176\u987f\u5171\u548c\u56fd \/ \u5317\u99ac\u5176\u9813\u5171\u548c\u570b","official_name:zh-Hans":"\u5317\u9a6c\u5176\u987f\u5171\u548c\u56fd","official_name:zh-Hant":"\u5317\u99ac\u5176\u9813\u5171\u548c\u570b","old_name":"\u041c\u0430\u043a\u0435\u0434\u043e\u043d\u0438\u0458\u0430","old_name:ar":"\u0645\u0642\u062f\u0648\u0646\u064a\u0627","old_name:bg":"\u041c\u0430\u043a\u0435\u0434\u043e\u043d\u0438\u044f","old_name:bs":"Makedonija","old_name:cs":"Makedonie","old_name:cy":"Macedonia","old_name:de":"Mazedonien","old_name:el":"\u03a0\u03c1\u03ce\u03b7\u03bd \u0393\u03b9\u03bf\u03c5\u03b3\u03ba\u03bf\u03c3\u03bb\u03b1\u03b2\u03b9\u03ba\u03ae \u0394\u03b7\u03bc\u03bf\u03ba\u03c1\u03b1\u03c4\u03af\u03b1 \u03c4\u03b7\u03c2 \u039c\u03b1\u03ba\u03b5\u03b4\u03bf\u03bd\u03af\u03b1\u03c2","old_name:en":"Macedonia","old_name:eu":"Mazedonia","old_name:fa":"\u0645\u0642\u062f\u0648\u0646\u06cc\u0647","old_name:fr":"Mac\u00e9doine","old_name:fy":"Masedoanje","old_name:he":"\u05de\u05e7\u05d3\u05d5\u05e0\u05d9\u05d4","old_name:hr":"Makedonija","old_name:ja":"\u30de\u30b1\u30c9\u30cb\u30a2","old_name:mk":"\u041c\u0430\u043a\u0435\u0434\u043e\u043d\u0438\u0458\u0430","old_name:nl":"Macedoni\u00eb","old_name:nn":"Makedonia","old_name:no":"Makedonia","old_name:rmy":"Makedoniya","old_name:ro":"Macedonia","old_name:sk":"Maced\u00f3nsko","old_name:sl":"Makedonija","old_name:sq":"Maqedoni","old_name:sr":"\u041c\u0430\u043a\u0435\u0434\u043e\u043d\u0438\u0458\u0430","old_name:sr-Latn":"Makedonija","old_name:tr":"Makedonya Cumhuriyeti","old_name:uk":"\u041c\u0430\u043a\u0435\u0434\u043e\u043d\u0456\u044f","old_name:ur":"\u0645\u0642\u062f\u0648\u0646\u06cc\u06c1","old_name:vi":"Macedonia","old_name:zh":"\u9a6c\u5176\u987f \/ \u99ac\u5176\u9813","old_name:zh-Hans":"\u9a6c\u5176\u987f","old_name:zh-Hant":"\u99ac\u5176\u9813","old_official_name":"\u0420\u0435\u043f\u0443\u0431\u043b\u0438\u043a\u0430 \u041c\u0430\u043a\u0435\u0434\u043e\u043d\u0438\u0458\u0430","old_official_name:ar":"\u062c\u0645\u0647\u0648\u0631\u064a\u0629 \u0645\u0642\u062f\u0648\u0646\u064a\u0627","old_official_name:bg":"\u0420\u0435\u043f\u0443\u0431\u043b\u0438\u043a\u0430 \u041c\u0430\u043a\u0435\u0434\u043e\u043d\u0438\u044f","old_official_name:bs":"Republika Makedonija","old_official_name:ca":"Antiga Rep\u00fablica Iugoslava de Maced\u00f2nia","old_official_name:cs":"Makedonsk\u00e1 republika","old_official_name:cy":"Gweriniaeth Macedonia","old_official_name:el":"\u0394\u03b7\u03bc\u03bf\u03ba\u03c1\u03b1\u03c4\u03af\u03b1 \u03c4\u03b7\u03c2 \u039c\u03b1\u03ba\u03b5\u03b4\u03bf\u03bd\u03af\u03b1\u03c2","old_official_name:en":"Republic of Macedonia","old_official_name:eu":"Mazedoniako Errepublika","old_official_name:fa":"\u062c\u0645\u0647\u0648\u0631\u06cc \u0645\u0642\u062f\u0648\u0646\u06cc\u0647","old_official_name:fr":"R\u00e9publique de Mac\u00e9doine","old_official_name:he":"\u05e8\u05e4\u05d5\u05d1\u05dc\u05d9\u05e7\u05ea \u05de\u05e7\u05d3\u05d5\u05e0\u05d9\u05d4","old_official_name:hr":"Republika Makedonija","old_official_name:it":"Repubblica di Macedonia","old_official_name:mk":"\u0420\u0435\u043f\u0443\u0431\u043b\u0438\u043a\u0430 \u041c\u0430\u043a\u0435\u0434\u043e\u043d\u0438\u0458\u0430","old_official_name:sl":"Republika Makedonija","old_official_name:sq":"Republika e Maqedonis\u00eb","old_official_name:sr":"\u0420\u0435\u043f\u0443\u0431\u043b\u0438\u043a\u0430 \u041c\u0430\u043a\u0435\u0434\u043e\u043d\u0438\u0458\u0430","old_official_name:sr-Latn":"Republika Makedonija","old_official_name:tr":"Makedonya Cumhuriyeti","old_official_name:ur":"\u062c\u0645\u06c1\u0648\u0631\u06cc\u06c1 \u0645\u0642\u062f\u0648\u0646\u06cc\u06c1","old_official_name:vi":"C\u1ed9ng h\u00f2a Macedonia","old_official_name:zh":"\u9a6c\u5176\u987f\u5171\u548c\u56fd","old_official_name:zh-Hans":"\u9a6c\u5176\u987f\u5171\u548c\u56fd","old_official_name:zh-Hant":"\u99ac\u5176\u9813\u5171\u548c\u570b","old_short_name:el":"\u03a0\u0393\u0394\u039c","ref":"MK","ref:nuts":"MK0;MK00","ref:nuts:1":"MK0","ref:nuts:2":"MK00","short_name:ca":"Maced\u00f2nia","short_name:en":"Macedonia","short_name:hr":"Makedonija","short_name:mk":"\u041c\u0430\u043a\u0435\u0434\u043e\u043d\u0438\u0458\u0430","short_name:sl":"Makedonija","short_name:zh":"\u5317\u9a6c\u5176\u987f","source:name":"Prespa agreement, which came into effect on 8 February 2019.","timezone":"Europe\/Skopje","type":"boundary","wikidata":"Q221","wikipedia":"mk:\u041c\u0430\u043a\u0435\u0434\u043e\u043d\u0438\u0458\u0430"},"timestamp":1716078538,"representative_point":{"type":"Point","coordinates":[21.750299396207044,41.6132565]}},"geometry":{"type":"Polygon","coordinates":[[[20.5943749,41.8771924],[20.5152446,41.2312782],[20.7317924,40.9108794],[20.9797154,40.852478],[21.5936149,40.866266],[22.0622457,41.1607131],[22.7120881,41.1396117],[22.9275511,41.3384543],[23.033372,41.72238],[22.867129,42.022067],[22.3602199,42.3110963],[21.5869537,42.2628407],[21.2568786,42.0927859],[21.1037724,42.205887],[20.5943749,41.8771924]]]}}