{"type":"Feature","properties":{"tags":{"ISO3166-1":"MS","ISO3166-1:alpha2":"MS","ISO3166-1:alpha3":"MSR","ISO3166-1:numeric":"500","admin_level":"2","boundary":"administrative","default_language":"en","description":"british overseas territory","flag":"http:\/\/upload.wikimedia.org\/wikipedia\/commons\/d\/d0\/Flag_of_Montserrat.svg","name":"Montserrat","name:af":"Montserrat","name:als":"Montserrat","name:an":"Isla de Montserrat","name:ang":"Montserrat","name:ar":"\u0645\u0648\u0646\u062a\u0633\u0631\u0627\u062a","name:arz":"\u0645\u0648\u0646\u062a\u0633\u064a\u0631\u0627\u062a","name:ast":"Montserrat","name:az":"Montserrat","name:ba":"\u041c\u043e\u043d\u0442\u0441\u0435\u0440\u0440\u0430\u0442","name:be":"\u041c\u0430\u043d\u0442\u0441\u0435\u0440\u0430\u0442","name:be-tarask":"\u041c\u0430\u043d\u0441\u044d\u0440\u0430\u0442","name:bg":"\u041c\u043e\u043d\u0441\u0435\u0440\u0430\u0442","name:bpy":"\u09ae\u09a8\u09cd\u099f\u09b8\u09c7\u09b0\u09cd\u09b0\u09be\u099f","name:br":"Enez Montserrat","name:bs":"Monserat","name:ca":"Illa de Montserrat","name:cs":"Montserrat","name:cy":"Montserrat","name:da":"Montserrat","name:de":"Montserrat","name:dv":"\u0789\u07ae\u0782\u07b0\u0790\u07ac\u0783\u07a7\u0793\u07aa","name:el":"\u039c\u03bf\u03bd\u03c4\u03c3\u03b5\u03c1\u03c1\u03ac\u03c4","name:en":"Montserrat","name:eo":"Moncerato","name:es":"Montserrat","name:et":"Montserrat","name:eu":"Montserrat","name:fa":"\u0645\u0648\u0646\u062a\u0633\u0631\u0627\u062a","name:fi":"Montserrat","name:fr":"Montserrat","name:frp":"Montsarrat","name:frr":"Montserrat","name:ga":"Montsarat","name:gl":"Illa Montserrat","name:he":"\u05de\u05d5\u05e0\u05d8\u05e1\u05e8\u05d0\u05d8","name:hi":"\u092e\u0949\u0923\u094d\u091f\u0938\u0947\u0930\u093e\u091f","name:hr":"Montserrat","name:ht":"Montserrat","name:hu":"Montserrat","name:hy":"\u0544\u0578\u0576\u057f\u057d\u0565\u0580\u0561\u057f","name:id":"Montserrat","name:io":"Montserrat","name:is":"Montserrat","name:it":"Montserrat","name:ja":"\u30e2\u30f3\u30c8\u30bb\u30e9\u30c8","name:jv":"Montserrat","name:ka":"\u10db\u10dd\u10dc\u10e1\u10d4\u10e0\u10d0\u10e2\u10d8","name:ko":"\ubaac\ud2b8\uc138\ub7ab","name:kw":"Montserrat","name:la":"Mons Serratus","name:lb":"Montserrat","name:li":"Montserrat","name:lij":"Montserrat","name:lmo":"Montserrat","name:lt":"Montseratas","name:lv":"Montserrata","name:mk":"\u041c\u043e\u043d\u0442\u0441\u0435\u0440\u0430\u0442","name:mr":"\u092e\u093e\u0901\u091f\u0938\u0947\u0930\u093e\u091f","name:ms":"Montserrat","name:nan":"Montserrat","name:nds":"Montserrat","name:nl":"Montserrat","name:nn":"Montserrat","name:no":"Montserrat","name:nov":"Montserat","name:oc":"Montserrat","name:pa":"\u0a2e\u0a3e\u0a02\u0a1f\u0a38\u0a30\u0a3e\u0a24","name:pap":"Montserrat","name:pl":"Montserrat","name:pms":"Montserrat","name:pnb":"\u0645\u0648\u0646\u062a\u0633\u0631\u0627\u062a","name:pt":"Montserrat","name:ro":"Montserrat","name:ru":"\u041c\u043e\u043d\u0442\u0441\u0435\u0440\u0440\u0430\u0442","name:rw":"Monserati","name:sh":"Montserrat","name:simple":"Montserrat","name:sk":"Montserrat","name:sl":"Montserrat","name:sq":"Montserrati","name:sr":"\u041c\u043e\u043d\u0442\u0441\u0435\u0440\u0430\u0442","name:su":"Montserrat","name:sv":"Montserrat","name:ta":"\u0bae\u0bca\u0ba9\u0bcd\u0b9a\u0bc6\u0bb0\u0bbe\u0b9f\u0bcd","name:th":"\u0e21\u0e2d\u0e19\u0e15\u0e4c\u0e40\u0e0b\u0e2d\u0e23\u0e4c\u0e23\u0e31\u0e15","name:tl":"Montserrat","name:tr":"Montserrat","name:ug":"\u0645\u0648\u0646\u062a\u0633\u06d5\u0631\u0631\u0627\u062a","name:uk":"\u041c\u043e\u043d\u0442\u0441\u0435\u0440\u0440\u0430\u0442","name:ur":"\u0645\u0627\u0646\u0679\u0633\u0631\u06cc\u0679","name:vi":"Montserrat","name:war":"Montserrat","name:wo":"Montserrat","name:yo":"Montserrat","name:yue":"\u8499\u585e\u62c9\u7279\u5cf6","name:zh":"\u8499\u585e\u62c9\u7279\u5c9b","timezone":"America\/Montserrat","type":"boundary","wikidata":"Q13353","wikipedia":"en:Montserrat"},"timestamp":1716078538,"representative_point":{"type":"Point","coordinates":[-62.19110077929245,16.6808112]}},"geometry":{"type":"Polygon","coordinates":[[[-62.4474949,16.7556732],[-62.1544254,16.4742561],[-61.9425689,16.7740488],[-62.202891,16.8885156],[-62.4474949,16.7556732]]]}}