{"type":"Feature","properties":{"tags":{"ISO3166-1":"NA","ISO3166-1:alpha2":"NA","ISO3166-1:alpha3":"NAM","ISO3166-1:numeric":"516","admin_level":"2","boundary":"administrative","default_language":"en","driving_side":"left","flag":"http:\/\/upload.wikimedia.org\/wikipedia\/commons\/0\/00\/Flag_of_Namibia.svg","name":"Namibia","name:ace":"Namibia","name:af":"Namibi\u00eb","name:als":"Namibia","name:am":"\u1293\u121a\u1262\u12eb","name:an":"Namibia","name:ang":"Namibia","name:ar":"\u0646\u0627\u0645\u064a\u0628\u064a\u0627","name:arz":"\u0646\u0627\u0645\u064a\u0628\u064a\u0627","name:ast":"Namibia","name:az":"Namibiya","name:ba":"\u041d\u0430\u043c\u0438\u0431\u0438\u044f","name:bar":"Namibia","name:bat-smg":"Namib\u0117j\u0117","name:bcl":"Namibya","name:be":"\u041d\u0430\u043c\u0456\u0431\u0456\u044f","name:be-tarask":"\u041d\u0430\u043c\u0456\u0431\u0456\u044f","name:bg":"\u041d\u0430\u043c\u0438\u0431\u0438\u044f","name:bjn":"Namibia","name:bm":"Namibia","name:bn":"\u09a8\u09be\u09ae\u09bf\u09ac\u09bf\u09af\u09bc\u09be","name:bo":"\u0f53\u0f0b\u0f58\u0f72\u0f0b\u0f56\u0fb7\u0f72\u0f0b\u0f61\u0f0d","name:bpy":"\u09a8\u09be\u09ae\u09bf\u09ac\u09bf\u09af\u09bc\u09be","name:br":"Namibia","name:bs":"Namibija","name:bxr":"\u041d\u0430\u043c\u0438\u0431\u0438","name:ca":"Nam\u00edbia","name:ce":"\u041d\u0430\u043c\u0438\u0431\u0438","name:ceb":"Namibya","name:chy":"Namibia","name:ckb":"\u0646\u0627\u0645\u06cc\u0628\u06cc\u0627","name:crh":"Namibiya","name:cs":"Namibie","name:cv":"\u041d\u0430\u043c\u0438\u0431\u0438","name:cy":"Namibia","name:da":"Namibia","name:de":"Namibia","name:diq":"Namibya","name:dsb":"Namibija","name:el":"\u039d\u03b1\u03bc\u03af\u03bc\u03c0\u03b9\u03b1","name:en":"Namibia","name:eo":"Namibio","name:es":"Namibia","name:et":"Namiibia","name:eu":"Namibia","name:ext":"Namibia","name:fa":"\u0646\u0627\u0645\u06cc\u0628\u06cc\u0627","name:fi":"Namibia","name:fo":"Namibia","name:fr":"Namibie","name:frp":"Namibie","name:fy":"Namybje","name:ga":"An Namaib","name:gag":"Namibiya","name:gd":"Naimibia","name:gl":"Namibia","name:gn":"Nam\u00edvia","name:gv":"Yn Nameeb","name:hak":"Na\u030dp-m\u00ed-p\u00ed-\u00e2","name:he":"\u05e0\u05de\u05d9\u05d1\u05d9\u05d4","name:hi":"\u0928\u093e\u092e\u0940\u092c\u093f\u092f\u093e","name:hif":"Namibia","name:hr":"Namibija","name:hsb":"Namibija","name:ht":"Namibi","name:hu":"Nam\u00edbia","name:hy":"\u0546\u0561\u0574\u056b\u0562\u056b\u0561","name:ia":"Namibia","name:id":"Namibia","name:ie":"Namibia","name:ilo":"Namibia","name:io":"Namibia","name:is":"Namib\u00eda","name:it":"Namibia","name:ja":"\u30ca\u30df\u30d3\u30a2","name:jbo":"namibias","name:jv":"Namibia","name:ka":"\u10dc\u10d0\u10db\u10d8\u10d1\u10d8\u10d0","name:kaa":"Namibiya","name:kg":"Namibia","name:ki":"Namibia","name:kk":"\u041d\u0430\u043c\u0438\u0431\u0438\u044f","name:kn":"\u0ca8\u0cae\u0cc0\u0cac\u0cbf\u0caf","name:ko":"\ub098\ubbf8\ube44\uc544","name:krc":"\u041d\u0430\u043c\u0438\u0431\u0438\u044f","name:ku":"Nam\u00eebya","name:kw":"Namibi","name:la":"Namibia","name:lad":"Namibia","name:lb":"Namibien","name:li":"Namibi\u00eb","name:lij":"Namibia","name:lmo":"Namibia","name:ln":"Namibia","name:lt":"Namibija","name:ltg":"Namibeja","name:lv":"Nam\u012bbija","name:lzh":"\u7d0d\u7c73\u6bd4\u4e9e","name:mg":"Namibia","name:mi":"Nam\u012bpia","name:min":"Namibia","name:mk":"\u041d\u0430\u043c\u0438\u0431\u0438\u0458\u0430","name:ml":"\u0d28\u0d2e\u0d40\u0d2c\u0d3f\u0d2f","name:mn":"\u041d\u0430\u043c\u0438\u0431\u0438","name:mr":"\u0928\u093e\u092e\u093f\u092c\u093f\u092f\u093e","name:ms":"Namibia","name:mt":"Namibja","name:my":"\u1014\u1019\u102e\u1038\u1018\u102e\u1038\u101a\u102c\u1038\u1014\u102d\u102f\u1004\u103a\u1004\u1036","name:nah":"Namibia","name:nan":"Namibia","name:nds":"Namibia","name:nl":"Namibi\u00eb","name:nn":"Namibia","name:no":"Namibia","name:nov":"Namibia","name:nso":"Namibia","name:nv":"Nam\u00ed\u00edbya","name:oc":"Namibia","name:or":"\u0b28\u0b3e\u0b2e\u0b3f\u0b2c\u0b3f\u0b06","name:os":"\u041d\u0430\u043c\u0438\u0431\u0438","name:pa":"\u0a28\u0a2e\u0a40\u0a2c\u0a40\u0a06","name:pam":"Namibia","name:pap":"Namibia","name:pl":"Namibia","name:pms":"Namibia","name:pnb":"\u0646\u0627\u0645\u06cc\u0628\u06cc\u0627","name:ps":"\u0646\u06d0\u0645\u0628\u06cc\u0627","name:pt":"Nam\u00edbia","name:qu":"Namiwya","name:rm":"Namibia","name:ro":"Namibia","name:ru":"\u041d\u0430\u043c\u0438\u0431\u0438\u044f","name:rw":"Namibiya","name:sa":"\u0928\u092e\u0940\u092c\u093f\u092f\u093e","name:sah":"\u041d\u0430\u043c\u0438\u0431\u0438\u044f","name:sc":"Nam\u00ecbia","name:scn":"Namibbia","name:sco":"Namibie","name:se":"Namibia","name:sg":"Namib\u00f9ii","name:sh":"Namibija","name:simple":"Namibia","name:sk":"Nam\u00edbia","name:sl":"Namibija","name:smn":"Namibia","name:sms":"Namibia","name:sn":"Namibia","name:so":"Nambiya","name:sq":"Namibia","name:sr":"\u041d\u0430\u043c\u0438\u0431\u0438\u0458\u0430","name:ss":"INamibiya","name:st":"Namibia","name:stq":"Namibia","name:su":"Namibia","name:sv":"Namibia","name:sw":"Namibia","name:szl":"Namibijo","name:ta":"\u0ba8\u0bae\u0bc0\u0baa\u0bbf\u0baf\u0bbe","name:te":"\u0c28\u0c2e\u0c40\u0c2c\u0c3f\u0c2f\u0c3e","name:tg":"\u041d\u0430\u043c\u0438\u0431\u0438\u044f","name:th":"\u0e1b\u0e23\u0e30\u0e40\u0e17\u0e28\u0e19\u0e32\u0e21\u0e34\u0e40\u0e1a\u0e35\u0e22","name:ti":"\u1293\u121a\u1262\u12eb","name:tk":"Namibi\u00fda","name:tl":"Namibya","name:tn":"Namibia","name:tr":"Namibya","name:ts":"Namibia","name:tt":"\u041d\u0430\u043c\u0438\u0431\u0438\u044f","name:tzl":"Namibia","name:ug":"\u0646\u0627\u0645\u0649\u0628\u0649\u064a\u06d5","name:uk":"\u041d\u0430\u043c\u0456\u0431\u0456\u044f","name:ur":"\u0646\u0645\u06cc\u0628\u06cc\u0627","name:uz":"Namibiya","name:ve":"Namibia","name:vec":"Namibia","name:vi":"Namibia","name:vo":"Namibiy\u00e4n","name:vro":"Namiibia","name:war":"Namibia","name:wo":"Namibi","name:xal":"\u041d\u0430\u043c\u0438\u0431\u043c\u0443\u0434\u0438\u043d \u041e\u0440\u043d","name:yi":"\u05e0\u05d0\u05de\u05d9\u05d1\u05d9\u05e2","name:yo":"N\u00e0m\u00edb\u00ed\u00e0","name:yue":"\u7d0d\u7c73\u6bd4\u4e9e","name:zea":"Namibi\u00eb","name:zh":"\u7eb3\u7c73\u6bd4\u4e9a \/ \u7d0d\u7c73\u6bd4\u4e9e","name:zh-Hans":"\u7eb3\u7c73\u6bd4\u4e9a","name:zh-Hant":"\u7d0d\u7c73\u6bd4\u4e9e","name:zu":"INamibhiya","official_name:ckb":"\u06a9\u06c6\u0645\u0627\u0631\u06cc \u0646\u0627\u0645\u06cc\u0628\u06cc\u0627","official_name:cs":"Namibijsk\u00e1 republika","official_name:en":"Namibia","official_name:gn":"Tavakuairet\u00e3 Nam\u00edvia","official_name:pt":"Rep\u00fablica da Nam\u00edbia","timezone":"Africa\/Windhoek","type":"boundary","wikidata":"Q1030","wikipedia":"en:Namibia"},"timestamp":1716078538,"representative_point":{"type":"Point","coordinates":[17.09395963513924,-22.9744879]}},"geometry":{"type":"Polygon","coordinates":[[[11.5421022,-17.25],[11.5973697,-18.0077231],[11.8380107,-18.5742744],[12.395994,-19.2082561],[13.235535,-20.98448],[14.2892535,-22.5964507],[14.1857684,-23.015953],[14.314248,-24.674296],[14.6369404,-25.0805814],[14.6113483,-25.7862466],[15.0788071,-27.3796438],[15.5475198,-28.1317819],[16.3335213,-28.8004182],[17.0782133,-28.0327227],[17.3816272,-28.2956768],[17.4180182,-28.7212864],[18.18844,-28.91615],[18.73003,-28.83164],[19.15506,-28.9619],[19.5654488,-28.5272281],[19.9991543,-28.4277245],[19.9990622,-24.7637515],[19.9990788,-21.9997676],[20.9986836,-22.000292],[20.9989495,-18.3175693],[23.2969994,-18.000761],[23.616002,-18.502329],[24.195809,-18.018342],[24.575423,-18.073872],[24.959569,-17.788318],[25.2617292,-17.7905169],[24.9800403,-17.5539961],[24.393817,-17.4700292],[23.4340474,-17.6373258],[20.8246601,-18.0393809],[20.3227498,-17.8620291],[18.9021683,-17.8195126],[18.4214551,-17.3896014],[13.9557454,-17.4329598],[13.4625113,-17.0110793],[13.1688389,-16.9635105],[12.5410652,-17.247668],[12.079972,-17.1418771],[11.5421022,-17.25]]]}}