{"type":"Feature","properties":{"tags":{"ISO3166-1":"NL","ISO3166-1:alpha2":"NL","ISO3166-1:alpha3":"NLD","ISO3166-1:numeric":"528","admin_level":"2","alt_name:cs":"Nizozem\u00ed","alt_name:pcd":"Bos-Pa\u00efs","alt_name:vls":"Olland;Nederlandn;Nederland'n","boundary":"administrative","default_language":"nl","flag":"http:\/\/upload.wikimedia.org\/wikipedia\/commons\/2\/20\/Flag_of_the_Netherlands.svg","int_name":"Nederland","name":"Nederland","name:ace":"Blanda","name:af":"Nederland","name:als":"Niederlande","name:am":"\u1206\u120b\u1295\u12f5","name:an":"Pa\u00edses Baixos","name:ang":"Ni\u00f0erland","name:ar":"\u0647\u0648\u0644\u0646\u062f\u0627","name:arc":"\u0717\u0718\u0720\u0722\u0715\u0710","name:arz":"\u0646\u064a\u062f\u064a\u0631\u0644\u0627\u0646\u062f","name:ast":"Pa\u00edses Baxos","name:ay":"Aynacha Jach'a Markanaka","name:az":"Niderland","name:azb":"\u0647\u0648\u0644\u0646\u062f","name:ba":"\u041d\u0438\u0434\u0435\u0440\u043b\u0430\u043d\u0434\u0442\u0430\u0440","name:bar":"Holland","name:bat-smg":"N\u012bderland\u0101","name:bcl":"Nederlands","name:be":"\u041d\u0456\u0434\u044d\u0440\u043b\u0430\u043d\u0434\u044b","name:be-tarask":"\u041d\u0456\u0434\u044d\u0440\u043b\u044f\u043d\u0434\u044b","name:bg":"\u041d\u0438\u0434\u0435\u0440\u043b\u0430\u043d\u0434\u0438\u044f","name:bh":"\u090f\u092e\u094d\u0938\u091f\u0930\u094d\u0921\u092e","name:bi":"Netherlands","name:bn":"\u09a8\u09c7\u09a6\u09be\u09b0\u09b2\u09cd\u09af\u09be\u09a8\u09cd\u09a1\u09b8","name:bo":"\u0f67\u0f7c\u0f0b\u0f63\u0f53\u0f0d","name:bpy":"\u09a8\u09c7\u09a6\u09be\u09b0\u09b2\u09cd\u09af\u09be\u09a8\u09cd\u09a1","name:br":"Izelvroio\u00f9","name:bs":"Nizozemska","name:bug":"Belanda","name:bxr":"\u041d\u0438\u0434\u0435\u0440\u043b\u0430\u043d\u0434","name:ca":"Pa\u00efsos Baixos","name:cdo":"H\u00f2\u0324-l\u00e0ng","name:ce":"\u041d\u0438\u0434\u0435\u0440\u043b\u0430\u043d\u0434\u0430\u0448","name:ceb":"Olanda","name:chr":"\u13c1\u13db\u13b3\u13c2","name:ckb":"\u06be\u06c6\u0644\u06d5\u0646\u062f","name:co":"Paesi Bassi","name:crh":"Felemenk","name:cs":"Nizozemsko","name:csb":"N\u00e9derlandzk\u00f4","name:cu":"\u041d\u0438\u0434\u0454\u0440\u043b\u0430\u043d\u0434\ua651","name:cv":"\u041d\u0438\u0434\u0435\u0440\u043b\u0430\u043d\u0434\u0441\u0435\u043c","name:cy":"Yr Iseldiroedd","name:da":"Holland","name:de":"Niederlande","name:diq":"Hollanda","name:dsb":"Ni\u017eozemska","name:dv":"\u0782\u07ac\u078b\u07a6\u078d\u07ad\u0782\u07b0\u0791\u07aa","name:dz":"\u0f53\u0f7a\u0f0b\u0f51\u0f62\u0f0b\u0f63\u0f7a\u0f53\u0f4c\u0f66\u0f72\u0f0b","name:ee":"Netherlands","name:el":"\u039a\u03ac\u03c4\u03c9 \u03a7\u03ce\u03c1\u03b5\u03c2","name:en":"Netherlands","name:eo":"Nederlando","name:es":"Pa\u00edses Bajos","name:et":"Holland","name:eu":"Herbehereak","name:ext":"Paisis Baxus","name:fa":"\u0647\u0644\u0646\u062f","name:ff":"Holannda","name:fi":"Alankomaat","name:fo":"Ni\u00f0urlond","name:fr":"Pays-Bas","name:frp":"Payis-B\u00e2s","name:frr":"Nederl\u00f6nje","name:fur":"Pa\u00ees Bas","name:fy":"Nederl\u00e2n","name:ga":"An \u00cdsilt\u00edr","name:gag":"Niderland","name:gan":"\u8377\u862d","name:gd":"Na T\u00ecrean \u00ccsle","name:gl":"Pa\u00edses Baixos","name:gn":"Tet\u00e3ngu\u00e9ra Yv\u00fdi","name:grc":"\u0392\u03b1\u03c4\u03b1\u03c5\u03af\u03b1","name:gu":"\u0aa8\u0ac7\u0aa7\u0ab0\u0ab2\u0ac7\u0a82\u0aa1","name:gv":"Yn \u00c7heer Injil","name:hak":"H\u00f2-l\u00e0n","name:haw":"H\u014dlani","name:he":"\u05d4\u05d5\u05dc\u05e0\u05d3","name:hi":"\u0928\u0940\u0926\u0930\u0932\u0948\u0923\u094d\u0921","name:hif":"The Netherlands","name:hr":"Nizozemska","name:hsb":"Ni\u017eozemska","name:ht":"Peyiba","name:hu":"Hollandia","name:hy":"\u0546\u056b\u0564\u0565\u0580\u056c\u0561\u0576\u0564\u0576\u0565\u0580","name:ia":"Pais Basse","name:id":"Belanda","name:ie":"Nederland","name:ilo":"Ol\u00e1nda","name:io":"Nederlando","name:is":"Holland","name:it":"Paesi Bassi","name:ja":"\u30aa\u30e9\u30f3\u30c0","name:jbo":"nederland","name:jv":"Walanda","name:ka":"\u10dc\u10d8\u10d3\u10d4\u10e0\u10da\u10d0\u10dc\u10d3\u10d8","name:kaa":"Niderlandiya","name:kbd":"\u041d\u0438\u0434\u0435\u0440\u043b\u044d\u043d\u0434\u0445\u044d\u0440","name:kg":"Pays-Bas","name:kk":"\u041d\u0438\u0434\u0435\u0440\u043b\u0430\u043d\u0434","name:kl":"Hollandi","name:kn":"\u0ca8\u0cc6\u0ca6\u0cb0\u0ccd\u200d\u0cb2\u0ccd\u0caf\u0cbe\u0c82\u0ca1\u0ccd\u0cb8\u0ccd","name:ko":"\ub124\ub35c\ub780\ub4dc","name:koi":"\u041d\u0435\u0434\u0435\u0440\u043b\u0430\u043d\u0434","name:krc":"\u041d\u0438\u0434\u0435\u0440\u043b\u0430\u043d\u0434\u043b\u0430","name:ksh":"Niederlande","name:ku":"Holenda","name:kv":"\u041d\u0438\u0434\u0435\u0440\u043b\u0430\u043d\u0434\u044a\u044f\u0441","name:kw":"Iseldiryow","name:ky":"\u041d\u0438\u0434\u0435\u0440\u043b\u0430\u043d\u0434\u0442\u0430\u0440","name:la":"Nederlandia","name:lad":"Payises Bashos","name:lb":"Holland","name:lez":"\u041d\u0438\u0434\u0435\u0440\u043b\u0430\u043d\u0434\u0430\u0440","name:li":"Nederland","name:lij":"Paixi Basci","name:lmo":"Paes Bass","name:ln":"Holanda","name:lt":"Nyderlandai","name:ltg":"N\u012bderlandeja","name:lv":"N\u012bderlande","name:lzh":"\u8377\u862d","name:map-bms":"Landa","name:mdf":"\u041d\u0435\u0434\u0435\u0440\u043b\u0430\u043d\u0442\u0442","name:mhr":"\u041d\u0438\u0434\u0435\u0440\u043b\u0430\u043d\u0434\u0435","name:mi":"H\u014drana","name:min":"Balando","name:mk":"\u0425\u043e\u043b\u0430\u043d\u0434\u0438\u0458\u0430","name:ml":"\u0d28\u0d46\u0d24\u0d7c\u0d32\u0d28\u0d4d\u0d31\u0d4d\u0d38\u0d4d","name:mn":"\u041d\u0438\u0434\u0435\u0440\u043b\u0430\u043d\u0434","name:mr":"\u0928\u0947\u0926\u0930\u0932\u0901\u0921\u094d\u0938","name:ms":"Belanda","name:mt":"Pajji\u017ci l-Baxxi","name:my":"\u1014\u101a\u103a\u101e\u102c\u101c\u1014\u103a\u1014\u102d\u102f\u1004\u103a\u1004\u1036","name:mzn":"\u0647\u0644\u0646\u062f","name:na":"Eben Eyong","name:nah":"Tlanitl\u0101lpan","name:nan":"H\u00f4-l\u00e2n-kok","name:nap":"Ulanna","name:nds":"Nedderlannen","name:nds-nl":"Nederlaand","name:ne":"\u0928\u0947\u0926\u0930\u0932\u094d\u092f\u093e\u0923\u094d\u0921\u094d\u0938","name:new":"\u0928\u0947\u0926\u0930\u0932\u094d\u092f\u093e\u0928\u094d\u0926\u094d\u0938\u094d","name:nl":"Nederland","name:nn":"Nederland","name:no":"Nederland","name:nov":"Nederlande","name:nrm":"Pays Bas","name:nv":"Tsin Bikee\u02bc Dine\u02bc\u00e9 Bik\u00e9yah","name:oc":"Pa\u00efses Basses","name:os":"\u041d\u0438\u0434\u0435\u0440\u043b\u0430\u043d\u0434\u0442\u00e6","name:pa":"\u0a28\u0a40\u0a26\u0a30\u0a32\u0a48\u0a02\u0a21","name:pam":"Paises Bahes","name:pap":"Hulanda","name:pcd":"Bas-Pa\u00efs","name:pdc":"Holland","name:pih":"Dem Nethiland","name:pl":"Holandia","name:pms":"Pais Bass","name:pnb":"\u0646\u06cc\u062f\u0631\u0644\u06cc\u0646\u0688\u0632","name:pnt":"\u039f\u03bb\u03bb\u03b1\u03bd\u03b4\u03af\u03b1","name:ps":"\u0647\u0627\u0644\u0646\u0689","name:pt":"Pa\u00edses Baixos","name:qu":"Urasuyu","name:rm":"Pajais Bass","name:rmy":"Olanda","name:ro":"\u021a\u0103rile de Jos","name:roa-tara":"Paj\u00e8sere Vasce","name:ru":"\u041d\u0438\u0434\u0435\u0440\u043b\u0430\u043d\u0434\u044b","name:rue":"\u041d\u0456\u0434\u0435\u0440\u043b\u0430\u043d\u0434\u044b","name:rw":"Ubuholandi","name:sa":"\u0928\u0947\u0926\u0930\u0932\u0948\u0902\u0921\u094d\u0938","name:sah":"\u041d\u0435\u0434\u0435\u0440\u043b\u0430\u043d\u0434","name:sc":"Logos Bascios","name:scn":"Paisi Vasci","name:sco":"Netherlands","name:se":"Vuolleeatnamat","name:sh":"Holandija","name:si":"\u0db1\u0dd9\u0daf\u0dbb\u0dca\u0dbd\u0db1\u0dca\u0dad\u0dba","name:simple":"Netherlands","name:sk":"Holandsko","name:sl":"Nizozemska","name:smn":"Vu\u00e1l\u00e1d\u00e2hen\u00e2meh","name:so":"Holland","name:sq":"Holanda","name:sr":"\u0425\u043e\u043b\u0430\u043d\u0434\u0438\u0458\u0430","name:srn":"Bakrakondre","name:ss":"IDashi","name:st":"H\u00f4lan\u00ea","name:stq":"Niederlounde","name:su":"Walanda","name:sv":"Nederl\u00e4nderna","name:sw":"Uholanzi","name:syc":"\u0717\u0718\u0720\u0722\u0715\u0710","name:szl":"Niderlandy","name:ta":"\u0ba8\u0bc6\u0ba4\u0bb0\u0bcd\u0bb2\u0bbe\u0ba8\u0bcd\u0ba4\u0bc1","name:te":"\u0c28\u0c46\u0c26\u0c30\u0c4d\u0c32\u0c3e\u0c02\u0c21\u0c4d","name:tet":"Olanda","name:tg":"\u041d\u0438\u0434\u0435\u0440\u043b\u0430\u043d\u0434","name:th":"\u0e1b\u0e23\u0e30\u0e40\u0e17\u0e28\u0e40\u0e19\u0e40\u0e18\u0e2d\u0e23\u0e4c\u0e41\u0e25\u0e19\u0e14\u0e4c","name:tk":"Niderlandlar","name:tl":"Olanda","name:to":"Holani","name:tok":"ma Netelan","name:tpi":"Ol Nitelan","name:tr":"Hollanda","name:tt":"\u041d\u0438\u0434\u0435\u0440\u043b\u0430\u043d\u0434\u043b\u0430\u0440","name:tzl":"P\u00e4ts-B\u00e4ts","name:udm":"\u041d\u0438\u0434\u0435\u0440\u043b\u0430\u043d\u0434","name:ug":"\u06af\u0648\u0644\u0644\u0627\u0646\u062f\u0649\u064a\u06d5","name:uk":"\u041d\u0456\u0434\u0435\u0440\u043b\u0430\u043d\u0434\u0438","name:ur":"\u06c1\u0627\u0644\u06cc\u0646\u0688","name:uz":"Niderlandlar","name:vec":"Pa\u00e9xi Basi","name:vep":"Alamad","name:vi":"H\u00e0 Lan","name:vls":"Holland","name:vo":"Ned\u00e4n","name:vro":"Holland","name:wa":"Bas Payis","name:war":"Nederlandes","name:wo":"Olaand","name:wuu":"\u5c3c\u5fb7\u5170","name:xal":"\u041d\u0435\u0434\u0435\u0440\u043b\u0435\u043d\u0434\u0438\u043d \u041d\u0443\u0442\u0433","name:xh":"ENetherlands","name:xmf":"\u10dc\u10d8\u10d3\u10d4\u10e0\u10da\u10d0\u10dc\u10d3\u10d8","name:yi":"\u05d4\u05d0\u05dc\u05d0\u05e0\u05d3","name:yo":"N\u1eb9\u0301d\u00e1l\u00e1nd\u00ec","name:yue":"\u8377\u862d","name:zea":"Nederland","name:zh":"\u8377\u5170 \/ \u8377\u862d","name:zh-Hans":"\u8377\u5170","name:zh-Hant":"\u8377\u862d","name:zu":"Netherlands","nat_name":"Koninkrijk","note":"This is the whole kingdom (Kingdom of the Netherlands). See subarea for the member state called the Netherlands","note:de":"Das ist das ganze K\u00f6nigreich. Siehe Subarea f\u00fcr den Mitgliedstaat der Niederlande","note:fr":"C'est tout le royaume. Voir la sous-zone pour l'\u00c9tat membre des Pays-Bas","note:name":"\"Nederland\" is formeel slechts de naam van \u00e9\u00e9n van de landen binnen het Koninkrijk, maar wordt ook als niet-offici\u00eble naam voor het Koninkrijk gebruikt.","official_name":"Koninkrijk der Nederlanden","official_name:-1815":"Staat der Ver\u00ebenigde Nederlanden","official_name:1815--1922-12-13":"Koningrijk der Nederlanden","official_name:ca":"Regne dels Pa\u00efsos Baixos","official_name:cs":"Nizozemsk\u00e9 kr\u00e1lovstv\u00ed","official_name:de":"K\u00f6nigreich der Niederlande","official_name:el":"\u0392\u03b1\u03c3\u03af\u03bb\u03b5\u03b9\u03bf \u03c4\u03c9\u03bd \u039a\u03ac\u03c4\u03c9 \u03a7\u03c9\u03c1\u03ce\u03bd","official_name:en":"Kingdom of the Netherlands","official_name:eo":"Re\u011dlando Nederlando","official_name:es":"Reino de Los Paises Bajos","official_name:fi":"Alankomaiden kuningaskunta","official_name:fr":"Royaume des Pays-Bas","official_name:grc":"\u0392\u03b1\u03c3\u03b9\u03bb\u03b5\u03af\u03b1 \u0392\u03b1\u03c4\u03b1\u03c5\u03af\u03b1\u03c2","official_name:it":"Regno dei Paesi Bassi","official_name:nds":"K\u00f6nigriek vun de Nedderlannen","official_name:nl":"Koninkrijk der Nederlanden","official_name:pcd":"Ro\u00e9y\u00f4me ch\u00e9s Bas-Pa\u00ffs","official_name:pl":"Kr\u00f3lestwo Niderland\u00f3w","official_name:pt":"Reino dos Pa\u00edses Baixos","official_name:vls":"Keunienkryk van de Nederlandn","old_name:-1815":"Ver\u00ebenigde Nederlanden","old_name:bs":"Holandija","old_name:cs":"Holandsko","operator":"Koninkrijk der Nederlanden","operator:de":"K\u00f6nigreich der Niederlande","operator:fr":"Royaume des Pays-Bas","operator:grc":"\u0392\u03b1\u03c3\u03b9\u03bb\u03b5\u03af\u03b1 \u0392\u03b1\u03c4\u03b1\u03c5\u03af\u03b1\u03c2","operator:nl":"Koninkrijk der Nederlanden","related_law":"Statuut voor het Koninkrijk der Nederlanden","related_law:url":"https:\/\/wetten.overheid.nl\/BWBR0002154\/2017-11-17","source:int_name":"https:\/\/www.un.org\/en\/about-us\/member-states#gotoN","source:nat_name":"https:\/\/www.kcbr.nl\/beleid-en-regelgeving-ontwikkelen\/aanwijzingen-voor-de-regelgeving\/hoofdstuk-3-aspecten-van-vormgeving\/ss-31-algemene-terminologische-punten\/aanwijzing-320-aanduidingen-nederland-en-koninkrijk","source:note:name":"https:\/\/gtb.ivdnt.org\/iWDB\/search?actie=article&wdb=WNT&id=M040963&lemmodern=nederland&domein=0&conc=true","source:official_name:-1815":"https:\/\/www.delpher.nl\/nl\/tijdschriften\/view?coll=dts&identifier=MMKB10:001025002:00143","source:official_name:1815--1922-12-13":"https:\/\/www.denederlandsegrondwet.nl\/id\/vi6jejb09rsb\/artikel_1_provincien","source:old_name:-1815":"https:\/\/www.delpher.nl\/nl\/tijdschriften\/view?coll=dts&identifier=MMKB10:001025002:00143","source:start_date":"https:\/\/nl.wikipedia.org\/wiki\/Driemanschap_van_1813","start_date":"1813","type":"boundary","wikidata":"Q29999","wikipedia":"nl:Koninkrijk der Nederlanden"},"timestamp":1716078538,"representative_point":{"type":"Point","coordinates":[5.541234693636445,52.2473945]}},"geometry":{"type":"MultiPolygon","coordinates":[[[[6.3459138,53.7245358],[5.054639,53.577042],[4.590008,53.358917],[4.341503,53.038331],[4.156322,52.360764],[3.080161,51.550781],[3.4274789,51.2446569],[3.8863496,51.2001621],[4.4759606,51.4781446],[5.038788,51.4870006],[5.2379112,51.2613525],[5.8326946,51.1624299],[5.6391699,50.8463137],[6.0210074,50.7542873],[6.094149,50.9207022],[5.8663153,51.0511035],[6.1754219,51.158464],[6.0679863,51.2205478],[6.2235568,51.4749649],[5.9450447,51.823544],[6.7324516,51.8987],[6.8303518,51.9861923],[6.6946628,52.0698004],[7.0612836,52.2347111],[6.9918506,52.4673381],[6.6808799,52.5533174],[7.0557287,52.6434198],[7.1917111,53.3150548],[6.5513293,53.5825533],[6.3459138,53.7245358]]],[[[4.8696613,51.412006],[4.8723808,51.4115009],[4.8730936,51.4125385],[4.870578,51.4127409],[4.8696613,51.412006]]],[[[-63.2677941,17.8963535],[-63.4584625,17.558],[-63.0491098,17.2767349],[-62.7847057,17.6170552],[-62.8472259,17.6739756],[-62.9892567,17.726833],[-63.0494796,17.764531],[-63.0654838,17.7827601],[-63.054445,17.806209],[-63.01278,18.05222],[-63.0187711,18.0564816],[-63.2677941,17.8963535]]],[[[-69.3660021,12.403],[-69.2186381,12.05],[-68.6881982,11.782],[-68.4413348,11.9330636],[-68.1561777,11.844],[-67.9959734,12.084],[-68.0380506,12.347],[-68.3415358,12.507],[-68.5589958,12.432],[-68.6210805,12.2169599],[-69.0999276,12.586],[-69.3660021,12.403]]],[[[-69.7355637,12.2578295],[-69.6992052,12.562],[-70.0080472,12.818],[-70.254464,12.68],[-70.1629258,12.3488522],[-69.7355637,12.2578295]]]]}}