{"type":"Feature","properties":{"tags":{"ISO3166-1":"NP","ISO3166-1:alpha2":"NP","ISO3166-1:alpha3":"NPL","ISO3166-1:numeric":"524","admin_level":"2","boundary":"administrative","default_language":"ne","driving_side":"left","flag":"http:\/\/upload.wikimedia.org\/wikipedia\/commons\/9\/9b\/Flag_of_Nepal.svg","name":"\u0928\u0947\u092a\u093e\u0932","name:ace":"Nepal","name:af":"Nepal","name:als":"Nepal","name:am":"\u1294\u1353\u120d","name:an":"Nepal","name:ar":"\u0646\u064a\u0628\u0627\u0644","name:arz":"\u0646\u064a\u0628\u0627\u0644","name:as":"\u09a8\u09c7\u09aa\u09be\u09b2","name:ast":"Nepal","name:az":"Nepal","name:ba":"\u041d\u0435\u043f\u0430\u043b","name:bar":"Nepal","name:bat-smg":"Nepals","name:bcl":"Nepal","name:be":"\u041d\u0435\u043f\u0430\u043b","name:be-tarask":"\u041d\u044d\u043f\u0430\u043b","name:bg":"\u041d\u0435\u043f\u0430\u043b","name:bh":"\u0928\u0947\u092a\u093e\u0932","name:bjn":"Nepal","name:bn":"\u09a8\u09c7\u09aa\u09be\u09b2","name:bo":"\u0f56\u0f63\u0f0b\u0f61\u0f74\u0f63\u0f0d","name:bpy":"\u09a8\u09c7\u09aa\u09be\u09b2","name:br":"Nepal","name:bs":"Nepal","name:bxr":"\u0411\u0430\u043b\u0431\u0430","name:ca":"Nepal","name:ce":"\u041d\u0435\u043f\u0430\u043b","name:ceb":"Nepal","name:ckb":"\u0646\u06cc\u067e\u0627\u0644","name:crh":"Nepal","name:cs":"Nep\u00e1l","name:csb":"Nepal","name:cv":"\u041d\u0435\u043f\u0430\u043b","name:cy":"Nepal","name:da":"Nepal","name:de":"Nepal","name:din":"N\u00efpal","name:diq":"Nepal","name:dv":"\u0782\u07ad\u0795\u07a7\u078d\u07b0","name:dz":"\u0f56\u0f63\u0f0b\u0f61\u0f74\u0f63\u0f0b","name:el":"\u039d\u03b5\u03c0\u03ac\u03bb","name:en":"Nepal","name:eo":"Nepalo","name:es":"Nepal","name:et":"Nepal","name:eu":"Nepal","name:ext":"Nepal","name:fa":"\u0646\u067e\u0627\u0644","name:fi":"Nepal","name:fo":"Nepal","name:fr":"N\u00e9pal","name:frp":"N\u00e8pal","name:fy":"Nepal","name:ga":"Neipeal","name:gag":"Nepal","name:gd":"Neap\u00e0l","name:gl":"Nepal","name:gn":"Nepal","name:gu":"\u0aa8\u0ac7\u0aaa\u0abe\u0ab3","name:gv":"Nepaal","name:hak":"N\u00ec-pok","name:haw":"Nepala","name:he":"\u05e0\u05e4\u05d0\u05dc","name:hi":"\u0928\u0947\u092a\u093e\u0932","name:hif":"Nepal","name:hr":"Nepal","name:hsb":"Nepal","name:ht":"Nepal","name:hu":"Nep\u00e1l","name:hy":"\u0546\u0565\u057a\u0561\u056c","name:ia":"Nepal","name:id":"Nepal","name:ie":"Nepal","name:ilo":"Nepal","name:io":"Nepal","name:is":"Nepal","name:it":"Nepal","name:ja":"\u30cd\u30d1\u30fc\u30eb","name:jbo":"nepal","name:jv":"Nepal","name:ka":"\u10dc\u10d4\u10de\u10d0\u10da\u10d8","name:kk":"\u041d\u0435\u043f\u0430\u043b","name:kl":"Nepal","name:km":"\u1793\u17c1\u1794\u17c9\u17b6\u179b\u17cb","name:kn":"\u0ca8\u0cc7\u0caa\u0cbe\u0cb3","name:ko":"\ub124\ud314","name:krc":"\u041d\u0435\u043f\u0430\u043b","name:ku":"Nepal","name:kv":"\u041d\u0435\u043f\u0430\u043b","name:kw":"Nepal","name:ky":"\u041d\u0435\u043f\u0430\u043b","name:la":"Nepalia","name:lb":"Nepal","name:lez":"\u041d\u0435\u043f\u0430\u043b","name:lg":"Nepal","name:li":"Nepal","name:lij":"Nepal","name:lmo":"Nepal","name:ln":"Nep\u00e1li","name:lt":"Nepalas","name:lv":"Nep\u0101la","name:mg":"Nepal","name:mi":"Nep\u014dra","name:mk":"\u041d\u0435\u043f\u0430\u043b","name:ml":"\u0d28\u0d47\u0d2a\u0d4d\u0d2a\u0d3e\u0d7e","name:mn":"\u0411\u0430\u043b\u0431\u0430","name:mr":"\u0928\u0947\u092a\u093e\u0933","name:ms":"Nepal","name:my":"\u1014\u102e\u1015\u1031\u102b\u1014\u102d\u102f\u1004\u103a\u1004\u1036","name:mzn":"\u0646\u067e\u0627\u0644","name:na":"Nepar","name:nah":"Nepal","name:nan":"Nepal","name:nds":"Nepal","name:ne":"\u0928\u0947\u092a\u093e\u0932","name:new":"\u0928\u0947\u092a\u093e\u0903","name:nl":"Nepal","name:nn":"Nepal","name:no":"Nepal","name:nov":"Nepal","name:nv":"Dzi\u0142gaiitsoh Honeezk\u02bcazii Bik\u00e9yah","name:oc":"Nepal","name:or":"\u0b28\u0b47\u0b2a\u0b3e\u0b33","name:os":"\u041d\u0435\u043f\u0430\u043b","name:pa":"\u0a28\u0a47\u0a2a\u0a3e\u0a32","name:pam":"Nepal","name:pap":"Nepal","name:pi":"\u0928\u0947\u092a\u093e\u0932","name:pih":"Nepal","name:pl":"Nepal","name:pms":"Nepal","name:pnb":"\u0646\u06cc\u067e\u0627\u0644","name:ps":"\u0646\u064a\u067e\u0627\u0644","name:pt":"Nepal","name:qu":"Nipal","name:ro":"Nepal","name:ru":"\u041d\u0435\u043f\u0430\u043b","name:rw":"Nepali","name:sa":"\u0928\u0947\u092a\u093e\u0932\u0926\u0947\u0936\u0903","name:sah":"\u041d\u0435\u043f\u0430\u043b","name:scn":"Nepal","name:sco":"Nepal","name:sd":"\u0646\u064a\u067e\u0627\u0644","name:se":"Nepal","name:sh":"Nepal","name:si":"\u0db1\u0dda\u0db4\u0dcf\u0dbd\u0dba","name:sk":"Nep\u00e1l","name:sl":"Nepal","name:smn":"Nepal","name:sms":"Nepal","name:so":"Nebal","name:sq":"Nepali","name:sr":"\u041d\u0435\u043f\u0430\u043b","name:ss":"INephali","name:su":"Nepal","name:sv":"Nepal","name:sw":"Nepal","name:szl":"Nepal","name:ta":"\u0ba8\u0bc7\u0baa\u0bbe\u0bb3\u0bae\u0bcd","name:te":"\u0c28\u0c47\u0c2a\u0c3e\u0c32\u0c4d","name:tg":"\u041d\u0435\u043f\u0430\u043b","name:th":"\u0e1b\u0e23\u0e30\u0e40\u0e17\u0e28\u0e40\u0e19\u0e1b\u0e32\u0e25","name:tk":"Nepal","name:tl":"Nepal","name:tr":"Nepal","name:tt":"\u041d\u0435\u043f\u0430\u043b","name:tw":"Nepal","name:tzl":"Nepal","name:udm":"\u041d\u0435\u043f\u0430\u043b","name:ug":"\u0646\u06d0\u067e\u0627\u0644","name:uk":"\u041d\u0435\u043f\u0430\u043b","name:ur":"\u0646\u06cc\u067e\u0627\u0644","name:uz":"Nepal","name:vec":"N\u00e8pal","name:vi":"Nepal","name:vo":"Nepal\u00e4n","name:vro":"Nepal","name:war":"Nepal","name:wo":"Nepaal","name:wuu":"\u5c3c\u6cca\u5c14","name:xal":"\u0411\u0430\u043b\u0432\u0443\u0434\u0438\u043d \u0423\u043b\u0441\u0438\u043d \u041d\u0438\u0438\u0446\u04d9\u0442\u04d9 \u041e\u0440\u043d","name:yi":"\u05e0\u05e2\u05e4\u05d0\u05dc","name:yo":"Nepal","name:yue":"\u5c3c\u6cca\u723e","name:zea":"Nepal","name:zh":"\u5c3c\u6cca\u5c14","name:zh-Hans":"\u5c3c\u6cca\u5c14","name:zh-Hant":"\u5c3c\u6cca\u723e","official_name:ar":"\u062c\u0645\u0647\u0648\u0631\u064a\u0629 \u0646\u064a\u0628\u0627\u0644 \u0627\u0644\u062f\u064a\u0645\u0642\u0631\u0627\u0637\u064a\u0629 \u0627\u0644\u0627\u062a\u062d\u0627\u062f\u064a\u0629","official_name:ckb":"\u06a9\u06c6\u0645\u0627\u0631\u06cc \u062f\u06cc\u0645\u0648\u06a9\u0631\u0627\u062a\u06cc\u06cc \u0641\u06cc\u062f\u0631\u0627\u06b5\u06cc\u06cc \u0646\u06cc\u067e\u0627\u0644","official_name:cs":"Nep\u00e1lsk\u00e1 federativn\u00ed demokratick\u00e1 republika","official_name:de":"Demokratische Bundesrepublik Nepal","official_name:en":"Federal Democratic Republic of Nepal","official_name:eo":"Federacia Demokratia Respubliko Nepalo","official_name:es":"Rep\u00fablica Federal Democr\u00e1tica de Nepal","official_name:fa":"\u062c\u0645\u0647\u0648\u0631\u06cc \u0641\u062f\u0631\u0627\u0644 \u062f\u0645\u0648\u06a9\u0631\u0627\u062a\u06cc\u06a9 \u0646\u067e\u0627\u0644","official_name:fr":"R\u00e9publique d\u00e9mocratique f\u00e9d\u00e9rale du N\u00e9pal","official_name:gn":"Nepal Tavakuairet\u00e3 \u00d1embyatypyre Jekopytyjoj\u00e1va","official_name:pl":"Federalna Demokratyczna Republika Nepalu","official_name:pt":"Rep\u00fablica Democr\u00e1tica Federal do Nepal","official_name:ru":"\u0424\u0435\u0434\u0435\u0440\u0430\u0442\u0438\u0432\u043d\u0430\u044f \u0414\u0435\u043c\u043e\u043a\u0440\u0430\u0442\u0438\u0447\u0435\u0441\u043a\u0430\u044f \u0420\u0435\u0441\u043f\u0443\u0431\u043b\u0438\u043a\u0430 \u041d\u0435\u043f\u0430\u043b","official_name:ur":"\u0648\u0641\u0627\u0642\u06cc \u062c\u0645\u06c1\u0648\u0631\u06cc \u062c\u0645\u06c1\u0648\u0631\u06cc\u06c1 \u0646\u06cc\u067e\u0627\u0644","timezone":"Asia\/Kathmandu","type":"boundary","wikidata":"Q837","wikipedia":"en:Nepal"},"timestamp":1716078538,"representative_point":{"type":"Point","coordinates":[83.08218970743798,28.4094968]}},"geometry":{"type":"Polygon","coordinates":[[[80.544275,30.44862],[80.8782972,30.1306746],[80.3655554,29.7478027],[80.2977293,29.2052583],[80.0648132,28.8375628],[81.2105973,28.3605649],[81.3179327,28.1335715],[81.8849591,27.8569699],[82.708454,27.7226064],[82.7355705,27.502349],[83.3171907,27.3301647],[83.3889139,27.4797631],[83.8557792,27.3518667],[84.1455518,27.5187032],[84.6221253,27.3364549],[84.6432983,27.0461682],[85.2120062,26.7581802],[85.6238726,26.873879],[85.8503648,26.5684013],[86.3330643,26.6191208],[86.730881,26.4224377],[87.0711578,26.5860156],[87.3409384,26.3477581],[87.8881188,26.4869511],[88.0072089,26.3610329],[88.189666,26.7495485],[87.9872898,27.1195069],[88.1349737,27.8815971],[87.1718573,27.8213338],[86.5761709,28.1134268],[86.4113438,27.9068403],[86.186388,28.173806],[86.000154,27.911588],[85.711978,28.385833],[85.608295,28.256302],[85.1195935,28.3363515],[85.187019,28.642005],[84.8568077,28.570342],[84.485721,28.736595],[84.2262376,28.89306],[84.094248,29.292947],[83.578888,29.178893],[83.277872,29.569912],[82.171975,30.065456],[82.08167,30.362086],[81.4083604,30.4210393],[81.218554,30.00737],[80.544275,30.44862]]]}}