{"type":"Feature","properties":{"tags":{"ISO3166-1":"PG","ISO3166-1:alpha2":"PG","ISO3166-1:alpha3":"PNG","ISO3166-1:numeric":"598","admin_level":"2","alt_name:vi":"Papua T\u00e2n Guinea;Pa-pua Niu Ghi-n\u00ea","border_type":"nation","boundary":"administrative","driving_side":"left","flag":"http:\/\/upload.wikimedia.org\/wikipedia\/commons\/e\/e3\/Flag_of_Papua_New_Guinea.svg","int_name":"Papua New Guinea","name":"Papua Niugini","name:ace":"Papua New Guinea","name:af":"Papoea-Nieu-Guinee","name:als":"Papua-Neuguinea","name:am":"\u1353\u1351\u12cb \u1292\u12cd \u130a\u1292","name:an":"Papua y Nueva Guinea","name:ar":"\u0628\u0627\u0628\u0648\u0627 \u063a\u064a\u0646\u064a\u0627 \u0627\u0644\u062c\u062f\u064a\u062f\u0629","name:arz":"\u0628\u0627\u0628\u0648\u0627 \u0646\u064a\u0648 \u062c\u064a\u0646\u064a\u0627","name:ast":"Pap\u00faa Nueva Guinea","name:az":"Papua-Yeni Qvineya","name:ba":"\u041f\u0430\u043f\u0443\u0430 \u2014 \u042f\u04a3\u044b \u0413\u0432\u0438\u043d\u0435\u044f","name:bar":"Papua-Neuguinea","name:bat-smg":"Papua Naujuoj\u0117 Gv\u0117niej\u0117","name:bcl":"Papua Bagong Guineya","name:be":"\u041f\u0430\u043f\u0443\u0430 \u2014 \u041d\u043e\u0432\u0430\u044f \u0413\u0432\u0456\u043d\u0435\u044f","name:be-tarask":"\u041f\u0430\u043f\u0443\u0430-\u041d\u043e\u0432\u0430\u044f \u0413\u0432\u0456\u043d\u044d\u044f","name:bg":"\u041f\u0430\u043f\u0443\u0430 \u041d\u043e\u0432\u0430 \u0413\u0432\u0438\u043d\u0435\u044f","name:bi":"Papua New Guinea","name:bn":"\u09aa\u09be\u09aa\u09c1\u09af\u09bc\u09be \u09a8\u09bf\u0989 \u0997\u09bf\u09a8\u09bf","name:bo":"\u0f54\u0f0b\u0f54\u0f74\u0f0b\u0f60\u0f0b\u0f53\u0f72\u0f60\u0f74\u0f0b\u0f42\u0f72\u0f0b\u0f53\u0f7a\u0f0d","name:bpy":"\u09aa\u09be\u09aa\u09c1\u09af\u09bc\u09be \u09a8\u09bf\u0989\u0997\u09bf\u09a8\u09bf","name:br":"Papoua Ginea-Nevez","name:bs":"Papua Nova Gvineja","name:bxr":"\u041f\u0430\u043f\u0443\u0430-\u0428\u044d\u043d\u044d \u0413\u0432\u0438\u043d\u0435\u044f","name:ca":"Papua Nova Guinea","name:ce":"\u041f\u0430\u043f\u0443\u0430 \u2014 \u041a\u0435\u0440\u043b\u0430 \u0413\u0432\u0438\u043d\u0435","name:ceb":"Papua New Guinea","name:ckb":"\u067e\u0627\u067e\u0648\u0627 \u06af\u06cc\u0646\u06ce\u06cc \u0646\u0648\u06ce","name:crh":"Papua Ya\u00f1\u0131 Gvineya","name:cs":"Papua Nov\u00e1 Guinea","name:cu":"\u041f\u0430\u043f\u043e\u0443\u0430 \u00b7 \u041d\u043e\u0432\u0430 \u0413\u0432\u0438\u043d\u0454\ua657","name:cy":"Papua Guinea Newydd","name:da":"Papua Ny Guinea","name:de":"Papua-Neuguinea","name:diq":"Papua Gineya Newiye","name:dsb":"Papua-Neuguinea","name:dv":"\u0795\u07a6\u0795\u07aa\u0787\u07a7 \u0782\u07a8\u0787\u07aa \u078e\u07a8\u0782\u07a9","name:el":"\u03a0\u03b1\u03c0\u03bf\u03cd\u03b1 \u039d\u03ad\u03b1 \u0393\u03bf\u03c5\u03b9\u03bd\u03ad\u03b1","name:en":"Papua New Guinea","name:eo":"Papuo-Nov-Gvineo","name:es":"Papua-Nueva Guinea","name:et":"Paapua Uus-Guinea","name:eu":"Papua Ginea Berria","name:ext":"Papua Nueva Guinea","name:fa":"\u067e\u0627\u067e\u0648\u0622 \u06af\u06cc\u0646\u0647 \u0646\u0648","name:fi":"Papua-Uusi-Guinea","name:fo":"Papua N\u00fdguinea","name:fr":"Papouasie-Nouvelle-Guin\u00e9e","name:frp":"Papoasie-Nov\u00e8la-Guin\u00ea","name:fy":"Papoea Nij-Guine\u00e4","name:ga":"Nua-Ghuine Phapua","name:gd":"Gini Nuadh Phaputhach","name:gl":"Pap\u00faa Nova Guinea","name:gn":"Pap\u00faa Gin\u00e9a Pyahu","name:gv":"Papooey Guinea Noa","name:hak":"P\u00e2-pu-\u00e2 N\u00e9u-k\u00ed-nui-\u00e2","name:he":"\u05e4\u05e4\u05d5\u05d0\u05d4 \u05d2\u05d9\u05e0\u05d0\u05d4 \u05d4\u05d7\u05d3\u05e9\u05d4","name:hi":"\u092a\u093e\u092a\u0941\u0906 \u0928\u094d\u092f\u0942 \u0917\u093f\u0928\u0940","name:hif":"Papua New Guinea","name:hr":"Papua Nova Gvineja","name:hsb":"Papuwa-Nowa Gineja","name:ht":"Papwazi-Nouv\u00e8l-Gine","name:hu":"P\u00e1pua \u00daj-Guinea","name:hy":"\u054a\u0561\u057a\u0578\u0582\u0561 \u0546\u0578\u0580 \u0533\u057e\u056b\u0576\u0565\u0561","name:ia":"Papua Nove Guinea","name:id":"Papua Nugini","name:ilo":"Papua Baro a Guinea","name:io":"Papua-Nova-Guinea","name:is":"Pap\u00faa N\u00fdja-G\u00ednea","name:it":"Papua Nuova Guinea","name:ja":"\u30d1\u30d7\u30a2\u30cb\u30e5\u30fc\u30ae\u30cb\u30a2","name:jv":"Papua Nugini","name:ka":"\u10de\u10d0\u10de\u10e3\u10d0-\u10d0\u10ee\u10d0\u10da\u10d8 \u10d2\u10d5\u10d8\u10dc\u10d4\u10d0","name:kk":"\u041f\u0430\u043f\u0443\u0430 \u0416\u0430\u04a3\u0430 \u0413\u0432\u0438\u043d\u0435\u044f","name:kn":"\u0caa\u0cbe\u0caa\u0cc1\u0c85 \u0ca8\u0ccd\u0caf\u0cc2 \u0c97\u0cbf\u0ca8\u0cbf","name:ko":"\ud30c\ud478\uc544 \ub274\uae30\ub2c8","name:ku":"Papua G\u00eeneya N\u00fb","name:ky":"\u041f\u0430\u043f\u0443\u0430-\u0416\u0430\u04ca\u044b-\u0413\u0432\u0438\u043d\u0435\u044f.","name:la":"Papua Nova Guinea","name:lb":"Papua-Neiguinea","name:li":"Papoea-Nui-Guinea","name:lij":"Papua Neuva Guinea","name:lmo":"Papua N\u00f6va Guinea","name:lt":"Papua Naujoji Gvin\u0117ja","name:lv":"Papua-Jaungvineja","name:mi":"Papua N\u016bkini","name:mk":"\u041f\u0430\u043f\u0443\u0430 \u041d\u043e\u0432\u0430 \u0413\u0432\u0438\u043d\u0435\u0458\u0430","name:ml":"\u0d2a\u0d3e\u0d2a\u0d41\u0d35 \u0d28\u0d4d\u0d2f\u0d42 \u0d17\u0d3f\u0d28\u0d3f\u0d2f","name:mr":"\u092a\u093e\u092a\u0941\u0906 \u0928\u094d\u092f\u0942 \u0917\u093f\u0928\u0940","name:mrj":"\u041f\u0430\u043f\u0443\u0430 \u2014 \u0423 \u0413\u0432\u0438\u043d\u0435\u0439","name:ms":"Papua New Guinea","name:mt":"Papwa Gwinea l-\u0120dida","name:my":"\u1015\u102b\u1015\u1030\u1021\u102c\u1014\u101a\u1030\u1038\u1002\u102e\u1014\u102e\u1014\u102d\u102f\u1004\u103a\u1004\u1036","name:na":"Papua New Guinea","name:nah":"Papua Yancu\u012bc Guinea","name:nan":"Papua Sin Guinea","name:nds":"Papua-Niegguinea","name:nl":"Papoea-Nieuw-Guinea","name:nn":"Papua Ny-Guinea","name:no":"Papua Ny-Guinea","name:nv":"P\u00e1\u00e1powa Big\u00edn\u00ed \u00c1niid\u00ed","name:oc":"Papoa-N\u00f2va Guin\u00e8a","name:os":"\u041f\u0430\u043f\u0443\u00e6 \u2014 \u041d\u043e\u0433 \u0413\u0432\u0438\u043d\u0435\u0439","name:pa":"\u0a2a\u0a3e\u0a2a\u0a42\u0a06 \u0a28\u0a3f\u0a0a \u0a17\u0a3f\u0a28\u0a40","name:pam":"Papua New Guinea","name:pih":"Papua Nyuu Gini","name:pl":"Papua-Nowa Gwinea","name:pms":"Papua Neuva Guinea","name:pnb":"\u067e\u0627\u067e\u0648\u0627\u0646\u06cc\u0648\u06af\u0646\u06cc","name:pt":"Papua-Nova Guin\u00e9","name:qu":"Papwa \u00d1ukini","name:ro":"Papua Noua Guinee","name:ru":"\u041f\u0430\u043f\u0443\u0430 \u2014 \u041d\u043e\u0432\u0430\u044f \u0413\u0432\u0438\u043d\u0435\u044f","name:rw":"Papuwa Nuveli Gineya","name:sa":"\u092a\u092a\u0941\u0935\u093e \u0928\u094d\u092f\u0942 \u0917\u093f\u0928\u0940","name:sah":"\u041f\u0430\u043f\u0443\u0430 \u0421\u0430\u04a5\u0430 \u0413\u0443\u0438\u043d\u0435\u044f","name:sco":"Papua New Guinea","name:se":"Papua-O\u0111\u0111a-Guinea","name:sg":"Pap\u00fb Fin\u00ee Gin\u00ebe","name:sh":"Papua Nova Gvineja","name:simple":"Papua New Guinea","name:sk":"Papua-Nov\u00e1 Guinea","name:sl":"Papua Nova Gvineja","name:sm":"Papua","name:smn":"Papua-U\u0111\u0111\u00e2-Guinea","name:sms":"Papua-O\u0111\u0111-Guinea","name:sq":"Papua Guinea e Re","name:sr":"\u041f\u0430\u043f\u0443\u0430 \u041d\u043e\u0432\u0430 \u0413\u0432\u0438\u043d\u0435\u0458\u0430","name:su":"Papua Nugini","name:sv":"Papua Nya Guinea","name:sw":"Papua Guinea Mpya","name:szl":"Papua-Now\u014f Gwinyj\u014f","name:ta":"\u0baa\u0baa\u0bcd\u0baa\u0bc1\u0bb5\u0bbe \u0ba8\u0bbf\u0baf\u0bc2 \u0b95\u0bbf\u0ba9\u0bbf","name:th":"\u0e1b\u0e23\u0e30\u0e40\u0e17\u0e28\u0e1b\u0e32\u0e1b\u0e31\u0e27\u0e19\u0e34\u0e27\u0e01\u0e34\u0e19\u0e35","name:tl":"Papua Bagong Ginea","name:tpi":"Papua Niugini","name:tr":"Papua Yeni Gine","name:tt":"\u041f\u0430\u043f\u0443\u0430 \u2014 \u042f\u04a3\u0430 \u0413\u0432\u0438\u043d\u0435\u044f","name:ug":"\u067e\u0627\u067e\u06c7\u0626\u0627 \u064a\u06d0\u06ad\u0649 \u06af\u06cb\u0649\u0646\u06d0\u064a\u06d5","name:uk":"\u041f\u0430\u043f\u0443\u0430 \u041d\u043e\u0432\u0430 \u0490\u0432\u0456\u043d\u0435\u044f","name:ur":"\u067e\u0627\u067e\u0648\u0627 \u0646\u06cc\u0648 \u06af\u0646\u06cc","name:uz":"Papua Yangi Gvineya","name:vec":"Papua Nova Guinea","name:vi":"Papua New Guinea","name:vo":"Papuve\u00e4n Nula-Giney\u00e4n","name:vro":"Paapua Vahts\u00f5n\u00f5 Ginea","name:war":"Pap\u00faa Nueva Guinea","name:wo":"Papuwaasi-Gine-Gu-Bees","name:xal":"\u041f\u0430\u043f\u0443\u04bb\u0430\u0441\u0438\u043d \u0431\u043e\u043b\u043d \u0428\u0438\u043d \u0413\u0432\u0438\u043d\u0435\u043c\u0443\u0434\u0438\u043d \u041e\u0440\u043d","name:yo":"Papua Guinea Titun","name:yue":"\u5df4\u5e03\u4e9e\u65b0\u757f\u5167\u4e9e","name:zh":"\u5df4\u5e03\u4e9a\u65b0\u51e0\u5185\u4e9a \/ \u5df4\u5e03\u4e9e\u7d10\u5e7e\u5167\u4e9e \/ \u5df4\u5e03\u4e9e\u65b0\u757f\u5167\u4e9e","name:zh-Hans":"\u5df4\u5e03\u4e9a\u65b0\u51e0\u5185\u4e9a","name:zh-Hant":"\u5df4\u5e03\u4e9e\u7d10\u5e7e\u5167\u4e9e \/ \u5df4\u5e03\u4e9e\u65b0\u757f\u5167\u4e9e","name:zh-Hant-CN":"\u5df4\u5e03\u4e9e\u65b0\u5e7e\u5167\u4e9e","name:zh-Hant-HK":"\u5df4\u5e03\u4e9e\u65b0\u757f\u5167\u4e9e","name:zh-Hant-TW":"\u5df4\u5e03\u4e9e\u7d10\u5e7e\u5167\u4e9e","official_name:cs":"Nez\u00e1visl\u00fd st\u00e1t Papua Nov\u00e1 Guinea","official_name:de":"Unabh\u00e4ngiger Staat Papua-Neuguinea","official_name:en":"Independent State of Papua New Guinea","official_name:es":"Estado Independiente de Pap\u00faa Nueva Guinea","official_name:gn":"Tet\u00e3 Hekos\u00e3s\u00f3va Pap\u00faa Gin\u00e9a Pyahu","official_name:pt":"Estado Independente da Papua-Nova Guin\u00e9","official_name:ru":"\u041d\u0435\u0437\u0430\u0432\u0438\u0441\u0438\u043c\u043e\u0435 \u0413\u043e\u0441\u0443\u0434\u0430\u0440\u0441\u0442\u0432\u043e \u041f\u0430\u043f\u0443\u0430 \u2014 \u041d\u043e\u0432\u0430\u044f \u0413\u0432\u0438\u043d\u0435\u044f","official_name:uk":"\u041d\u0435\u0437\u0430\u043b\u0435\u0436\u043d\u0430 \u0414\u0435\u0440\u0436\u0430\u0432\u0430 \u041f\u0430\u043f\u0443\u0430 \u041d\u043e\u0432\u0430 \u0490\u0432\u0456\u043d\u0435\u044f","type":"boundary","wikidata":"Q691","wikipedia":"en:Papua New Guinea"},"timestamp":1716078538,"representative_point":{"type":"Point","coordinates":[146.05124184931228,-6.210041049999999]}},"geometry":{"type":"MultiPolygon","coordinates":[[[[159.1125139,-4.5568139],[159.4320061,-4.8074669],[159.6932319,-4.5883261],[159.3591469,-4.2369739],[159.1125139,-4.5568139]]],[[[156.7150711,-4.735635],[156.9198261,-4.9957939],[157.23715,-4.799835],[156.99314,-4.493885],[156.7150711,-4.735635]]],[[[141.0130219,-2.4022039],[141,-6.3223078],[140.8416553,-6.6106056],[141.019444,-6.8923573],[140.9151515,-9.3047187],[141.1174243,-9.434411],[142.0594423,-9.456788],[142.0594404,-9.2612379],[142.0594404,-9.2604608],[142.0938334,-9.2264612],[142.3081886,-9.2469466],[142.5624131,-9.3723562],[142.746858,-9.3335713],[142.8518855,-9.3783694],[142.8511085,-9.3916289],[143.5637193,-9.1816793],[143.636629,-8.9017041],[144.0035838,-8.6051185],[143.8936093,-8.2910256],[144.1230595,-7.9967813],[144.6968537,-7.8936067],[145.9126229,-8.2484558],[146.4233882,-9.107581],[146.6697002,-9.241315],[146.716887,-9.5440806],[147.2042549,-9.7369309],[147.6512643,-10.2910531],[149.0956007,-10.4435633],[151.2151149,-11.3529332],[151.9296817,-11.3789141],[153.78558,-11.8276385],[154.4977326,-11.6264967],[154.5754449,-11.3459718],[153.1158233,-10.6378689],[152.7536476,-9.7187319],[153.7863846,-9.4791205],[153.9006769,-9.291384],[153.8043394,-9.1066454],[150.8192106,-8.116004],[150.0342506,-8.1154027],[149.2526482,-8.7378656],[148.316929,-7.9482599],[148.1327053,-6.8730969],[149.305043,-6.2781417],[149.4557795,-6.5208467],[150.5574855,-6.4553005],[152.1927722,-5.6182189],[152.9275989,-5.065825],[154.3202719,-5.3360089],[154.3909264,-5.8243499],[155.3361837,-7.097516],[155.9230556,-6.8472222],[156.1738186,-6.444858],[155.6845272,-5.9492807],[155.4199666,-5.0607502],[155.6221847,-4.9597623],[155.6639917,-4.7135521],[155.4927523,-4.4905255],[155.2462695,-4.4767082],[154.8093966,-3.105845],[154.4253676,-2.9059094],[153.3871814,-3.1510245],[152.7689191,-2.600632],[152.0817746,-2.4118806],[150.7591061,-1.4649059],[150.0902556,-1.472205],[149.6401444,-1.1288005],[147.6580929,-1.8563798],[146.6668703,-1.7057145],[145.6784126,-0.7087706],[145.2873867,-0.5573576],[142.9589871,-1.2756991],[141.5347561,-2.55611],[141.0130219,-2.4022039]]],[[[155.4020319,-10.8570539],[155.6913839,-11.065625],[155.9584769,-10.9366981],[156.0673861,-10.6781361],[155.8041,-10.5267581],[155.4020319,-10.8570539]]]]}}