{"type":"Feature","properties":{"tags":{"ISO3166-1":"PN","ISO3166-1:alpha2":"PN","ISO3166-1:alpha3":"PCN","ISO3166-1:numeric":"612","admin_level":"2","boundary":"administrative","default_language":"en","description":"Considered a Non-Self-Governing Territory by the United Nations.","flag":"http:\/\/upload.wikimedia.org\/wikipedia\/commons\/8\/88\/Flag_of_the_Pitcairn_Islands.svg","maritime":"yes","name":"Pitcairn Islands","name:ar":"\u062c\u0632\u0631 \u0628\u064a\u062a\u0643\u064a\u0631\u0646","name:az":"Pitkern adalar\u0131","name:bg":"\u041f\u0438\u0442\u043a\u0435\u0440\u043d","name:cs":"Pitcairnovy ostrovy","name:da":"Pitcairn","name:de":"Pitcairninseln","name:en":"Pitcairn Islands","name:eo":"Pitkarna Insularo","name:es":"Islas Pitcairn","name:et":"Pitcairn","name:fi":"Pitcairnsaaret","name:fr":"\u00celes Pitcairn","name:hi":"\u092a\u093f\u091f\u0915\u0947\u0930\u094d\u0928 \u0926\u094d\u0935\u0940\u092a\u0938\u092e\u0942\u0939","name:hr":"Pitcairnovo Oto\u010dje","name:hu":"Pitcairn-szigetek","name:it":"Isole Pitcairn","name:ja":"\u30d4\u30c8\u30b1\u30a2\u30f3\u8af8\u5cf6","name:ko":"\ud54f\ucf00\uc5b8 \uc81c\ub3c4","name:lt":"Pitkerno salos","name:mi":"Pitikeina","name:mk":"\u041f\u0438\u0442\u043a\u0435\u0440\u043d","name:nl":"Pitcairneilanden","name:no":"Pitcairn\u00f8yene","name:pih":"Pitkern Ailen","name:pl":"Pitcairn","name:pt":"Ilhas Pitcairn","name:ro":"Insulele Pitcairn","name:ru":"\u041e\u0441\u0442\u0440\u043e\u0432\u0430 \u041f\u0438\u0442\u043a\u044d\u0440\u043d","name:se":"Pitcairn","name:sk":"Pitcairnove ostrovy","name:sl":"Pitcairnovi otoki","name:sr":"\u041e\u0441\u0442\u0440\u0432\u0430 \u041f\u0438\u0442\u043a\u0435\u0440\u043d","name:sv":"Pitcairn\u00f6arna","name:tr":"Pitcairn Adalar\u0131","name:uk":"\u041e\u0441\u0442\u0440\u043e\u0432\u0438 \u041f\u0456\u0442\u043a\u0435\u0440\u043d","name:zh":"\u76ae\u7279\u51ef\u6069\u7fa4\u5c9b \/ \u76ae\u7279\u80af\u7fa4\u5cf6","name:zh-Hans":"\u76ae\u7279\u51ef\u6069\u7fa4\u5c9b","name:zh-Hant":"\u76ae\u7279\u80af\u7fa4\u5cf6","place":"archipelago","timezone":"Pacific\/Pitcairn","type":"boundary","wikidata":"Q35672","wikipedia":"en:Pitcairn Islands"},"timestamp":1716078538,"representative_point":{"type":"Point","coordinates":[-128.32507048413424,-24.37837465]}},"geometry":{"type":"MultiPolygon","coordinates":[[[[-125.0170874,-24.6710484],[-124.7929306,-24.8900732],[-124.5519487,-24.6850193],[-124.7649753,-24.4719407],[-125.0170874,-24.6710484]]],[[[-128.5766069,-24.3585155],[-128.3463676,-24.6191529],[-128.0756563,-24.4540474],[-128.2556588,-24.134174],[-128.5766069,-24.3585155]]],[[[-130.3428172,-25.0590104],[-130.1182695,-25.279878],[-129.867678,-25.0859854],[-130.0984897,-24.859035],[-130.3428172,-25.0590104]]],[[[-130.9745559,-23.9245692],[-130.7557001,-24.1454081],[-130.5000878,-23.9373512],[-130.7323659,-23.7070767],[-130.9745559,-23.9245692]]]]}}