{"type":"Feature","properties":{"tags":{"ISO3166-1":"PW","ISO3166-1:alpha2":"PW","ISO3166-1:alpha3":"PLW","ISO3166-1:numeric":"585","admin_level":"2","boundary":"administrative","default_language":"en","driving_side":"right","flag":"https:\/\/upload.wikimedia.org\/wikipedia\/commons\/4\/48\/Flag_of_Palau.svg","name":"Belau","name:ar":"\u0628\u0627\u0644\u0627\u0648","name:cs":"Palau","name:de":"Palau","name:en":"Palau","name:eo":"Pala\u016do","name:es":"Palaos","name:eu":"Palau","name:fr":"Palaos","name:gn":"Pal\u00e1u","name:hr":"Palau","name:ia":"Palau","name:io":"Palau","name:ja":"\u30d1\u30e9\u30aa","name:jbo":"belaus","name:lt":"Palau","name:mi":"P\u0101rau","name:nan":"Palau","name:oc":"Belau","name:pl":"Palau","name:pt":"Palau","name:ru":"\u041f\u0430\u043b\u0430\u0443","name:se":"Palau","name:sk":"Palau","name:sl":"Palau","name:smn":"Palau","name:sms":"Palau","name:sr":"\u041f\u0430\u043b\u0430\u0443","name:ta":"\u0baa\u0bb2\u0bbe\u0bb5\u0bc1","name:uk":"\u041f\u0430\u043b\u0430\u0443","name:vi":"Palau","name:vo":"Palau\u00e4ns","name:zh":"\u5e15\u52b3 \/ \u5e1b\u7409","name:zh-Hans":"\u5e15\u52b3","name:zh-Hant":"\u5e1b\u7409","name:zh-Hant-CN":"\u5e15\u52de","name:zh-Hant-TW":"\u5e1b\u7409","official_name:ar":"\u062c\u0645\u0647\u0648\u0631\u064a\u0629 \u0628\u0627\u0644\u0627\u0648","official_name:cs":"Republika Palau","official_name:de":"Republik Palau","official_name:en":"Republic of Palau","official_name:es":"Rep\u00fablica de Palaos","official_name:gn":"Tavakuairet\u00e3 Pal\u00e1u","official_name:hr":"Republika Palau","official_name:pt":"Rep\u00fablica de Palau","official_name:ru":"\u0420\u0435\u0441\u043f\u0443\u0431\u043b\u0438\u043a\u0430 \u041f\u0430\u043b\u0430\u0443","source:name:oc":"Lo Congr\u00e8s","timezone":"Pacific\/Palau","type":"boundary","wikidata":"Q695","wikipedia":"en:Palau"},"timestamp":1716078538,"representative_point":{"type":"Point","coordinates":[133.23517256215737,5.98512245]}},"geometry":{"type":"Polygon","coordinates":[[[130.9193911,3.0138704],[131.0604955,2.8073069],[131.7287447,2.5981644],[131.9225953,2.6810053],[134.8261982,7.3307451],[134.9287893,8.1021985],[134.7255356,8.369423],[134.4610471,8.3407409],[132.0604253,5.474235],[130.9193911,3.0138704]]]}}