{"type":"Feature","properties":{"tags":{"ISO3166-1":"SA","ISO3166-1:alpha2":"SA","ISO3166-1:alpha3":"SAU","ISO3166-1:numeric":"682","admin_level":"2","alt_name:eo":"Sauda Arabujo;Saud-Arabio;Saud-Arabujo","alt_name:vi":"\u1ea2 R\u1eadp X\u00ea \u00dat;A-r\u1eadp X\u00ea-\u00fat","border_type":"nation","boundary":"administrative","default_language":"ar","flag":"http:\/\/upload.wikimedia.org\/wikipedia\/commons\/0\/0d\/Flag_of_Saudi_Arabia.svg","name":"\u0627\u0644\u0633\u0639\u0648\u062f\u064a\u0629","name:ace":"Arab Saudi","name:af":"Saoedi-Arabi\u00eb","name:als":"Saudi-Arabien","name:am":"\u1233\u12d1\u12f2 \u12a0\u1228\u1262\u12eb","name:an":"Arabia Saud\u00ed","name:ang":"Saudisc Arabea","name:ar":"\u0627\u0644\u0633\u0639\u0648\u062f\u064a\u0629","name:arc":"\u0723\u0725\u0718\u0715\u071d\u0710","name:arz":"\u0627\u0644\u0645\u0645\u0644\u0643\u0647 \u0627\u0644\u0639\u0631\u0628\u064a\u0647 \u0627\u0644\u0633\u0639\u0648\u062f\u064a\u0647","name:ast":"Arabia Saudita","name:av":"\u0421\u0430\u0433I\u0443\u0434\u0438\u044f\u0437\u0443\u043b \u0413I\u0430\u0440\u0430\u0431\u0438\u044f","name:az":"S\u0259udiyy\u0259 \u018fr\u0259bistan\u0131","name:ba":"\u0421\u04d9\u0493\u04af\u0434 \u0492\u04d9\u0440\u04d9\u0431\u0441\u0442\u0430\u043d\u044b","name:bar":"Saudi Arabien","name:bat-smg":"Sauda Arab\u0117j\u0117","name:bcl":"Arabya Saudita","name:be":"\u0421\u0430\u0443\u0434\u0430\u045e\u0441\u043a\u0430\u044f \u0410\u0440\u0430\u0432\u0456\u044f","name:be-tarask":"\u0421\u0430\u0443\u0434\u0430\u045e\u0441\u043a\u0430\u044f \u0410\u0440\u0430\u0431\u0456\u044f","name:bg":"\u0421\u0430\u0443\u0434\u0438\u0442\u0441\u043a\u0430 \u0410\u0440\u0430\u0431\u0438\u044f","name:bm":"Saudia Arabu ka Faamamara","name:bn":"\u09b8\u09cc\u09a6\u09bf \u0986\u09b0\u09ac","name:bo":"\u0f66\u0f60\u0f74\u0f0b\u0f51\u0f72\u0f0b\u0f68\u0f0b\u0f62\u0f0b\u0f54\u0f72\u0f0b\u0f61\u0f0d","name:bpy":"\u09b8\u09cc\u09a6\u09bf \u0986\u09b0\u09ac","name:br":"Arabia Saoudat","name:bs":"Saudijska Arabija","name:bug":"Arab Saudi","name:bxr":"\u0421\u0430\u0443\u0434\u044b\u043d \u0410\u0440\u0430\u0431","name:ca":"Ar\u00e0bia Saudita","name:ce":"\u0421\u0430\u04c0\u0443\u0434\u0438\u0439\u043d \u04c0\u0430\u044c\u0440\u0431\u0438\u0439\u0447\u043e\u044c","name:ceb":"Arabyang Saudita","name:ckb":"\u0639\u06d5\u0631\u06d5\u0628\u0633\u062a\u0627\u0646\u06cc \u0633\u0639\u0648\u0648\u062f\u06cc","name:crh":"Saudiy Arabistan","name:cs":"Sa\u00fadsk\u00e1 Ar\u00e1bie","name:csb":"Saud\u00ebjsk\u00f4 Arabij\u00f4","name:cv":"\u0421\u0430\u0443\u0434 \u0410\u0440\u0430\u0432\u0438\u0439\u0115","name:cy":"Saudi Arabia","name:da":"Saudi-Arabien","name:de":"Saudi-Arabien","name:diq":"Ereb\u0131stan\u00ea Seudi","name:dsb":"Saudiska-Arabska","name:dv":"\u0790\u07a6\u0787\u07ab\u078b\u07a9 \u0787\u07a6\u0783\u07a6\u0784\u07a8\u0787\u07b0\u0794\u07a7","name:dz":"\u0f66\u0f60\u0f74\u0f0b\u0f51\u0f72\u0f0b\u0f68\u0f7a\u0f0b\u0f62\u0f0b\u0f66\u0fa6\u0f72\u0f0b\u0f61\u0f0b","name:el":"\u03a3\u03b1\u03bf\u03c5\u03b4\u03b9\u03ba\u03ae \u0391\u03c1\u03b1\u03b2\u03af\u03b1","name:en":"Saudi Arabia","name:eo":"Sauda Arabio","name:es":"Arabia Saudita","name:et":"Saudi Araabia","name:eu":"Saudi Arabia","name:ext":"Arabia Saudita","name:fa":"\u0639\u0631\u0628\u0633\u062a\u0627\u0646 \u0633\u0639\u0648\u062f\u06cc","name:fi":"Saudi-Arabia","name:fo":"Saudi-Arabia","name:fr":"Arabie saoudite","name:frp":"Arabie saoudita","name:fy":"Sa\u00fbdy-Araabje","name:ga":"An Araib Sh\u00e1dach","name:gag":"Saudi Arabiya","name:gan":"\u6c99\u7279\u963f\u62c9\u4f2f","name:gd":"Ar\u00e0ibia nan Sabhd","name:gl":"Arabia Saud\u00ed","name:gn":"Aravia Saud\u00edta","name:gu":"\u0ab8\u0abe\u0a89\u0aa6\u0ac0 \u0a85\u0ab0\u0ac7\u0aac\u0abf\u0aaf\u0abe","name:gv":"Yn Araab Saudi","name:hak":"S\u00e2-v\u00fb-thi \u00c2-l\u00e2-pak","name:haw":"Saudi \u02bbAlapia","name:he":"\u05e2\u05e8\u05d1 \u05d4\u05e1\u05e2\u05d5\u05d3\u05d9\u05ea","name:hi":"\u0938\u0909\u0926\u0940 \u0905\u0930\u092c","name:hif":"Saudi Arabia","name:hr":"Saudijska Arabija","name:hsb":"Sawdi-Arabska","name:ht":"Arabi Sawoudit","name:hu":"Sza\u00fad-Ar\u00e1bia","name:hy":"\u054d\u0561\u0578\u0582\u0564\u0575\u0561\u0576 \u0531\u0580\u0561\u0562\u056b\u0561","name:ia":"Arabia Saudita","name:id":"Arab Saudi","name:ie":"Saudi Arabia","name:ilo":"Saudi Arabia","name:io":"Saudia Arabia","name:is":"S\u00e1d\u00ed-Arab\u00eda","name:it":"Arabia Saudita","name:ja":"\u30b5\u30a6\u30b8\u30a2\u30e9\u30d3\u30a2","name:jbo":"djogu'e","name:jv":"Arab Saudi","name:ka":"\u10e1\u10d0\u10e3\u10d3\u10d8\u10e1 \u10d0\u10e0\u10d0\u10d1\u10d4\u10d7\u10d8","name:kbd":"\u0421\u0430\u0443\u0434 \u0425\u044c\u044d\u0440\u044b\u043f\u0435\u0439","name:kk":"\u0421\u0430\u0443\u0434 \u0410\u0440\u0430\u0431\u0438\u044f\u0441\u044b","name:kl":"Saudi Arabia","name:km":"\u17a2\u17b6\u179a\u17c9\u17b6\u1794\u17ca\u17b8\u179f\u17b6\u17a2\u17bc\u178c\u17b8\u178f","name:kn":"\u0cb8\u0ccc\u0ca6\u0cbf \u0c85\u0cb0\u0cc6\u0cac\u0cbf\u0caf","name:ko":"\uc0ac\uc6b0\ub514\uc544\ub77c\ube44\uc544","name:ku":"Erebistana Siy\u00fbd\u00ee","name:kv":"\u0421\u0430\u0443\u0434\u0441\u0430 \u0410\u0440\u0430\u0432\u0438\u044f","name:kw":"Arabi Saoudek","name:ky":"\u0421\u0430\u0443\u0434 \u0410\u0440\u0430\u0431\u0438\u044f \u041f\u0430\u0434\u044b\u0448\u0430\u043b\u044b\u0433\u044b","name:la":"Arabia Saudiana","name:lb":"Saudi-Arabien","name:lbe":"\u0421\u0430\u043e\u044c\u0434\u0443\u043b\u043b\u0430\u043b \u0410\u044c\u0440\u0430\u0431\u0443\u0441\u0442\u0442\u0430\u043d","name:lez":"\u0421\u0430\u0443\u0434\u0438 \u0410\u0440\u0430\u0431\u0438\u0441\u0442\u0430\u043d","name:li":"Saoedi-Arabi\u00eb","name:lij":"Arabia Saud\u00efa","name:lmo":"Arabia Saudita","name:ln":"Saudi Arabia","name:lt":"Saudo Arabija","name:lv":"Sa\u016bda Ar\u0101bija","name:lzh":"\u6c99\u7279\u963f\u62c9\u4f2f","name:mk":"\u0421\u0430\u0443\u0434\u0438\u0441\u043a\u0430 \u0410\u0440\u0430\u0431\u0438\u0458\u0430","name:ml":"\u0d38\u0d57\u0d26\u0d3f \u0d05\u0d31\u0d47\u0d2c\u0d4d\u0d2f","name:mn":"\u0421\u0430\u0443\u0434\u044b\u043d \u0410\u0440\u0430\u0431","name:mr":"\u0938\u094c\u0926\u0940 \u0905\u0930\u0947\u092c\u093f\u092f\u093e","name:ms":"Arab Saudi","name:mt":"Arabja Sawdija","name:my":"\u1006\u1031\u102c\u103a\u1012\u102e\u1021\u102c\u101b\u1031\u1017\u103b\u1014\u102d\u102f\u1004\u103a\u1004\u1036","name:na":"Taudiarabiya","name:nah":"Saudarabia","name:nan":"Saud \u00ea A-la-pek","name:nds":"Saudi-Arabien","name:ne":"\u0938\u093e\u0909\u0926\u0940 \u0905\u0930\u092c","name:nl":"Saoedi-Arabi\u00eb","name:nn":"Saudi-Arabia","name:no":"Saudi-Arabia","name:nov":"Saudi Arabia","name:nrm":"Arabie Saudi","name:nv":"\u00c1s\u00e1\u00ed Bik\u00e9yah Sa\u02bcood\u00ed","name:oc":"Arabia Saudita","name:or":"\u0b38\u0b3e\u0b09\u0b26\u0b3f \u0b06\u0b30\u0b2c","name:os":"\u0421\u0430\u0443\u0434\u044b \u0410\u0440\u0430\u0432\u0438","name:pa":"\u0a38\u0a09\u0a26\u0a40 \u0a05\u0a30\u0a2c","name:pam":"Saudita Arabia","name:pap":"Saudi Arabia","name:pdc":"Saudi Arabia","name:pl":"Arabia Saudyjska","name:pms":"Arabia Saodita","name:pnb":"\u0633\u0639\u0648\u062f\u06cc \u0639\u0631\u0628","name:ps":"\u0633\u0639\u0648\u062f\u064a \u0639\u0631\u0628\u0633\u062a\u0627\u0646","name:pt":"Ar\u00e1bia Saudita","name:qu":"Sawud Arabya","name:rm":"Arabia Saudita","name:ro":"Arabia Saudit\u0103","name:roa-rup":"Arabia Saudesc\u00e3","name:roa-tara":"Arabie Saudite","name:ru":"\u0421\u0430\u0443\u0434\u043e\u0432\u0441\u043a\u0430\u044f \u0410\u0440\u0430\u0432\u0438\u044f","name:rue":"\u0421\u0430\u0443\u0434\u044c\u0441\u043a\u0430 \u0410\u0440\u0430\u0431\u0456\u044f","name:rw":"Arabiya Sawudite","name:sa":"\u0938\u090a\u0926\u0940 \u0905\u0930\u092c","name:sah":"\u0421\u0430\u0443\u0434 \u0410\u0440\u0430\u0431\u0438\u044f\u0442\u0430","name:scn":"Arabbia Saudita","name:sco":"Saudi Arabie","name:se":"Saudi-Ar\u00e1bia","name:sh":"Saudijska Arabija","name:si":"\u0dc3\u0dc0\u0dd4\u0daf\u0dd2 \u0d85\u0dbb\u0dcf\u0db6\u0dd2\u0dba\u0dcf\u0dc0","name:sk":"Saudsk\u00e1 Ar\u00e1bia","name:sl":"Saudova Arabija","name:smn":"Saudi-Arabia","name:sms":"Saudi-Arabia","name:so":"Sacuudi Carabiya","name:sq":"Arabia Saudite","name:sr":"\u0421\u0430\u0443\u0434\u0438\u0458\u0441\u043a\u0430 \u0410\u0440\u0430\u0431\u0438\u0458\u0430","name:ss":"I-Arabhiya","name:su":"Saudi Arabia","name:sv":"Saudiarabien","name:sw":"Saudia","name:szl":"Saudyjsk\u014f Arabij\u014f","name:ta":"\u0b9a\u0bb5\u0bc2\u0ba4\u0bbf \u0b85\u0bb0\u0bc7\u0baa\u0bbf\u0baf\u0bbe","name:te":"\u0c38\u0c4c\u0c26\u0c40 \u0c05\u0c30\u0c47\u0c2c\u0c3f\u0c2f\u0c3e","name:tg":"\u0410\u0440\u0430\u0431\u0438\u0441\u0442\u043e\u043d\u0438 \u0421\u0430\u0443\u0434\u04e3","name:th":"\u0e1b\u0e23\u0e30\u0e40\u0e17\u0e28\u0e0b\u0e32\u0e2d\u0e38\u0e14\u0e35\u0e2d\u0e32\u0e23\u0e30\u0e40\u0e1a\u0e35\u0e22","name:tk":"Saud Arabystany","name:tl":"Arabyang Saudi","name:tok":"ma Sawusi","name:tr":"Suudi Arabistan","name:tt":"\u0421\u043e\u0433\u0443\u0434 \u0413\u0430\u0440\u04d9\u0431\u0441\u0442\u0430\u043d\u044b","name:tzl":"Arabxha Saud\u00ec","name:udm":"\u0421\u0430\u0443\u0434 \u0410\u0440\u0430\u0432\u0438\u044f","name:ug":"\u0633\u06d5\u0626\u06c7\u062f\u0649 \u0626\u06d5\u0631\u06d5\u0628\u0649\u0633\u062a\u0627\u0646","name:uk":"\u0421\u0430\u0443\u0434\u0456\u0432\u0441\u044c\u043a\u0430 \u0410\u0440\u0430\u0432\u0456\u044f","name:ur":"\u0633\u0639\u0648\u062f\u06cc \u0639\u0631\u0628","name:uz":"Saudiya Arabistoni","name:vec":"Arabia Saud\u00eca","name:vi":"\u1ea2 R\u1eadp Saudi","name:vo":"Sauda-Larab\u00e4n","name:vro":"Saudi Araabia","name:war":"Arabya Saudita","name:wo":"Araabi Sawdit","name:wuu":"\u6c99\u7279\u963f\u62c9\u4f2f","name:xal":"\u0421\u0430\u0443\u0434\u0438\u043d \u0410\u0440\u0430\u0431 \u041d\u0443\u0442\u0433","name:yi":"\u05e1\u05d0\u05d5\u05d3\u05d9 \u05d0\u05e8\u05d0\u05d1\u05d9\u05e2","name:yo":"S\u00e1\u00fad\u00ed Ar\u00e1b\u00ed\u00e0","name:yue":"\u6c99\u5730\u963f\u62c9\u4f2f","name:zea":"Saoedi-Araobi\u00eb","name:zh":"\u6c99\u7279\u963f\u62c9\u4f2f","name:zh-Hans":"\u6c99\u7279\u963f\u62c9\u4f2f","name:zh-Hant":"\u6c99\u70cf\u5730\u963f\u62c9\u4f2f","official_name":"\u0627\u0644\u0645\u0645\u0644\u0643\u0629 \u0627\u0644\u0639\u0631\u0628\u064a\u0629 \u0627\u0644\u0633\u0639\u0648\u062f\u064a\u0629","official_name:ar":"\u0627\u0644\u0645\u0645\u0644\u0643\u0629 \u0627\u0644\u0639\u0631\u0628\u064a\u0629 \u0627\u0644\u0633\u0639\u0648\u062f\u064a\u0629","official_name:cs":"Kr\u00e1lovstv\u00ed Sa\u00fadsk\u00e1 Ar\u00e1bie","official_name:en":"Kingdom of Saudi Arabia","official_name:eo":"Re\u011dlando Sauda Arabio","official_name:es":"Reino de Arabia Saudita","official_name:fr":"Royaume d\u2019Arabie saoudite","official_name:pt":"Reino da Ar\u00e1bia Saudita","official_name:ru":"\u041a\u043e\u0440\u043e\u043b\u0435\u0432\u0441\u0442\u0432\u043e \u0421\u0430\u0443\u0434\u043e\u0432\u0441\u043a\u0430\u044f \u0410\u0440\u0430\u0432\u0438\u044f","population":"32175224","population:date":"2022","source:population":"https:\/\/portal.saudicensus.sa\/portal","timezone":"Asia\/Riyadh","type":"boundary","wikidata":"Q851","wikipedia":"ar:\u0627\u0644\u0633\u0639\u0648\u062f\u064a\u0629"},"timestamp":1716078538,"representative_point":{"type":"Point","coordinates":[44.32221476798496,24.21762095]}},"geometry":{"type":"Polygon","coordinates":[[[34.8844372,29.3751955],[34.4634781,28.0132072],[34.5190343,27.7135302],[34.9727201,27.6359563],[35.3327083,27.319863],[36.2777499,25.9645054],[36.2739087,25.5678467],[36.6546382,25.1241382],[36.9672976,24.2944642],[37.5131851,24.0159425],[38.3891398,22.9782723],[38.6358106,22.3611746],[38.5379164,21.8017077],[38.8374958,21.007849],[39.7240616,19.6403718],[39.9631433,18.8937108],[40.4606046,18.4278958],[41.3151037,16.6563117],[41.7557172,16.29],[43.1207222,16.5285833],[43.2754722,16.7468611],[43.1381111,16.9175833],[43.35475,17.5563889],[43.8319444,17.3388889],[45.2166667,17.4333333],[46.75,17.2833333],[47,16.95],[47.1833333,16.95],[47.4666667,17.1166667],[48.1833333,18.1666667],[49.1166667,18.6166667],[52.0000004,19],[55,20],[55.6666851,22.0000149],[55.2113705,22.7054225],[52.5810404,22.9392035],[51.4160714,24.3931939],[51.5861217,24.6641886],[51.3021759,24.5054905],[50.9342636,24.5415167],[50.5675,25.5761111],[50.2697989,26.0797357],[50.4886122,26.5842718],[50.4155805,27.0794045],[50.0130595,27.5449488],[50.3330063,27.6329836],[50.3668919,27.887085],[49.9834428,27.8818035],[49.6069213,27.7744087],[48.6694435,28.672689],[48.4303629,28.5343022],[47.7044606,28.5243622],[47.4651668,28.9999169],[46.5526837,29.1002727],[44.715219,29.1960325],[42.0855991,31.1116578],[40.4132544,31.9480762],[39.2008198,32.1542832],[37.0061712,31.5006395],[37.9971461,30.5006607],[37.6655574,30.3326227],[37.5055049,30.0007688],[36.7849032,29.8679012],[36.0728117,29.183401],[34.8844372,29.3751955]]]}}