{"type":"Feature","properties":{"tags":{"ISO3166-1":"SB","ISO3166-1:alpha2":"SB","ISO3166-1:alpha3":"SLB","ISO3166-1:numeric":"090","admin_level":"2","alt_name:mk":"\u0421\u043e\u043b\u043e\u043c\u043e\u043d\u0438","border_type":"nation","boundary":"administrative","default_language":"en","driving_side":"left","flag":"http:\/\/upload.wikimedia.org\/wikipedia\/commons\/7\/74\/Flag_of_the_Solomon_Islands.svg","name":"Solomon Islands","name:ace":"Pulo-pulo Solomon","name:af":"Solomoneilande","name:als":"Salomonen","name:am":"\u1230\u1208\u121e\u1295 \u12f0\u1234\u1276\u127d","name:an":"Islas Salom\u00f3n","name:ar":"\u062c\u0632\u0631 \u0633\u0644\u064a\u0645\u0627\u0646","name:arz":"\u062c\u0632\u0631 \u0633\u0648\u0644\u0648\u0645\u0648\u0646","name:ast":"Islles Salom\u00f3n","name:az":"Solomon adalar\u0131","name:bat-smg":"Saliamuona Salas","name:bcl":"Islas Solomon","name:be":"\u0421\u0430\u043b\u0430\u043c\u043e\u043d\u0430\u0432\u044b \u0410\u0441\u0442\u0440\u0430\u0432\u044b","name:be-tarask":"\u0421\u0430\u043b\u0430\u043c\u043e\u043d\u0430\u0432\u044b \u0430\u0441\u0442\u0440\u0430\u0432\u044b","name:bg":"\u0421\u043e\u043b\u043e\u043c\u043e\u043d\u043e\u0432\u0438 \u043e\u0441\u0442\u0440\u043e\u0432\u0438","name:bn":"\u09b8\u09b2\u09cb\u09ae\u09a8 \u09a6\u09cd\u09ac\u09c0\u09aa\u09aa\u09c1\u099e\u09cd\u099c","name:bo":"\u0f66\u0f7c\u0f0b\u0f63\u0f7c\u0f0b\u0f58\u0f7c\u0f53\u0f0b\u0f42\u0fb3\u0f72\u0f44\u0f0b\u0f55\u0fb2\u0f53\u0f0b\u0f5a\u0f7c\u0f0b\u0f41\u0f42","name:bpy":"\u09b8\u09b2\u09cb\u09ae\u09a8 \u09a6\u09cd\u09ac\u09c0\u09aa\u09ae\u09be\u09b2\u09be","name:br":"Inizi Solomon","name:bs":"Solomonska Ostrva","name:bxr":"\u0421\u043e\u043b\u043e\u043c\u043e\u043d \u0430\u0440\u0430\u043b\u0443\u0443\u0434","name:ca":"Salom\u00f3","name:ce":"\u0421\u043e\u043b\u043e\u043c\u043e\u043d\u0430\u043d \u0433\u04c0\u0430\u0439\u0440\u0435\u0448","name:ceb":"Kapupud-ang Solomon","name:ckb":"\u062f\u0648\u0648\u0631\u06af\u06d5\u06a9\u0627\u0646\u06cc \u0633\u0644\u06ce\u0645\u0627\u0646","name:crh":"Solomon Adalar\u0131","name:cs":"\u0160alomounovy ostrovy","name:cv":"\u0421\u043e\u043b\u043e\u043c\u043e\u043d \u0423\u0442\u0440\u0430\u0432\u0115\u0441\u0435\u043c","name:cy":"Ynysoedd Solomon","name:da":"Salomon\u00f8erne","name:de":"Salomonen","name:diq":"Adey\u00ea Solomoni","name:dsb":"Salomony","name:dv":"\u0790\u07ae\u078d\u07ae\u0789\u07ae\u0782\u07b0 \u0796\u07a6\u0792\u07a9\u0783\u07a7","name:el":"\u039d\u03ae\u03c3\u03bf\u03b9 \u03a3\u03bf\u03bb\u03bf\u03bc\u03ce\u03bd\u03c4\u03b1","name:en":"Solomon Islands","name:eo":"Salomonoj","name:es":"Islas Salom\u00f3n","name:et":"Saalomoni Saared","name:eu":"Salomon Uharteak","name:ext":"Islas Salom\u00f3n","name:fa":"\u062c\u0632\u0627\u06cc\u0631 \u0633\u0644\u06cc\u0645\u0627\u0646","name:fi":"Salomonsaaret","name:fo":"S\u00e1lomonoyggjarnar","name:fr":"Salomon","name:frp":"Iles Salomon","name:fy":"Salomonseilannen","name:ga":"Oile\u00e1in Sholam\u00f3n","name:gd":"Na h-Eileanan Sholaimh","name:gl":"Illas Salom\u00f3n","name:gn":"Ypa'\u0169ngu\u00e9ra Salom\u00f5","name:gv":"Ny h-Ellanyn Holomon","name:he":"\u05d0\u05d9\u05d9 \u05e9\u05dc\u05de\u05d4","name:hi":"\u0938\u094b\u0932\u094b\u092e\u0928 \u0926\u094d\u0935\u0940\u092a\u0938\u092e\u0942\u0939","name:hif":"Solomon Islands","name:hr":"Solomonski Otoci","name:hsb":"Salomony","name:ht":"Salomon","name:hu":"Salamon-szigetek","name:hy":"\u054d\u0578\u0572\u0578\u0574\u0578\u0576\u0575\u0561\u0576 \u053f\u0572\u0566\u056b\u0576\u0565\u0580","name:id":"Kepulauan Solomon","name:ilo":"Is-isla ti Solomon","name:io":"Salomon Insuli","name:is":"Sal\u00f3monseyjar","name:it":"Isole Salomone","name:ja":"\u30bd\u30ed\u30e2\u30f3\u8af8\u5cf6","name:jv":"Kapuloan Solomon","name:ka":"\u10e1\u10dd\u10da\u10dd\u10db\u10dd\u10dc\u10d8\u10e1 \u10d9\u10e3\u10dc\u10eb\u10e3\u10da\u10d4\u10d1\u10d8","name:kk":"\u0421\u043e\u043b\u043e\u043c\u043e\u043d \u0410\u0440\u0430\u043b\u0434\u0430\u0440\u044b","name:kn":"\u0cb8\u0cbe\u0cb2\u0cca\u0cae\u0ca8\u0ccd \u0ca6\u0ccd\u0cb5\u0cc0\u0caa\u0c97\u0cb3\u0cc1","name:ko":"\uc194\ub85c\ubaac \uc81c\ub3c4","name:ksh":"Salomone","name:ku":"Girav\u00ean Salomon","name:kw":"Ynysow Salamon","name:la":"Insulae Salomonis","name:lb":"Salomonen","name:li":"Salomonseilen","name:lij":"Isoe Salomon","name:lmo":"Isul Salomon","name:lt":"Saliamono Salos","name:lv":"Z\u0101lamana Salas","name:mk":"\u0421\u043e\u043b\u043e\u043c\u043e\u043d\u0441\u043a\u0438 \u041e\u0441\u0442\u0440\u043e\u0432\u0438","name:ml":"\u0d38\u0d4b\u0d33\u0d2e\u0d7b \u0d26\u0d4d\u0d35\u0d40\u0d2a\u0d41\u0d15\u0d7e","name:mr":"\u0938\u0949\u0932\u094b\u092e\u0928 \u0926\u094d\u0935\u0940\u092a\u0938\u092e\u0942\u0939","name:ms":"Kepulauan Solomon","name:mt":"G\u017cejjer Solomon","name:my":"\u1006\u1031\u102c\u103a\u101c\u1019\u103d\u1014\u103a\u1021\u102d\u102f\u1004\u103a\u1038\u101c\u1014\u103a\u1038\u1014\u102d\u102f\u1004\u103a\u1004\u1036","name:nah":"Salom\u00f3n Tl\u0101lhu\u0101ctli","name:nan":"S\u00f3\u0358-l\u00f4-b\u00fbn K\u00fbn-t\u00f3","name:nds":"Salomonen","name:ne":"\u0938\u094b\u0932\u094b\u092e\u0928 \u0926\u094d\u0927\u0940\u092a","name:nl":"Salomonseilanden","name:nn":"Salomon\u00f8yane","name:no":"Salomon\u00f8yene","name:nv":"S\u00f3lomon T\u00f3 Bin\u00e1haazy\u00edn\u00edg\u00ed\u00ed","name:oc":"Illas Salamon","name:or":"\u0b38\u0b4b\u0b32\u0b4b\u0b2e\u0b28 \u0b06\u0b5f\u0b30\u0b32\u0b4d\u0b5f\u0b3e\u0b23\u0b4d\u0b21","name:os":"\u0421\u043e\u043b\u043e\u043c\u043e\u043d\u044b \u0441\u0430\u043a\u044a\u0430\u0434\u00e6\u0445\u0442\u00e6","name:pa":"\u0a38\u0a4b\u0a32\u0a4b\u0a2e\u0a28 \u0a1f\u0a3e\u0a2a\u0a42","name:pam":"Solomon Islands","name:pih":"Solamon Ailen","name:pl":"Wyspy Salomona","name:pms":"\u00ccsole Salomon","name:pnb":"\u0633\u0648\u0644\u0648\u0645\u0646 \u0622\u0626\u0644\u06cc\u0646\u0688","name:pt":"Ilhas Salom\u00e3o","name:qu":"Salumun wat'akuna","name:ro":"Insulele Solomon","name:ru":"\u0421\u043e\u043b\u043e\u043c\u043e\u043d\u043e\u0432\u044b \u041e\u0441\u0442\u0440\u043e\u0432\u0430","name:rw":"Ibirwa bya Solomoni","name:sa":"\u0938\u094b\u0932\u094b\u092e\u0928-\u0926\u094d\u0935\u0940\u092a","name:sah":"\u0421\u043e\u043b\u043e\u043c\u043e\u043d \u0430\u0440\u044b\u044b\u043b\u0430\u0440\u0430","name:scn":"\u00ccsuli Salamuni","name:sco":"Solomon Islands","name:se":"Salomonsullot","name:sh":"Solomonski Otoci","name:si":"\u0dc3\u0ddc\u0dbd\u0db8\u0db1\u0dca \u0daf\u0dd4\u0db4\u0dad\u0dca","name:simple":"Solomon Islands","name:sk":"\u0160alam\u00fanove ostrovy","name:sl":"Salomonovi otoki","name:sm":"Solomon Islands","name:smn":"Salomonsuolluuh","name:sms":"Salomoon-su\u00f5llu","name:so":"Jasiiradaha Solomon","name:sq":"Ishujt Solomon","name:sr":"\u0421\u043e\u043b\u043e\u043c\u043e\u043d\u0441\u043a\u0430 \u041e\u0441\u0442\u0440\u0432\u0430","name:su":"Kapuloan Solomon","name:sv":"Salomon\u00f6arna","name:sw":"Visiwa vya Solomon","name:szl":"Wyspy \u00f4d Sal\u014dm\u014dna","name:ta":"\u0b9a\u0bca\u0bb2\u0bae\u0ba9\u0bcd \u0ba4\u0bc0\u0bb5\u0bc1\u0b95\u0bb3\u0bcd","name:te":"\u0c38\u0c4b\u0c32\u0c2e\u0c28\u0c4d \u0c26\u0c40\u0c35\u0c41\u0c32\u0c41","name:tg":"\u04b6\u0430\u0437\u0438\u0440\u0430\u04b3\u043e\u0438 \u0421\u043e\u043b\u043e\u043c\u043e\u043d","name:th":"\u0e2b\u0e21\u0e39\u0e48\u0e40\u0e01\u0e32\u0e30\u0e42\u0e0b\u0e42\u0e25\u0e21\u0e2d\u0e19","name:tl":"Kapuluang Solomon","name:tpi":"Solomon Ailans","name:tr":"Solomon Adalar\u0131","name:ug":"\u0633\u0648\u0644\u0648\u0645\u0648\u0646 \u062a\u0627\u0642\u0649\u0645 \u0626\u0627\u0631\u0627\u0644\u0644\u0649\u0631\u0649","name:uk":"\u0421\u043e\u043b\u043e\u043c\u043e\u043d\u043e\u0432\u0456 \u041e\u0441\u0442\u0440\u043e\u0432\u0438","name:ur":"\u062c\u0632\u0627\u0626\u0631 \u0633\u0644\u06cc\u0645\u0627\u0646","name:uz":"Solomon Orollari","name:vi":"Qu\u1ea7n \u0111\u1ea3o Solomon","name:vo":"Solomonu\u00e4ns","name:vro":"Saalomoni saar\u00f5q","name:war":"Kapuropod-an Solomon","name:wo":"Duni Solomon","name:xal":"\u0421\u043e\u043b\u043e\u043c\u043e\u043d\u0438\u043d \u0410\u0440\u043b\u0441","name:yo":"\u00c0w\u1ecdn Er\u00e9k\u00f9s\u00f9 S\u00f3l\u00f3m\u1ecd\u0301n\u00ec","name:yue":"\u6240\u7f85\u9580\u7fa4\u5cf6","name:zh":"\u6240\u7f57\u95e8\u7fa4\u5c9b \/ \u7d22\u7f85\u9580\u7fa4\u5cf6","name:zh-Hans":"\u6240\u7f57\u95e8\u7fa4\u5c9b","name:zh-Hant":"\u7d22\u7f85\u9580\u7fa4\u5cf6","name:zh-Hant-CN":"\u6240\u7f85\u9580\u7fa4\u5cf6","name:zh-Hant-HK":"\u6240\u7f85\u9580\u7fa4\u5cf6","name:zh-Hant-TW":"\u7d22\u7f85\u9580\u7fa4\u5cf6","source":"wikipedia & aproximation","timezone":"Pacific\/Guadalcanal","type":"boundary","wikidata":"Q685","wikipedia":"en:Solomon Islands"},"timestamp":1716078538,"representative_point":{"type":"Point","coordinates":[159.1070693851845,-8.7053941]}},"geometry":{"type":"MultiPolygon","coordinates":[[[[170.0020604,-11.8187998],[170.1005148,-12.0945995],[170.3736395,-12.004994],[170.2860733,-11.7285897],[170.0020604,-11.8187998]]],[[[169.6804541,-11.4952236],[169.7259357,-11.7738858],[170.0265524,-11.7176478],[169.956133,-11.4349908],[169.6804541,-11.4952236]]],[[[168.6154716,-12.2483988],[168.7694896,-12.5030469],[169.0452246,-12.3441712],[168.8887809,-12.0896984],[168.6154716,-12.2483988]]],[[[166.8757074,-9.672598],[167.053028,-10.0537387],[167.4039512,-10.0566121],[167.4250865,-9.8224482],[167.194602,-9.6021509],[166.8757074,-9.672598]]],[[[165.5324028,-9.9311881],[165.5966155,-10.9608699],[166.7294293,-11.9054848],[167.1631545,-11.8581574],[167.2168409,-11.549131],[166.5230064,-10.1183363],[166.0928509,-9.8728402],[165.5324028,-9.9311881]]],[[[162.6792027,-8.3143889],[162.7901096,-8.6131716],[163.1460666,-8.4612907],[162.9468938,-8.1837474],[162.6792027,-8.3143889]]],[[[156.1738186,-6.444858],[155.9230556,-6.8472222],[155.3361837,-7.097516],[155.3879275,-7.5697809],[156.4267346,-8.4855894],[159.9880182,-10.0223045],[161.7171772,-10.9559266],[162.6273672,-11.022611],[162.672503,-10.7872802],[162.1603698,-9.6125635],[161.1804149,-8.5124395],[160.7523528,-7.708814],[159.0480318,-7.558229],[158.7455264,-7.3015262],[156.7222497,-6.4468463],[156.1738186,-6.444858]]],[[[159.5819663,-11.1525152],[159.8678453,-12.4045424],[160.4172301,-13.1530382],[160.7140556,-13.2085738],[160.8465119,-13.0032524],[160.8308718,-11.7574727],[159.886592,-11.0974977],[159.5819663,-11.1525152]]],[[[159.0393457,-5.0305556],[158.9904964,-5.4454279],[159.1804638,-5.6520684],[159.6873442,-5.7264866],[159.8826877,-5.5953747],[159.8917521,-5.3036642],[159.5062371,-4.8748905],[159.2530709,-4.818895],[159.0393457,-5.0305556]]],[[[159.1190486,-6.1218556],[159.2375156,-6.4482242],[159.5692304,-6.3276447],[159.463865,-5.9815853],[159.1190486,-6.1218556]]]]}}