{"type":"Feature","properties":{"tags":{"ISO3166-1":"SC","ISO3166-1:alpha2":"SC","ISO3166-1:alpha3":"SYC","ISO3166-1:numeric":"690","admin_level":"2","alt_name:it":"Seicelle","alt_name:pt":"Seicheles","boundary":"administrative","driving_side":"left","flag":"http:\/\/upload.wikimedia.org\/wikipedia\/commons\/f\/fc\/Flag_of_Seychelles.svg","name":"Sesel","name:ab":"\u0421\u0435\u0438\u0448\u0435\u043b\u0442\u04d9\u0438 \u0410\u0434\u0433\u044c\u044b\u043b\u0431\u0436\u044c\u0430\u0445\u0430\u049b\u04d9\u0430","name:af":"Seychelle","name:als":"Seychellen","name:am":"\u1232\u1238\u120d\u1235","name:an":"Seychelles","name:ar":"\u0633\u064a\u0634\u064a\u0644","name:ary":"\u0633\u064a\u0634\u064a\u0644","name:arz":"\u0633\u064a\u0634\u064a\u0644","name:ast":"Seixeles","name:avk":"Seycella","name:az":"Sey\u015fel adalar\u0131","name:azb":"\u0633\u06cc\u0634\u0644","name:ba":"\u0421\u0435\u0439\u0448\u0435\u043b \u0423\u0442\u0440\u0430\u0443\u0499\u0430\u0440\u044b","name:ban":"Seychelles","name:bar":"Seychelln","name:bat_smg":"Sei\u0161el\u0113","name:bcl":"Seytsilyes","name:be":"\u0421\u0435\u0439\u0448\u044d\u043b\u044c\u0441\u043a\u0456\u044f \u0410\u0441\u0442\u0440\u0430\u0432\u044b","name:be-tarask":"\u0421\u044d\u0439\u0448\u044d\u043b\u044b","name:bg":"\u0421\u0435\u0439\u0448\u0435\u043b\u0438","name:bh":"\u0938\u0947\u0936\u0947\u0932\u094d\u0938","name:bi":"Seisel","name:bjn":"Seychelles","name:bm":"Seshel","name:bn":"\u09b8\u09c7\u09b6\u09c7\u09b2","name:bo":"\u0f66\u0f7a\u0f0b\u0f5e\u0f7a\u0f63\u0f0d","name:bpy":"\u09b8\u09c7\u0987\u09b6\u09c7\u09b2 \u09a6\u09cd\u09ac\u09c0\u09aa\u09aa\u09c1\u099e\u09cd\u099c","name:br":"Sechelez","name:bs":"Sej\u0161eli","name:bxr":"\u0421\u0435\u0439\u0448\u0435\u043b\u0438\u0438\u043d \u0430\u0440\u0430\u043b\u043d\u0443\u0443\u0434","name:ca":"Seychelles","name:cbk-zam":"Seychelles","name:cdo":"Seychelles","name:ce":"\u0421\u0435\u0439\u0448\u0435\u043b\u0430\u043d \u0433l\u0430\u0439\u0440\u0435\u0448","name:ceb":"Seychelles","name:ckb":"\u0633\u06cc\u0634\u06ce\u0644","name:crh":"Sey\u015feller","name:cs":"Seychely","name:cv":"\u0421\u0435\u0439\u0448\u0435\u043b \u0443\u0442\u0440\u0430\u0432\u0115\u0441\u0435\u043c","name:cy":"Seychelles","name:da":"Seychellerne","name:dag":"Seychelles","name:de":"Seychellen","name:diq":"Sey\u015feli","name:dsb":"Seychelle","name:dty":"\u0938\u0947\u0938\u0947\u0932\u094d\u0938","name:dv":"\u078c\u07ad\u0782\u07b0\u078e\u07a6\u078b\u07a9\u0784\u07aa","name:el":"\u03a3\u03b5\u03cb\u03c7\u03ad\u03bb\u03bb\u03b5\u03c2","name:en":"Seychelles","name:eo":"Sej\u015deloj","name:es":"Seychelles","name:et":"Sei\u0161ellid","name:eu":"Seychelleak","name:ext":"Seychelles","name:fa":"\u0633\u06cc\u0634\u0644","name:ff":"Seysel","name:fi":"Seychellit","name:fo":"Seyskelloyggjar","name:fr":"Seychelles","name:frp":"S\u00each\u00b7\u00e8les","name:frr":"Seschelen","name:fy":"Seysjellen","name:ga":"Na S\u00e9is\u00e9il","name:gag":"Sey\u015feller","name:gcr":"S\u00e9ch\u00e8l","name:gd":"Na h-Eileanan Sheiseall","name:gl":"Seixeles - Seychelles","name:gn":"S\u00e9ichele","name:gv":"Ny h-Ellanyn Heshell","name:ha":"Seychelles","name:hak":"Seychelles","name:he":"\u05e1\u05d9\u05d9\u05e9\u05dc","name:hi":"\u0938\u0947\u0936\u0947\u0932\u094d\u0938","name:hif":"Seychelles","name:hr":"Sej\u0161eli","name:hsb":"Seychelle","name:ht":"Sech\u00e8l","name:hu":"Seychelle-szigetek","name:hy":"\u054d\u0565\u0575\u0577\u0565\u056c\u0575\u0561\u0576 \u056f\u0572\u0566\u056b\u0576\u0565\u0580","name:ia":"Seychelles","name:id":"Seychelles","name:ie":"Seychelles","name:ig":"Seychelles","name:ilo":"Seychelles","name:io":"Seycheli","name:is":"Seychelles-eyjar","name:it":"Seychelles","name:ja":"\u30bb\u30fc\u30b7\u30a7\u30eb","name:jam":"Seishelz","name:jbo":"secel","name:jv":"S\u00e9s\u00e8l","name:ka":"\u10e1\u10d4\u10d8\u10e8\u10d4\u10da\u10d8\u10e1 \u10d9\u10e3\u10dc\u10eb\u10e3\u10da\u10d4\u10d1\u10d8","name:kaa":"Seyshel atawlar\u0131","name:kab":"Seychelles","name:kg":"Seychell","name:ki":"Seychelles","name:kk":"\u0421\u0435\u0439\u0448\u0435\u043b\u044c \u0410\u0440\u0430\u043b\u0434\u0430\u0440\u044b","name:kn":"\u0cb8\u0cc6\u0cb6\u0cc6\u0cb2\u0ccd\u0cb8\u0ccd","name:ko":"\uc138\uc774\uc178","name:ku":"Sey\u015fel","name:kw":"Seychellys","name:ky":"\u0421\u0435\u0439\u0448\u0435\u043b \u0410\u0440\u0430\u043b\u0434\u0430\u0440\u044b","name:la":"Insulae Seisellenses","name:lb":"Seychellen","name:lfn":"Sexeles","name:lg":"Seychelles","name:li":"Seychelle","name:lij":"Seychelles","name:lld":"Seychelles","name:lmo":"Seychelles","name:ln":"Seyshel","name:lt":"Sei\u0161eliai","name:lv":"Sei\u0161elas","name:mg":"Seychelles","name:mhr":"\u0421\u0435\u0439\u0448\u0435\u043b-\u0432\u043b\u0430\u043a","name:mi":"Heikere","name:mk":"\u0421\u0435\u0458\u0448\u0435\u043b\u0438","name:ml":"\u0d38\u0d46\u0d2f\u0d4d\u200c\u0d37\u0d46\u0d7d\u0d38\u0d4d","name:mn":"\u0421\u0435\u0439\u0448\u0435\u043b\u0438\u0439\u043d \u0430\u0440\u043b\u0443\u0443\u0434","name:mr":"\u0938\u0947\u0936\u0947\u0932\u094d\u0938","name:mrj":"\u0421\u0435\u0439\u0448\u0435\u043b\u0432\u043b\u04d3","name:ms":"Seychelles","name:mt":"Seychelles","name:my":"\u1006\u1031\u1038\u101b\u103e\u1032\u1014\u102d\u102f\u1004\u103a\u1004\u1036","name:mzn":"\u0633\u06cc\u0634\u0644","name:nan":"Seychelles","name:nds":"Seychellen","name:nds_nl":"Seychellen","name:ne":"\u0938\u0947\u0938\u0947\u0932\u094d\u0938","name:new":"\u0938\u093f\u0936\u0947\u0932\u094d\u0938","name:nl":"Seychellen","name:nn":"Seychellane","name:no":"Seychellene","name:nov":"Seyshels","name:nso":"Seychelles","name:nv":"Seishel","name:oc":"Seich\u00e8las","name:olo":"Sei\u0161ellit","name:om":"Siishelsi","name:or":"\u0b38\u0b47\u0b38\u0b47\u0b32\u0b1c","name:os":"\u0421\u0435\u0439\u0448\u0435\u043b\u0442\u00e6","name:pa":"\u0a38\u0a47\u0a38\u0a3c\u0a48\u0a32","name:pam":"Sesiel","name:pi":"\u0938\u0947\u0936\u0947\u0932","name:pih":"Sieshels","name:pl":"Seszele","name:pms":"Seychelles","name:pnb":"\u0633\u0634\u0644\u0632","name:ps":"\u0633\u06cc\u0634\u0644","name:pt":"Seychelles","name:qu":"Sichillakuna","name:rm":"Seychellas","name:ro":"Seychelles","name:ru":"\u0421\u0435\u0439\u0448\u0435\u043b\u044c\u0441\u043a\u0438\u0435 \u041e\u0441\u0442\u0440\u043e\u0432\u0430","name:rw":"Seyishele","name:sa":"\u0938\u0947\u0936\u0947\u0932","name:sah":"\u0421\u0435\u0439\u0448\u0435\u043b\u043b\u0430\u0440","name:sc":"Seychelles","name:scn":"Seicelli","name:sco":"Seychelles","name:sd":"\u0633\u064a\u0686\u064a\u0644\u064a\u0633","name:se":"Seychellat","name:sg":"S\u00ebysh\u00eale","name:sh":"Sej\u0161eli","name:shn":"\u1019\u102d\u1030\u1004\u103a\u1038\u101e\u1031\u1038\u101e\u103b\u1084\u1087","name:si":"\u0dc3\u0dd3\u0dc2\u0dd9\u0dbd\u0dca\u0dc3\u0dca","name:simple":"Seychelles","name:sk":"Seychely","name:sl":"Sej\u0161eli","name:sm":"Seychelles","name:smn":"Seychelleh","name:sms":"Seychee\u02b9ll","name:sn":"Seychelles","name:so":"Seyshelles","name:sq":"Sejshellet","name:sr":"\u0421\u0435\u0458\u0448\u0435\u043b\u0438","name:ss":"ISeyishelesi","name:st":"Seychelles","name:stq":"Seychelle","name:su":"Seych\u00e9ll","name:sv":"Seychellerna","name:sw":"Shelisheli","name:szl":"Seszele","name:ta":"\u0b9a\u0bc0\u0b9a\u0bc6\u0bb2\u0bcd\u0b9a\u0bc1","name:te":"\u0c38\u0c47\u0c37\u0c46\u0c32\u0c4d\u0c38\u0c4d","name:tg":"\u04b6\u0430\u0437\u0438\u0440\u0430\u04b3\u043e\u0438 \u0421\u0435\u0439\u0448\u0435\u043b","name:th":"\u0e1b\u0e23\u0e30\u0e40\u0e17\u0e28\u0e40\u0e0b\u0e40\u0e0a\u0e25\u0e2a\u0e4c","name:tk":"Se\u00fd\u015fel Adalary","name:tl":"Seyshels","name:tr":"Sey\u015feller","name:ts":"Seychelles","name:tt":"\u0421\u0435\u0439\u0448\u0435\u043b \u0443\u0442\u0440\u0430\u0443\u043b\u0430\u0440\u044b","name:tzl":"Seicead\u00edas","name:udm":"\u0421\u0435\u0439\u0448\u0435\u043b \u0448\u043e\u0440\u043c\u0443\u04f5\u044a\u0451\u0441","name:ug":"\u0633\u06d0\u064a\u0634\u06d0\u0644 \u0626\u0627\u0631\u0627\u0644\u0644\u0649\u0631\u0649","name:uk":"\u0421\u0435\u0439\u0448\u0435\u043b\u044c\u0441\u044c\u043a\u0456 \u041e\u0441\u0442\u0440\u043e\u0432\u0438","name:ur":"\u0633\u06cc\u0686\u06cc\u0644\u06cc\u0633","name:uz":"Seyshell orollari","name:vec":"Seychelles","name:vep":"Sei\u0161elan Sared","name:vi":"Seychelles","name:vls":"Seychelln","name:vo":"S\u00e4celu\u00e4ns","name:war":"Seychelles","name:wo":"Seysel","name:wuu":"\u585e\u820c\u5c14","name:xal":"\u0421\u0435\u0439\u0448\u0435\u043b \u0410\u0440\u043b\u0438\u043d \u041e\u0440\u043d","name:xmf":"\u10e1\u10d4\u10d8\u10e8\u10d4\u10da\u10d8\u10e8 \u10d9\u10dd\u10d9\u10d4\u10e4\u10d8","name:yi":"\u05e1\u05d9\u05d9\u05e9\u05e2\u05dc","name:yo":"\u1e62\u00e8\u00edh\u1eb9\u0301l\u1eb9\u0301s\u00ec","name:yue":"\u585e\u820c\u723e","name:za":"Seychelles","name:zea":"Seychell'n","name:zh":"\u585e\u820c\u5c14 \/ \u585e\u5e2d\u723e","name:zh-Hans":"\u585e\u820c\u5c14","name:zh-Hant":"\u585e\u5e2d\u723e","name:zh-Hant-CN":"\u585e\u820c\u723e","name:zh-Hant-TW":"\u585e\u5e2d\u723e","name:zu":"IsiSeyisheli","official_name:cs":"Seychelsk\u00e1 republika","timezone":"Indian\/Mahe","type":"boundary","wikidata":"Q1042","wikipedia":"en:Seychelles"},"timestamp":1716078538,"representative_point":{"type":"Point","coordinates":[55.589099164074995,-4.2987936]}},"geometry":{"type":"MultiPolygon","coordinates":[[[[56.0776786,-7.0755903],[56.1789224,-7.3917216],[56.4911265,-7.1696823],[56.3385267,-6.8966543],[56.0776786,-7.0755903]]],[[[55.0404305,-4.3614913],[55.0351367,-4.5904857],[55.4831682,-5.0047356],[56.1426211,-4.6552225],[56.0935238,-4.2293994],[55.7084281,-4.0135523],[55.8736446,-3.7911554],[55.7134869,-3.601952],[55.462172,-3.7662815],[55.6205546,-4.0136687],[55.0404305,-4.3614913]]],[[[55.170912,-5.7489051],[55.2935643,-6.0594958],[55.5687584,-5.9718186],[55.4620456,-5.6337284],[55.170912,-5.7489051]]],[[[55.0021941,-3.705],[55.1824912,-3.926],[55.4105409,-3.734],[55.2259892,-3.513],[55.0021941,-3.705]]],[[[52.6531581,-5.9972459],[52.6837438,-6.2257357],[53.0864349,-6.4341214],[53.3424787,-6.2312603],[53.2169347,-5.9651154],[53.8627858,-5.795333],[53.840769,-5.5390141],[53.5501685,-5.5280798],[53.4900359,-4.7015738],[53.2104782,-4.7706755],[53.0298407,-5.6842924],[52.6531581,-5.9972459]]],[[[52.5286374,-6.9387915],[52.5891314,-7.3121756],[52.9250677,-7.2872471],[52.9015011,-6.8643903],[52.6804251,-6.7974915],[52.5286374,-6.9387915]]],[[[50.5544071,-9.2155742],[50.8515104,-10.2985686],[51.158901,-10.4449452],[51.3966149,-10.1496217],[51.2948976,-9.2380796],[51.0201808,-9.0031954],[50.5544071,-9.2155742]]],[[[47.3215316,-9.6295194],[47.5768511,-10.2292754],[47.8841495,-10.2549402],[47.8107449,-9.5808576],[47.5611317,-9.4556359],[47.3215316,-9.6295194]]],[[[46.0178029,-9.3046591],[46.0454543,-9.5689323],[46.345168,-9.8941591],[46.6655214,-9.8843432],[46.642094,-9.2366718],[46.2074859,-9.1700052],[46.0178029,-9.3046591]]]]}}