{"type":"Feature","properties":{"tags":{"ISO3166-1":"SH","ISO3166-1:alpha2":"SH","ISO3166-1:alpha3":"SHN","ISO3166-1:numeric":"654","admin_level":"2","boundary":"administrative","default_language":"en","flag":"http:\/\/upload.wikimedia.org\/wikipedia\/commons\/0\/00\/Flag_of_Saint_Helena.svg","name":"Saint Helena, Ascension and Tristan da Cunha","name:ar":"\u0633\u0627\u0646\u062a \u0647\u064a\u0644\u064a\u0646\u0627\u060c \u0623\u0633\u064a\u0646\u0633\u064a\u0648\u0646 \u0648\u062a\u0631\u064a\u0633\u062a\u0627\u0646 \u062f\u0627 \u0643\u0648\u0646\u0647\u0627","name:cs":"Svat\u00e1 Helena, Ascension a Tristan da Cunha","name:de":"St. Helena, Ascension und Tristan da Cunha","name:el":"\u0391\u03b3\u03af\u03b1 \u0395\u03bb\u03ad\u03bd\u03b7, \u0391\u03c3\u03b5\u03bd\u03c3\u03b9\u03cc\u03bd \u03ba\u03b1\u03b9 \u03a4\u03c1\u03b9\u03c3\u03c4\u03ac\u03bd \u03bd\u03c4\u03b1 \u039a\u03bf\u03cd\u03bd\u03b9\u03b1","name:en":"Saint Helena, Ascension and Tristan da Cunha","name:eo":"Sankta Heleno, Ascension kaj Tristan da Cunha","name:es":"Santa Elena, Ascensi\u00f3n y Trist\u00e1n de Acu\u00f1a","name:eu":"Santa Helena, Ascension eta Tristan da Cunha","name:fa":"\u0633\u0646\u062a \u0647\u0644\u0646\u0627\u060c \u0627\u0633\u0646\u0634\u0646 \u0648 \u062a\u0631\u06cc\u0633\u062a\u0627\u0646 \u062f\u0627 \u06a9\u0648\u0646\u0627","name:fr":"Sainte-H\u00e9l\u00e8ne, Ascension et Tristan da Cunha","name:hr":"Sveta Helena","name:hu":"Szent Ilona, Ascension \u00e9s Tristan da Cunha","name:it":"Sant'Elena, Ascensione e Tristan da Cunha","name:ja":"\u30bb\u30f3\u30c8\u30d8\u30ec\u30ca\u30fb\u30a2\u30bb\u30f3\u30b7\u30e7\u30f3\u304a\u3088\u3073\u30c8\u30ea\u30b9\u30bf\u30f3\u30c0\u30af\u30fc\u30cb\u30e3","name:lt":"\u0160ventoji Elena, Dangun \u017dengimo ir Tristanas da Kunja","name:mk":"\u0421\u0432\u0435\u0442\u0430 \u0415\u043b\u0435\u043d\u0430, \u0423\u0441\u043f\u0435\u043d\u0438\u0435 \u0438 \u0422\u0440\u0438\u0441\u0442\u0430\u043d \u0434\u0430 \u041a\u0443\u045a\u0430","name:nl":"Sint-Helena, Ascension en Tristan da Cunha","name:pl":"Wyspa \u015awi\u0119tej Heleny, Wyspa Wniebowst\u0105pienia i Tristan da Cunha","name:pt":"Santa Helena, Ascens\u00e3o e Trist\u00e3o da Cunha","name:ru":"\u041e\u0441\u0442\u0440\u043e\u0432\u0430 \u0421\u0432\u044f\u0442\u043e\u0439 \u0415\u043b\u0435\u043d\u044b, \u0412\u043e\u0437\u043d\u0435\u0441\u0435\u043d\u0438\u044f \u0438 \u0422\u0440\u0438\u0441\u0442\u0430\u043d-\u0434\u0430-\u041a\u0443\u043d\u044c\u044f","name:sk":"Sv\u00e4t\u00e1 Helena, Ascension a Tristan da Cunha","name:sl":"Sveta Helena, Ascension in Tristan da Cunha","name:sr":"\u0421\u0432\u0435\u0442\u0430 \u0425\u0435\u043b\u0435\u043d\u0430, \u0410\u0441\u0435\u043d\u0441\u0438\u043e\u043d, \u0438 \u0422\u0440\u0438\u0441\u0442\u0430\u043d \u0434\u0430 \u041a\u0443\u045a\u0430","name:tr":"Saint Helena, Ascension ve Tristan da Cunha","name:uk":"\u041e\u0441\u0442\u0440\u043e\u0432\u0438 \u0421\u0432\u044f\u0442\u043e\u0457 \u0404\u043b\u0435\u043d\u0438, \u0412\u043e\u0437\u043d\u0435\u0441\u0456\u043d\u043d\u044f \u0456 \u0422\u0440\u0438\u0441\u0442\u0430\u043d-\u0434\u0430-\u041a\u0443\u043d\u044c\u044f","name:vi":"Saint Helena, Ascension v\u00e0 Tristan da Cunha","name:zh":"\u5723\u8d6b\u52d2\u62ff\u3001\u963f\u68ee\u677e\u548c\u7279\u91cc\u65af\u5766-\u8fbe\u5e93\u5c3c\u4e9a","old_name":"Saint Helena and Dependencies","old_name:eo":"Sankta Heleno kaj Dependa\u0135oj","old_name:vi":"Saint Helena v\u00e0 nh\u1eefng l\u00e3nh th\u1ed5 ph\u1ee5 thu\u1ed9c","timezone":"Atlantic\/St_Helena","type":"boundary","wikidata":"Q192184","wikipedia":"en:Saint Helena, Ascension and Tristan da Cunha"},"timestamp":1716078538,"representative_point":{"type":"Point","coordinates":[-12.4870384875,-37.2465]}},"geometry":{"type":"MultiPolygon","coordinates":[[[[-5.9970864,-15.987],[-5.75016,-16.23],[-5.423459,-15.977],[-5.7050218,-15.704],[-5.9970864,-15.987]]],[[[-10.2804513,-40.301],[-9.9457832,-40.569],[-9.6120528,-40.353],[-9.9310112,-40.073],[-10.2804513,-40.301]]],[[[-12.9569006,-37.291],[-12.8512573,-37.475],[-12.4106418,-37.626],[-11.9683974,-37.079],[-12.3588637,-36.871],[-12.9569006,-37.291]]],[[[-14.6225929,-7.929],[-14.4149246,-8.192],[-14.0935226,-7.963],[-14.3551965,-7.691],[-14.6225929,-7.929]]]]}}