{"type":"Feature","properties":{"tags":{"ISO3166-1":"SM","ISO3166-1:alpha2":"SM","ISO3166-1:alpha3":"SMR","ISO3166-1:numeric":"674","admin_level":"2","boundary":"administrative","default_language":"it","flag":"https:\/\/upload.wikimedia.org\/wikipedia\/commons\/b\/b1\/Flag_of_San_Marino.svg","land_area":"administrative","name":"San Marino","name:ar":"\u0633\u0627\u0646 \u0645\u0627\u0631\u064a\u0646\u0648","name:arc":"\u0723\u0722 \u0721\u072a\u071d\u0722\u0718","name:az-Arab":"\u0633\u0627\u0646 \u0645\u0627\u0631\u06cc\u0646\u0648","name:azb":"\u0633\u0627\u0646 \u0645\u0627\u0631\u06cc\u0646\u0648","name:be":"\u0421\u0430\u043d-\u041c\u0430\u0440\u044b\u043d\u0430","name:be-tarask":"\u0421\u0430\u043d-\u041c\u0430\u0440\u044b\u043d\u0430","name:bg":"\u0421\u0430\u043d \u041c\u0430\u0440\u0438\u043d\u043e","name:ckb":"\u0633\u0627\u0646 \u0645\u0627\u0631\u06cc\u0646\u06c6","name:cs":"San Marino","name:de":"San Marino","name:el":"\u0386\u03b3\u03b9\u03bf\u03c2 \u039c\u03b1\u03c1\u03af\u03bd\u03bf\u03c2","name:en":"San Marino","name:eo":"San-Marino","name:es":"San Marino","name:fa":"\u0633\u0627\u0646 \u0645\u0627\u0631\u06cc\u0646\u0648","name:fi":"San Marino","name:fr":"Saint-Marin","name:fy":"San Marino","name:gn":"San Mar\u00edno","name:grc":"\u1f0d\u03b3\u03b9\u03bf\u03c2 \u039c\u03b1\u03c1\u1fd6\u03bd\u03bf\u03c2","name:hr":"San Marino","name:ia":"San Marino","name:io":"San Marino","name:ja":"\u30b5\u30f3\u30de\u30ea\u30ce","name:jbo":"syn.marinos","name:kab-Arab":"\u0633\u0627\u0646 \u0645\u0627\u0631\u064a\u0646","name:kk":"\u0421\u0430\u043d-\u041c\u0430\u0440\u0438\u043d\u043e","name:kk-Arab":"\u0633\u0627\u0646 \u0645\u0627\u0631\u0649\u064a\u0646\u0648","name:kmr":"\u0633\u0627\u0646 \u0645\u0627\u0631\u06cc\u0646\u06c6","name:ks":"\u0633\u0627\u0646 \u0645\u0627\u0631\u06cc\u0646\u0648","name:ku-Arab":"\u0633\u0627\u0646 \u0645\u0627\u0631\u06cc\u0646\u06c6","name:la":"Sanctus Marinus","name:lt":"San Marinas","name:mi":"Hato Marino","name:mk":"\u0421\u0430\u043d \u041c\u0430\u0440\u0438\u043d\u043e","name:mzn":"\u0633\u0627\u0646 \u0645\u0627\u0631\u06cc\u0646\u0648","name:nl":"San Marino","name:pa":"\u0a38\u0a3e\u0a28 \u0a2e\u0a30\u0a40\u0a28\u0a4b","name:pl":"San Marino","name:pnb":"\u0633\u0627\u0646 \u0645\u0631\u06cc\u0646\u0648","name:ps":"\u0633\u0627\u0646 \u0645\u0627\u0631\u06cc\u0646\u0648","name:pt":"San Marino","name:rgn":"San Marein","name:ru":"\u0421\u0430\u043d-\u041c\u0430\u0440\u0438\u043d\u043e","name:scn":"San Marinu","name:sd":"\u0633\u0627\u0646 \u0645\u0627\u0631\u064a\u0646\u0648","name:se":"San Marino","name:sk":"San Mar\u00edno","name:smn":"San Marino","name:sms":"San Marino","name:sr":"\u0421\u0430\u043d \u041c\u0430\u0440\u0438\u043d\u043e","name:sr-Latn":"San Marino","name:syc":"\u0723\u0722 \u0721\u072a\u071d\u0722\u0718","name:szl":"San Marino","name:ta":"\u0b9a\u0bbe\u0ba9\u0bcd \u0bae\u0bb0\u0bc0\u0ba9\u0bcb","name:tok":"ma San Malino","name:tzl":"San Marino","name:ug":"\u0633\u0627\u0646 \u0645\u0627\u0631\u0649\u0646\u0648","name:uk":"\u0421\u0430\u043d-\u041c\u0430\u0440\u0456\u043d\u043e","name:ur":"\u0633\u0627\u0646 \u0645\u0627\u0631\u06cc\u0646\u0648","name:vo":"Sanmarin\u00e4n","name:zh-Hans":"\u5723\u9a6c\u529b\u8bfa","name:zh-Hant":"\u8056\u99ac\u529b\u8afe","official_name":"Serenissima Repubblica di San Marino","official_name:ar":"\u062c\u0645\u0647\u0648\u0631\u064a\u0629 \u0633\u0627\u0646 \u0645\u0627\u0631\u064a\u0646\u0648","official_name:arc":"\u0729\u0718\u071b\u0722\u071d\u0718\u072c\u0710 \u0715\u0723\u0722 \u0721\u072a\u071d\u0722\u0718","official_name:cs":"Republika San Marino","official_name:de":"Republik San Marino","official_name:eo":"Respubliko San-Marino","official_name:es":"Seren\u00edsima Rep\u00fablica de San Marino","official_name:fa":"\u062c\u0645\u0647\u0648\u0631\u06cc \u0633\u0627\u0646 \u0645\u0627\u0631\u06cc\u0646\u0648","official_name:fr":"R\u00e9publique de Saint-Marin","official_name:grc":"\u03a0\u03bf\u03bb\u03b9\u03c4\u03b5\u03af\u03b1 \u03c4\u03bf\u1fe6 \u1f09\u03b3\u03af\u03bf\u03c5 \u039c\u03b1\u03c1\u03af\u03bd\u03bf\u03c5","official_name:ia":"Serenissime Republica de San Marino","official_name:kk-Arab":"\u0633\u0627\u0646 \u0645\u0627\u0631\u0649\u064a\u0646\u0648 \u0645\u0627\u0631\u062a\u06d5\u0628\u06d5\u0644\u0649 \u0631\u06d5\u0633\u067e\u06cb\u0628\u0644\u0649\u064a\u0643\u0627\u0633\u0649","official_name:la":"Res publica Sancti Marini","official_name:mk":"\u0420\u0435\u043f\u0443\u0431\u043b\u0438\u043a\u0430 \u0421\u0430\u043d \u041c\u0430\u0440\u0438\u043d\u043e","official_name:pa":"\u0a38\u0a48\u0a28 \u0a2e\u0a3e\u0a30\u0a40\u0a28\u0a4b \u0a26\u0a3e \u0a17\u0a23\u0a24\u0a70\u0a24\u0a30","official_name:pl":"Republika San Marino","official_name:ps":"\u062f \u0633\u0627\u0646 \u0645\u0627\u0631\u06cc\u0646\u0648 \u062c\u0645\u0647\u0648\u0631\u064a\u062a","official_name:rgn":"Rip\u00f3bblica d' San Marein","official_name:ru":"\u0420\u0435\u0441\u043f\u0443\u0431\u043b\u0438\u043a\u0430 \u0421\u0430\u043d-\u041c\u0430\u0440\u0438\u043d\u043e","official_name:syc":"\u0729\u0718\u071b\u0722\u071d\u0718\u072c\u0710 \u0715\u0723\u0722 \u0721\u072a\u071d\u0722\u0718","official_name:ur":"\u062c\u0645\u06c1\u0648\u0631\u06cc\u06c1 \u0633\u0627\u0646 \u0645\u0627\u0631\u06cc\u0646\u0648","population":"33600","population:date":"2021","timezone":"Europe\/San_Marino","type":"boundary","wikidata":"Q238","wikimedia_commons":"Category:San Marino","wikipedia":"it:San Marino"},"timestamp":1716078538,"representative_point":{"type":"Point","coordinates":[12.460469868559692,43.94319475]}},"geometry":{"type":"Polygon","coordinates":[[[12.4033246,43.9527342],[12.4874043,43.8964693],[12.5150723,43.9895089],[12.4365217,43.9566339],[12.4033246,43.9527342]]]}}