{"type":"Feature","properties":{"tags":{"ISO3166-1":"SS","ISO3166-1:alpha2":"SS","ISO3166-1:alpha3":"SSD","ISO3166-1:numeric":"728","admin_level":"2","alt_name:vi":"Nam Xu-\u0111\u0103ng","boundary":"administrative","default_language":"en","flag":"http:\/\/upload.wikimedia.org\/wikipedia\/commons\/7\/7a\/Flag_of_South_Sudan.svg","name":"South Sudan \u062c\u0646\u0648\u0628 \u0627\u0644\u0633\u0648\u062f\u0627\u0646","name:af":"Suid-Soedan","name:als":"S\u00fcdsudan","name:am":"\u12f0\u1261\u1265 \u1231\u12f3\u1295","name:an":"Sud\u00e1n d'o Sud","name:ang":"S\u016b\u00fesudan","name:ar":"\u062c\u0646\u0648\u0628 \u0627\u0644\u0633\u0648\u062f\u0627\u0646","name:arc":"\u072c\u071d\u0721\u0722\u0710 \u0715\u0723\u0718\u0715\u0710\u0722","name:arz":"\u062c\u0646\u0648\u0628 \u0627\u0644\u0633\u0648\u062f\u0627\u0646","name:ast":"Sud\u00e1n del Sur","name:av":"\u042e\u0433\u0430\u043b\u044a\u0443\u043b\u0430\u0431 \u0421\u0443\u0434\u0430\u043d","name:az":"C\u0259nubi Sudan","name:bat-smg":"P\u0117it\u016b Sudans","name:bcl":"Habagatan Sudan","name:be":"\u041f\u0430\u045e\u0434\u043d\u0451\u0432\u044b \u0421\u0443\u0434\u0430\u043d","name:be-tarask":"\u041f\u0430\u045e\u0434\u043d\u0451\u0432\u044b \u0421\u0443\u0434\u0430\u043d","name:bg":"\u042e\u0436\u0435\u043d \u0421\u0443\u0434\u0430\u043d","name:bn":"\u09a6\u0995\u09cd\u09b7\u09bf\u09a8 \u09b8\u09c1\u09a6\u09be\u09a8","name:br":"Soudan ar Su","name:bs":"Ju\u017eni Sudan","name:bxr":"\u0423\u0440\u0434\u0430 \u0421\u0443\u0434\u0430\u043d","name:ca":"Sudan del Sud","name:ceb":"Habagatang Sudan","name:chr":"\u13a4\u13a6\u13c3\u13ed \u13d1\u13d5\u13c2","name:ckb":"\u0628\u0627\u0634\u0648\u0648\u0631\u06cc \u0633\u0648\u0648\u062f\u0627\u0646","name:crh":"Cen\u00fcbiy Sudan","name:cs":"Ji\u017en\u00ed S\u00fad\u00e1n","name:cv":"\u041a\u04d1\u043d\u0442\u04d1\u0440 \u0421\u0443\u0434\u0430\u043d","name:cy":"De Swdan","name:da":"Sydsudan","name:de":"S\u00fcdsudan","name:din":"Paguot Thud\u00e4n","name:diq":"Sudan\u00ea Veroci","name:dsb":"P\u00f3dpo\u0142dnjowy Sudan","name:dz":"\u0f66\u0f71\u0f60\u0f74\u0f50\u0f0b \u0f66\u0f74\u0f0b\u0f4c\u0f71\u0f53","name:ee":"Anyiehe Sudan nutome","name:el":"\u039d\u03cc\u03c4\u03b9\u03bf \u03a3\u03bf\u03c5\u03b4\u03ac\u03bd","name:en":"South Sudan","name:eo":"Sud-Sudano","name:es":"Sud\u00e1n del Sur","name:et":"L\u00f5una-Sudaan","name:eu":"Hego Sudan","name:ext":"Sud\u00e1n del Sul","name:fa":"\u0633\u0648\u062f\u0627\u0646 \u062c\u0646\u0648\u0628\u06cc","name:fi":"Etel\u00e4-Sudan","name:fo":"Su\u00f0ursudan","name:fr":"Soudan du Sud","name:frr":"S\u00fc\u00fcdsudaan","name:fy":"S\u00fad-S\u00fbdan","name:ga":"An tS\u00fad\u00e1in Theas","name:gd":"Sud\u00e0n a Deas","name:gl":"Sud\u00e1n do sur","name:gn":"Yvy Sud\u00e3","name:gu":"\u0aa6\u0a95\u0acd\u0ab7\u0abf\u0aa3 \u0ab8\u0ac1\u0aa6\u0abe\u0aa8","name:gv":"Yn Toodaan Yiass","name:he":"\u05d3\u05e8\u05d5\u05dd \u05e1\u05d5\u05d3\u05df","name:hi":"\u0926\u0915\u094d\u0937\u093f\u0923 \u0938\u0942\u0921\u093e\u0928","name:hr":"Ju\u017eni Sudan","name:hsb":"Ju\u017eny Sudan","name:hu":"D\u00e9l-Szud\u00e1n","name:hy":"\u0540\u0561\u0580\u0561\u057e\u0561\u0575\u056b\u0576 \u054d\u0578\u0582\u0564\u0561\u0576","name:ia":"Sudan del Sud","name:id":"Sudan Selatan","name:ie":"Sud-Sudan","name:io":"Sud-Sudan","name:is":"Su\u00f0ur-S\u00fadan","name:it":"Sudan del Sud","name:ja":"\u5357\u30b9\u30fc\u30c0\u30f3","name:jv":"Sudan Kidul","name:ka":"\u10e1\u10d0\u10db\u10ee\u10e0\u10d4\u10d7\u10d8 \u10e1\u10e3\u10d3\u10d0\u10dc\u10d8","name:kaa":"Qubla Sudan","name:kab":"Ssudan n Un\u1e93ul","name:kk":"\u041e\u04a3\u0442\u04af\u0441\u0442\u0456\u043a \u0421\u0443\u0434\u0430\u043d","name:km":"\u179f\u17ca\u17bc\u178a\u1784\u17cb\u200b\u1781\u17b6\u1784\u200b\u178f\u17d2\u1794\u17bc\u1784","name:kn":"\u0ca6\u0c95\u0ccd\u0cb7\u0cbf\u0ca3 \u0cb8\u0cc2\u0ca1\u0cbe\u0ca8\u0ccd","name:ko":"\ub0a8\uc218\ub2e8","name:koi":"\u041b\u0443\u043d\u0432\u044b\u0432 \u0421\u0443\u0434\u0430\u043d","name:ksh":"der S\u00f6dsudahn","name:ku":"S\u00fbdana Ba\u015f\u00fbr","name:kv":"\u041b\u0443\u043d\u0432\u044b\u0432 \u0421\u0443\u0434\u0430\u043d","name:kw":"Soudan Dhyghow","name:ky":"\u0422\u04af\u0448\u0442\u04af\u043a \u0421\u0443\u0434\u0430\u043d","name:la":"Sudania Australis","name:lad":"Sudan del Sud","name:lb":"S\u00fcdsudan","name:lbe":"\u041a\u044c\u0438\u043b\u0432\u0430\u043b\u0443\u043b \u0421\u0443\u0434\u0430\u043d","name:lfn":"Sudan Sude","name:li":"Zuid-Soedan","name:lij":"Sudan do Sud","name:lmo":"S\u00fcd Sudan","name:ln":"Sudani ya Sidi","name:lo":"\u0e8a\u0eb9\u0e94\u0eb2\u0e99\u0ec3\u0e95\u0ec9","name:lt":"Piet\u0173 Sudanas","name:lv":"Dienvidsud\u0101na","name:lzh":"\u5357\u8607\u4e39","name:mdf":"\u041b\u044f\u043c\u0431\u0435\u0448\u0438\u0440\u0435\u043d\u044c \u0421\u0443\u0434\u0430\u043d","name:mk":"\u0408\u0443\u0436\u0435\u043d \u0421\u0443\u0434\u0430\u043d","name:ml":"\u0d26\u0d15\u0d4d\u0d37\u0d3f\u0d23 \u0d38\u0d41\u0d21\u0d3e\u0d7b","name:mr":"\u0926\u0915\u094d\u0937\u093f\u0923 \u0938\u0941\u0926\u093e\u0928","name:mrj":"\u041a\u0435\u0447\u04f9\u0432\u04d3\u043b\u0432\u0435\u043b \u0421\u0443\u0434\u0430\u043d","name:ms":"Sudan Selatan","name:my":"\u1010\u1031\u102c\u1004\u103a\u1006\u1030\u1012\u1014\u103a\u1014\u102d\u102f\u1004\u103a\u1004\u1036","name:mzn":"\u062c\u0646\u0648\u0628\u06cc \u0633\u0648\u062f\u0627\u0646","name:na":"South Sudan","name:nah":"Sudan Huitztl\u0101mpa","name:nan":"L\u00e2m Sudan","name:nds":"S\u00fc\u00fcdsudan","name:nds-nl":"Zuudsoedan","name:ne":"\u0926\u0915\u094d\u0937\u093f\u0923\u0940 \u0938\u0941\u0921\u093e\u0928","name:nl":"Zuid-Soedan","name:nn":"S\u00f8r-Sudan","name:no":"S\u00f8r-Sudan","name:nv":"Sh\u00e1di\u02bc\u00e1\u00e1hj\u00ed Sood\u0105\u0301\u0105","name:oc":"Sodan del Sud","name:or":"\u0b26\u0b15\u0b4d\u0b37\u0b3f\u0b28 \u0b38\u0b41\u0b26\u0b3e\u0b28","name:pa":"\u0a26\u0a71\u0a16\u0a23\u0a40 \u0a38\u0a41\u0a21\u0a3e\u0a28","name:pam":"Mauling Sudan","name:pl":"Sudan Po\u0142udniowy","name:pnb":"\u062f\u06a9\u06be\u0646 \u0633\u0648\u0688\u0627\u0646","name:ps":"\u0633\u0648\u06d0\u0644\u064a \u0633\u0648\u0689\u0627\u0646","name:pt":"Sud\u00e3o do Sul","name:qu":"Urin Sudan","name:rm":"Sudan dal Sid","name:ro":"Sudanul de Sud","name:roa-tara":"Sudan d'u Sud","name:ru":"\u042e\u0436\u043d\u044b\u0439 \u0421\u0443\u0434\u0430\u043d","name:sc":"Sudan Meridionali","name:scn":"Sudan d\u00fb Sud","name:sco":"Sooth Sudan","name:se":"Lulli-Sudan","name:sg":"Sud\u00e4an-Mbongo","name:sh":"Ju\u017eni Sudan","name:si":"\u0daf\u0d9a\u0dd4\u0dab\u0dd4 \u0dc3\u0dd4\u0da9\u0dcf\u0db1\u0dba","name:simple":"South Sudan","name:sk":"Ju\u017en\u00fd Sud\u00e1n","name:sl":"Ju\u017eni Sudan","name:smn":"Maad\u00e2-Sudan","name:sms":"Saujj-Sudaan","name:sn":"South Sudan","name:so":"Koonfur Suudaan","name:sq":"Sudani i Jugut","name:sr":"\u0408\u0443\u0436\u043d\u0438 \u0421\u0443\u0434\u0430\u043d","name:stq":"Suud-Sudan","name:su":"Sudan Kidul","name:sv":"Sydsudan","name:sw":"Sudani Kusini","name:szl":"Po\u0142ed\u0144owy Sudan","name:ta":"\u0ba4\u0bc6\u0bb1\u0bcd\u0b95\u0bc1 \u0b9a\u0bc2\u0b9f\u0bbe\u0ba9\u0bcd","name:te":"\u0c26\u0c15\u0c4d\u0c37\u0c3f\u0c23 \u0c38\u0c42\u0c21\u0c3e\u0c28\u0c4d","name:th":"\u0e0b\u0e39\u0e14\u0e32\u0e19\u0e43\u0e15\u0e49","name:tk":"G\u00fcnorta Sudan","name:tl":"Timog Sudan","name:to":"S\u016btani tonga","name:tr":"G\u00fcney Sudan","name:tt":"\u041a\u04e9\u043d\u044c\u044f\u043a \u0421\u0443\u0434\u0430\u043d","name:udm":"\u041b\u044b\u043c\u0448\u043e\u0440 \u0421\u0443\u0434\u0430\u043d","name:uk":"\u041f\u0456\u0432\u0434\u0435\u043d\u043d\u0438\u0439 \u0421\u0443\u0434\u0430\u043d","name:ur":"\u062c\u0646\u0648\u0628\u06cc \u0633\u0648\u0688\u0627\u0646","name:uz":"Janubiy Sudan","name:vec":"Sud Sudan","name:vi":"Nam Sudan","name:vls":"Zuud-Soedan","name:vo":"Sul\u00fcda-Sud\u00e4n","name:war":"Salatan nga Sudan","name:yi":"\u05d3\u05e8\u05d5\u05dd \u05e1\u05d5\u05d3\u05d0\u05df","name:yo":"G\u00fa\u00fas\u00f9 Sudan","name:yue":"\u5357\u8607\u4e39","name:zh":"\u5357\u82cf\u4e39 \/ \u5357\u8607\u4e39","name:zh-Hans":"\u5357\u82cf\u4e39","name:zh-Hant":"\u5357\u8607\u4e39","name:zu":"Iningizimu Sudan","official_name:ar":"\u062c\u0645\u0647\u0648\u0631\u064a\u0629 \u062c\u0646\u0648\u0628 \u0627\u0644\u0633\u0648\u062f\u0627\u0646","official_name:cs":"Jihos\u00fad\u00e1nsk\u00e1 republika","official_name:din":"Paank\u0254c Paguot Thud\u00e4n","official_name:en":"Republic of South Sudan","official_name:es":"Rep\u00fablica de Sud\u00e1n del Sur","official_name:fa":"\u062c\u0645\u0647\u0648\u0631\u06cc \u0633\u0648\u062f\u0627\u0646 \u062c\u0646\u0648\u0628\u06cc","official_name:fr":"R\u00e9publique du Soudan du Sud","official_name:gn":"Tavakuairet\u00e3 Yvy Sud\u00e3","official_name:pt":"Rep\u00fablica do Sud\u00e3o do Sul","official_name:ru":"\u0420\u0435\u0441\u043f\u0443\u0431\u043b\u0438\u043a\u0430 \u042e\u0436\u043d\u044b\u0439 \u0421\u0443\u0434\u0430\u043d","official_name:th":"\u0e2a\u0e32\u0e18\u0e32\u0e23\u0e13\u0e23\u0e31\u0e10\u0e0b\u0e39\u0e14\u0e32\u0e19\u0e43\u0e15\u0e49","official_name:ur":"\u062c\u0645\u06c1\u0648\u0631\u06cc\u06c1 \u062c\u0646\u0648\u0628\u06cc \u0633\u0648\u0688\u0627\u0646","official_name:vi":"C\u1ed9ng h\u00f2a Nam Sudan","timezone":"Africa\/Juba","type":"boundary","wikidata":"Q958","wikipedia":"en:South Sudan"},"timestamp":1716078538,"representative_point":{"type":"Point","coordinates":[29.11834809214495,7.8626325]}},"geometry":{"type":"Polygon","coordinates":[[[23.696254,9.671553],[23.448889,9.025556],[23.582778,8.994722],[23.514444,8.717778],[24.256111,8.686944],[24.163056,8.331389],[24.856111,8.174167],[25.2203881,7.8800325],[25.1974421,7.4949074],[26.4148664,6.6535249],[26.2890386,6.4706669],[26.5303516,6.2238811],[26.4491128,6.0703595],[27.2006034,5.7439289],[27.4488258,5.0195116],[27.7738534,4.7889828],[27.7900111,4.6080242],[28.3808098,4.285291],[28.7877867,4.5636959],[29.2214292,4.3411199],[29.4902533,4.6947189],[29.6570868,4.6460488],[30.2130431,3.9371747],[30.5508932,3.8436322],[30.5610836,3.6206021],[30.7754799,3.683436],[30.8499234,3.5004119],[31.1819767,3.7947108],[31.5177649,3.638164],[31.8157733,3.8240739],[31.9581183,3.5719366],[32.2019967,3.5047867],[32.4152796,3.745619],[33.0277605,3.8936137],[33.5110748,3.7518217],[33.9877616,4.2340766],[34.3875,4.61],[35.321111,5.023611],[35.5085829,4.6171274],[35.6081289,4.6178071],[35.698264,4.6183288],[35.944231,4.6191361],[35.8179366,4.7742096],[35.8623387,5.3201798],[35.316011,5.334822],[35.126028,5.624417],[34.939003,6.558017],[34.293094,6.948005],[33.715563,7.66314],[33.004727,7.858829],[33.2191295,8.4355239],[33.7691995,8.3677696],[34.141982,8.601771],[34.106678,9.500001],[33.877584,9.499999],[33.970458,10.14591],[33.246094,10.777746],[33.1383225,11.4372238],[33.294404,12.218997],[32.73158,12.236389],[32.745703,11.951051],[32.096585,11.95105],[32.391111,11.706235],[32.46973,11.043305],[31.31673,9.775435],[30.834268,9.711747],[29.941108,10.288055],[29.537492,10.081953],[29.5375,9.75],[28.9999945,9.670544],[29,10.1666666],[27.8333333,10.1666666],[27.907221,9.6101578],[26.393915,9.564064],[25.930038,10.385162],[25.760609,10.439004],[25.097777,10.316738],[24.8413697,9.8155825],[23.696254,9.671553]]]}}