{"type":"Feature","properties":{"tags":{"ISO3166-1":"ST","ISO3166-1:alpha2":"ST","ISO3166-1:alpha3":"STP","ISO3166-1:numeric":"678","admin_level":"2","alt_name:eo":"Santomeo kaj Principeo","alt_name:zh":"\u5723\u666e","boundary":"administrative","default_language":"pt","flag":"http:\/\/upload.wikimedia.org\/wikipedia\/commons\/4\/4f\/Flag_of_Sao_Tome_and_Principe.svg","name":"S\u00e3o Tom\u00e9 e Pr\u00edncipe","name:azb":"\u0633\u0627\u0626\u0648\u062a\u0648\u0645\u0647 \u0648 \u067e\u0631\u0646\u0633\u06cc\u067e","name:cs":"Svat\u00fd Tom\u00e1\u0161 a Princ\u016fv ostrov","name:de":"S\u00e3o Tom\u00e9 und Pr\u00edncipe","name:el":"\u1f0d\u03b3\u03b9\u03bf\u03c2 \u0398\u03c9\u03bc\u1fb6\u03c2 \u03ba\u03b1\u1f76 \u039a\u03bf\u03af\u03c1\u03b1\u03bd\u03bf\u03c2","name:en":"S\u00e3o Tom\u00e9 and Pr\u00edncipe","name:eo":"Sao-Tomeo kaj Principeo","name:es":"Santo Tom\u00e9 y Pr\u00edncipe","name:fr":"Sao Tom\u00e9-et-Principe","name:fy":"Sao Tomee en Prinsipe","name:gn":"Santo Tome ha Pr\u00edncipe","name:grc":"\u1f0d\u03b3\u03b9\u03bf\u03c2 \u0398\u03c9\u03bc\u1fb6\u03c2 \u03ba\u03b1\u1f76 \u039a\u03bf\u03af\u03c1\u03b1\u03bd\u03bf\u03c2","name:hr":"Sveti Toma i Prinsipe","name:io":"San-Tome e Principe","name:ja":"\u30b5\u30f3\u30c8\u30e1\u30fb\u30d7\u30ea\u30f3\u30b7\u30da","name:jbo":"san.tomes.joik.prinsipes","name:nl":"Sao Tom\u00e9 en Principe","name:pl":"Wyspy \u015awi\u0119tego Tomasza i Ksi\u0105\u017c\u0119ca","name:ps":"\u0633\u0627\u06cc\u0648\u062a\u0648\u0645\u0647 \u0627\u0648 \u067e\u0631\u0646\u0633\u06cc\u067e","name:pt":"S\u00e3o Tom\u00e9 e Pr\u00edncipe","name:ru":"\u0421\u0430\u043d-\u0422\u043e\u043c\u0435 \u0438 \u041f\u0440\u0438\u043d\u0441\u0438\u043f\u0438","name:se":"S\u00e3o Tom\u00e9 ja Pr\u00edncipe","name:sk":"Sv\u00e4t\u00fd Tom\u00e1\u0161 a Princov ostrov","name:sl":"Sveti Toma\u017e in Princ","name:smn":"S\u00e3o Tom\u00e9 j\u00e1 Principe","name:sms":"S\u00e3o Tom\u00e9 da Principe","name:sr":"\u0421\u0430\u043e \u0422\u043e\u043c\u0435 \u0438 \u041f\u0440\u0438\u043d\u0441\u0438\u043f\u0435","name:ta":"\u0b9a\u0bbe\u0bb5\u0bcb \u0ba4\u0bca\u0bae\u0bc7 \u0bae\u0bb1\u0bcd\u0bb1\u0bc1\u0bae\u0bcd \u0baa\u0bbf\u0bb0\u0bbf\u0ba9\u0bcd\u0b9a\u0bbf\u0baa\u0bcd\u0baa\u0bbf","name:tzl":"Sant-Tom\u00e1s-es-Prin\u00e7","name:uk":"\u0421\u0430\u043d-\u0422\u043e\u043c\u0435 \u0456 \u041f\u0440\u0438\u043d\u0441\u0456\u043f\u0456","name:ur":"\u0633\u0627\u0624 \u0679\u0648\u0645\u06d2 \u0648 \u067e\u0631\u0646\u0633\u067e\u06d2","name:vo":"Saluda-Tome\u00e4n e Prinsipe\u00e4n","name:zh":"\u5723\u591a\u7f8e\u548c\u666e\u6797\u897f\u6bd4 \/ \u8056\u591a\u7f8e\u666e\u6797\u897f\u6bd4","name:zh-Hans":"\u5723\u591a\u7f8e\u548c\u666e\u6797\u897f\u6bd4","name:zh-Hant":"\u8056\u591a\u7f8e\u666e\u6797\u897f\u6bd4","official_name":"Rep\u00fablica Democr\u00e1tica de S\u00e3o Tom\u00e9 e Pr\u00edncipe","official_name:cs":"Demokratick\u00e1 republika Svat\u00fd Tom\u00e1\u0161 a Princ\u016fv ostrov","official_name:de":"Demokratische Republik S\u00e3o Tom\u00e9 und Pr\u00edncipe","official_name:es":"Rep\u00fablica Democr\u00e1tica de Santo Tom\u00e9 y Pr\u00edncipe","official_name:gn":"Tavakuairet\u00e3 Jekopytyjoj\u00e1va Santo Tome ha Pr\u00edncipe","official_name:hr":"Demokratska Republika Sveti Toma i Prinsipe","official_name:pt":"Rep\u00fablica Democr\u00e1tica de S\u00e3o Tom\u00e9 e Pr\u00edncipe","official_name:zh":"\u5723\u591a\u7f8e\u548c\u666e\u6797\u897f\u6bd4\u6c11\u4e3b\u5171\u548c\u56fd \/ \u8056\u591a\u7f8e\u666e\u6797\u897f\u6bd4\u6c11\u4e3b\u5171\u548c\u570b","official_name:zh-Hans":"\u5723\u591a\u7f8e\u548c\u666e\u6797\u897f\u6bd4\u6c11\u4e3b\u5171\u548c\u56fd","official_name:zh-Hant":"\u8056\u591a\u7f8e\u666e\u6797\u897f\u6bd4\u6c11\u4e3b\u5171\u548c\u570b","timezone":"Africa\/Sao_Tome","type":"boundary","wikidata":"Q1039","wikipedia":"pt:S\u00e3o Tom\u00e9 e Pr\u00edncipe"},"timestamp":1716078538,"representative_point":{"type":"Point","coordinates":[7.022167171795326,0.9737364]}},"geometry":{"type":"Polygon","coordinates":[[[6.260642,0.2494502],[6.4162281,-0.1861604],[6.7829156,-0.0844596],[7.6195288,1.4392509],[7.6054134,1.8331509],[7.2336441,1.8622492],[6.260642,0.2494502]]]}}