{"type":"Feature","properties":{"tags":{"ISO3166-1":"SV","ISO3166-1:alpha2":"SV","ISO3166-1:alpha3":"SLV","ISO3166-1:numeric":"222","admin_level":"2","boundary":"administrative","default_language":"es","denomination":"roman_catholic","flag":"http:\/\/upload.wikimedia.org\/wikipedia\/commons\/3\/34\/Flag_of_El_Salvador.svg","name":"El Salvador","name:Nawat":"Ne Tamakishtiani","name:ace":"\u00c8l Salvador","name:af":"El Salvador","name:als":"El Salvador","name:am":"\u12a4\u120d \u1233\u120d\u126b\u12f6\u122d","name:an":"El Salvador","name:ar":"\u0627\u0644\u0633\u0644\u0641\u0627\u062f\u0648\u0631","name:arz":"\u0627\u0644\u0633\u0627\u0644\u0641\u0627\u062f\u0648\u0631","name:ast":"El Salvador","name:ay":"El Salvador","name:az":"Salvador","name:ba":"\u0421\u0430\u043b\u044c\u0432\u0430\u0434\u043e\u0440","name:bat-smg":"Salvaduors","name:bcl":"El Salvador","name:be":"\u0421\u0430\u043b\u044c\u0432\u0430\u0434\u043e\u0440","name:be-tarask":"\u0421\u0430\u043b\u044c\u0432\u0430\u0434\u043e\u0440","name:bg":"\u0421\u0430\u043b\u0432\u0430\u0434\u043e\u0440","name:bm":"El Salvador","name:bn":"\u098f\u09b2 \u09b8\u09be\u09b2\u09ad\u09be\u09a6\u09cb\u09b0","name:bo":"\u0f68\u0f72\u0f63\u0f0b\u0f66\u0f63\u0f0b\u0f5d\u0f0b\u0f4c\u0f7c\u0f62\u0f0d","name:bpy":"\u098f\u09b2 \u09b8\u09be\u09b2\u09ad\u09be\u09a6\u09b0","name:br":"El Salvador","name:bs":"El Salvador","name:ca":"El Salvador","name:ce":"\u0421\u0430\u043b\u044c\u0432\u0430\u0434\u043e\u0440","name:ceb":"El Salvador","name:ckb":"\u0626\u06ce\u0644\u0633\u0627\u0644\u06a4\u0627\u062f\u06c6\u0631","name:crh":"El Salvador","name:cs":"Salvador","name:cy":"El Salvador","name:da":"El Salvador","name:de":"El Salvador","name:diq":"El Salvador","name:dsb":"El Salvador","name:dv":"\u0787\u07ac\u078d\u07b0\u0790\u07ac\u078d\u07b0\u0788\u07a6\u0791\u07af\u0783\u07aa","name:ee":"El Salvador","name:el":"\u0395\u03bb \u03a3\u03b1\u03bb\u03b2\u03b1\u03b4\u03cc\u03c1","name:en":"El Salvador","name:eo":"Salvadoro","name:es":"Rep\u00fablica de El Salvador","name:et":"El Salvador","name:eu":"El Salvador","name:ext":"El Salvaol","name:fa":"\u0627\u0644\u0633\u0627\u0644\u0648\u0627\u062f\u0648\u0631","name:fi":"El Salvador","name:fo":"El Salvador","name:fr":"Salvador","name:frp":"Salvador","name:frr":"El Salvador","name:fy":"El Salvador","name:ga":"An tSalvad\u00f3ir","name:gag":"El Salvador","name:gd":"El Salbhador","name:gl":"O Salvador","name:gn":"Salvador","name:gv":"Yn Salvador","name:hak":"Sat-ng\u00ec-ng\u00e1-t\u00f4","name:he":"\u05d0\u05dc \u05e1\u05dc\u05d5\u05d5\u05d3\u05d5\u05e8","name:hi":"\u0905\u0932 \u0938\u093e\u0932\u094d\u0935\u093e\u0921\u094b\u0930","name:hif":"El Salvador","name:hr":"Salvador","name:hsb":"El Salvador","name:ht":"Salvad\u00f2","name:hu":"Salvador","name:hy":"\u054d\u0561\u056c\u057e\u0561\u0564\u0578\u0580","name:ia":"El Salvador","name:id":"El Salvador","name:ilo":"El Salvador","name:io":"Salvadoria","name:is":"El Salvador","name:it":"El Salvador","name:ja":"\u30a8\u30eb\u30b5\u30eb\u30d0\u30c9\u30eb","name:jbo":"salbador","name:jv":"El Salvador","name:ka":"\u10e1\u10d0\u10da\u10d5\u10d0\u10d3\u10dd\u10e0\u10d8","name:kk":"\u042d\u043b\u044c-\u0421\u0430\u043b\u044c\u0432\u0430\u0434\u043e\u0440 \u0420\u0435\u0441\u043f\u0443\u0431\u043b\u0438\u043a\u0430\u0441\u044b","name:kn":"\u0c8e\u0cb2\u0ccd \u0cb8\u0cbe\u0cb2\u0ccd\u0cb5\u0ca1\u0cbe\u0cb0\u0ccd","name:ko":"\uc5d8\uc0b4\ubc14\ub3c4\ub974","name:ku":"El Salvador","name:kw":"El Salvador","name:la":"Salvatoria","name:lb":"El Salvador","name:li":"El Salvador","name:lij":"El Salvador","name:lmo":"El Salvador","name:ln":"El Salvador","name:lt":"Salvadoras","name:lv":"Salvadora","name:mhr":"\u0421\u0430\u043b\u044c\u0432\u0430\u0434\u043e\u0440","name:mi":"Te Whakaora","name:mk":"\u0415\u043b \u0421\u0430\u043b\u0432\u0430\u0434\u043e\u0440","name:ml":"\u0d0e\u0d7d \u0d38\u0d3e\u0d7d\u0d35\u0d26\u0d4b\u0d7c","name:mr":"\u090f\u0932 \u0938\u093e\u0932\u094d\u0935\u094d\u0939\u093e\u0921\u094b\u0930","name:mrj":"\u0421\u0430\u043b\u044c\u0432\u0430\u0434\u043e\u0440","name:ms":"El Salvador","name:mt":"El Salvador","name:my":"\u1021\u101a\u103a\u1006\u102c\u1017\u1031\u1012\u102d\u102f\u1014\u102d\u102f\u1004\u103a\u1004\u1036","name:mzn":"\u0627\u0644\u0633\u0627\u0644\u0648\u0627\u062f\u0624\u0631","name:na":"Ersarbador","name:nah":"C\u014dzcatl\u0101n","name:nan":"El Salvador","name:nds":"El Salvador","name:ne":"\u090f\u0932 \u0938\u093e\u0932\u094d\u092d\u093e\u0926\u094b\u0930","name:nl":"El Salvador","name:nn":"El Salvador","name:no":"El Salvador","name:nov":"El Salvador","name:oc":"Lo Salvador","name:or":"\u0b0f\u0b32 \u0b38\u0b3e\u0b32\u0b2d\u0b3e\u0b21\u0b4b\u0b30","name:os":"\u0421\u0430\u043b\u044c\u0432\u0430\u0434\u043e\u0440","name:pa":"\u0a38\u0a3e\u0a32\u0a35\u0a3e\u0a26\u0a4b\u0a30","name:pam":"El Salvador","name:pap":"El Salvador","name:pl":"Salwador","name:pms":"El Salvador","name:pnb":"\u0627\u0644 \u0633\u0627\u0644\u0648\u0627\u0688\u0648\u0631","name:ps":"\u0627\u06d0\u0644\u0633\u0644\u0648\u0627\u062f\u0648\u0631","name:pt":"El Salvador","name:qu":"Salwadur","name:ro":"El Salvador","name:roa-rup":"El Salvador","name:ru":"\u0421\u0430\u043b\u044c\u0432\u0430\u0434\u043e\u0440","name:rw":"Saluvadoro","name:sa":"\u090f\u0932-\u0938\u093e\u0932\u094d\u0935\u093e\u0921\u094b\u0930","name:sah":"\u042d\u043b \u0421\u0430\u043b\u0432\u0430\u0434\u043e\u0440","name:scn":"El Salvador","name:sco":"El Salvador","name:se":"El Salvador","name:sh":"Salvador","name:si":"\u0d91\u0dbd\u0dca \u0dc3\u0dd0\u0dbd\u0dca\u0dc0\u200d\u0da9\u0ddd","name:simple":"El Salvador","name:sk":"Salv\u00e1dor","name:sl":"Salvador","name:smn":"El Salvador","name:sms":"El Salvador","name:so":"El Salfador","name:sq":"Salvadori","name:sr":"\u0421\u0430\u043b\u0432\u0430\u0434\u043e\u0440","name:ss":"ISalivado","name:su":"\u00c9l Salvador","name:sv":"El Salvador","name:sw":"El Salvador","name:szl":"Salwad\u014dr","name:ta":"\u0b8e\u0bb2\u0bcd \u0b9a\u0bbe\u0bb2\u0bcd\u0bb5\u0b9f\u0bcb\u0bb0\u0bcd","name:tg":"\u0421\u0430\u043b\u0432\u0430\u0434\u043e\u0440","name:th":"\u0e1b\u0e23\u0e30\u0e40\u0e17\u0e28\u0e40\u0e2d\u0e25\u0e0b\u0e31\u0e25\u0e27\u0e32\u0e14\u0e2d\u0e23\u0e4c","name:tl":"El Salvador","name:tr":"El Salvador","name:tt":"\u0421\u0430\u043b\u044c\u0432\u0430\u0434\u043e\u0440","name:tzl":"Salvador","name:ug":"\u0626\u06d5\u0644 \u0633\u0627\u0644\u06cb\u0627\u062f\u0648\u0631","name:uk":"\u0421\u0430\u043b\u044c\u0432\u0430\u0434\u043e\u0440","name:ur":"\u0627\u06cc\u0644 \u0633\u06cc\u0644\u0648\u0627\u0688\u0648\u0631","name:uz":"El Salvador","name:vi":"El Salvador","name:vo":"Salvador\u00e4n","name:vro":"El Salvador","name:war":"El Salvador","name:wo":"Salbadoor","name:xal":"\u0421\u0430\u043b\u0432\u0430\u0434\u043e\u0440\u043c\u0443\u0434\u0438\u043d \u041e\u0440\u043d","name:yi":"\u05e2\u05dc \u05e1\u05d0\u05dc\u05d5\u05d5\u05d0\u05d3\u05d0\u05e8","name:yo":"El Salfador","name:yue":"\u85a9\u723e\u74e6\u591a","name:zea":"El Salvador","name:zh":"\u8428\u5c14\u74e6\u591a","name:zh-Hans":"\u8428\u5c14\u74e6\u591a","name:zh-Hant":"\u85a9\u723e\u74e6\u591a","name:zu":"El Salvador","official_name:cs":"Salvadorsk\u00e1 republika","official_name:de":"Republik El Salvador","official_name:es":"Rep\u00fablica de El Salvador","official_name:ru":"\u0420\u0435\u0441\u043f\u0443\u0431\u043b\u0438\u043a\u0430 \u042d\u043b\u044c-\u0421\u0430\u043b\u044c\u0432\u0430\u0434\u043e\u0440","population":"6000000","religion":"christian","timezone":"America\/El_Salvador","type":"boundary","wikidata":"Q792","wikipedia":"en:El Salvador"},"timestamp":1716078538,"representative_point":{"type":"Point","coordinates":[-88.95068778757476,13.7020427]}},"geometry":{"type":"Polygon","coordinates":[[[-90.2209042,13.563429],[-88.7895224,13.0322067],[-87.8915935,12.9521929],[-87.5971467,13.1706956],[-87.823137,13.3679259],[-87.7163629,13.4673704],[-87.7998856,13.9205122],[-88.2300035,13.9999384],[-88.4684948,13.8487914],[-89.0979283,14.4025463],[-89.3559888,14.4206107],[-89.5739159,14.4169276],[-89.5254472,14.2199807],[-90.023241,13.9390361],[-90.2209042,13.563429]]]}}