{"type":"Feature","properties":{"tags":{"ISO3166-1":"TL","ISO3166-1:alpha2":"TL","ISO3166-1:alpha3":"TLS","ISO3166-1:numeric":"626","admin_level":"2","border_type":"nation","boundary":"administrative","default_language":"pt","driving_side":"left","flag":"http:\/\/upload.wikimedia.org\/wikipedia\/commons\/2\/26\/Flag_of_East_Timor.svg","name":"Timor-Leste","name:ace":"Timor Leste","name:af":"Oos-Timor","name:als":"Osttimor","name:am":"\u121d\u1225\u122b\u1245 \u1272\u121e\u122d","name:ami":"Timor-leste","name:an":"Timor Oriental","name:ang":"\u0112asttimor","name:ar":"\u062a\u064a\u0645\u0648\u0631 \u0627\u0644\u0634\u0631\u0642\u064a\u0629","name:ary":"\u062a\u064a\u0645\u0648\u0631 \u0627\u0644\u0634\u0631\u0642\u064a\u0629","name:arz":"\u062a\u064a\u0645\u0648\u0631 \u0627\u0644\u0634\u0631\u0642\u064a\u0647","name:as":"\u09aa\u09c2\u09f1 \u099f\u09bf\u09ae\u09c1\u09f0","name:ast":"Timor Oriental","name:az":"\u015e\u0259rqi Timor","name:azb":"\u0634\u0631\u0642\u06cc \u062a\u06cc\u0645\u0648\u0631","name:ba":"\u041a\u04e9\u043d\u0441\u044b\u0493\u044b\u0448 \u0422\u0438\u043c\u043e\u0440","name:ban":"Timor L\u00e9st\u00e9","name:bar":"Osttimor","name:bat-smg":"R\u012bt\u016b Timuors","name:bcl":"Subangan na Timor","name:be":"\u0423\u0441\u0445\u043e\u0434\u043d\u0456 \u0422\u044b\u043c\u043e\u0440","name:be-tarask":"\u0423\u0441\u0445\u043e\u0434\u043d\u0456 \u0422\u044b\u043c\u043e\u0440","name:bg":"\u0418\u0437\u0442\u043e\u0447\u0435\u043d \u0422\u0438\u043c\u043e\u0440","name:bh":"\u092a\u0942\u0930\u094d\u092c \u0924\u093f\u092e\u094b\u0930","name:bi":"Is Timor","name:bjn":"Timor Lorosa'\u00e9","name:bn":"\u09aa\u09c2\u09b0\u09cd\u09ac \u09a4\u09bf\u09ae\u09c1\u09b0","name:bo":"\u0f64\u0f62\u0f0b\u0f4f\u0f72\u0f58\u0f7c\u0f62\u0f0d","name:bpy":"\u09ae\u09c1\u0999 \u09a4\u09bf\u09ae\u09c1\u09b0","name:br":"Timor ar Reter","name:bs":"Isto\u010dni Timor","name:bug":"\u1a08\u1a17\u1a06\u1a1a\u1a11 \u1a12\u1a19\u1a14\u1a08\u1a19","name:bxr":"\u0417\u04af\u04af\u043d \u0422\u0438\u043c\u043e\u0440","name:ca":"Timor Oriental","name:cdo":"D\u0115\u0324ng Timor","name:ce":"\u041c\u0430\u043b\u0445\u0431\u0430\u043b\u0435\u043d \u0422\u0438\u043c\u043e\u0440","name:ceb":"Sidlakang Timor","name:chr":"\u13d8\u13bc\u13b5-\u13b4\u13cd\u13d6","name:chy":"East Timor","name:ckb":"\u062a\u06cc\u0645\u06c6\u0631\u06cc \u0695\u06c6\u0698\u06be\u06d5\u06b5\u0627\u062a","name:co":"Timor Este","name:crh":"\u015earqiy Timor","name:cs":"V\u00fdchodn\u00ed Timor","name:csb":"P\u00f2r\u00ebnk\u00f2wi Timor","name:cy":"Dwyrain Timor","name:da":"\u00d8sttimor","name:de":"Osttimor","name:diq":"Timur\u00ea Rocvet\u0131\u015fi","name:dsb":"P\u00f3dzajt\u0161ny Timor","name:dty":"\u092a\u0942\u0930\u094d\u0935\u0940 \u091f\u093f\u092e\u094b\u0930","name:dv":"\u0787\u07a8\u0783\u07aa\u0789\u07a6\u078c\u07a9 \u0793\u07a8\u0789\u07af\u0783\u07aa","name:el":"\u0391\u03bd\u03b1\u03c4\u03bf\u03bb\u03b9\u03ba\u03cc \u03a4\u03b9\u03bc\u03cc\u03c1","name:en":"East Timor","name:es":"Timor Oriental","name:et":"Ida-Timor","name:eu":"Ekialdeko Timor","name:ext":"Timol Oriental","name:fa":"\u062a\u06cc\u0645\u0648\u0631 \u0634\u0631\u0642\u06cc","name:ff":"East Timor","name:fi":"It\u00e4-Timor","name:fo":"Eysturtimor","name:fr":"Timor oriental","name:frp":"Timor levantenc","name:frr":"Uast-Timor","name:fy":"East-Timor","name:ga":"An T\u00edom\u00f3r Thoir","name:gag":"G\u00fcnduusu Timor","name:gcr":"Timor oryantal","name:gd":"Tiomor an Ear","name:gl":"Timor Leste","name:gn":"Kuarahyres\u1ebd Timor","name:gom":"\u0909\u0926\u0947\u0902\u0924 \u0924\u093f\u092e\u094b\u0930","name:gu":"\u0aaa\u0ac2\u0ab0\u0acd\u0ab5 \u0aa4\u0abf\u0aae\u0acb\u0ab0","name:gv":"Yn Teemor Hiar","name:ha":"Timor-Leste","name:hak":"T\u00fbng Timor","name:he":"\u05de\u05d6\u05e8\u05d7 \u05d8\u05d9\u05de\u05d5\u05e8","name:hi":"\u092a\u0942\u0930\u094d\u0935 \u0924\u093f\u092e\u094b\u0930","name:hif":"East Timor","name:hr":"Isto\u010dni Timor","name:hsb":"Wuchodny Timor","name:ht":"Tim\u00f2 oryantal","name:hu":"Kelet-Timor","name:hy":"\u0531\u0580\u0587\u0565\u056c\u0575\u0561\u0576 \u0539\u056b\u0574\u0578\u0580","name:id":"Timor Leste","name:ie":"Ost-Timor","name:ilo":"Daya a Timor","name:io":"Estal Timor","name:is":"Austur-T\u00edmor","name:it":"Timor Est","name:ja":"\u6771\u30c6\u30a3\u30e2\u30fc\u30eb","name:jam":"Iis Timor","name:jv":"Timor W\u00e9tan","name:ka":"\u10d0\u10e6\u10db\u10dd\u10e1\u10d0\u10d5\u10da\u10d4\u10d7\u10d8 \u10e2\u10d8\u10db\u10dd\u10e0\u10d8","name:kaa":"Sh\u0131g'\u0131s Timor","name:kg":"Timor-Leste","name:kk":"\u0428\u044b\u0493\u044b\u0441 \u0422\u0438\u043c\u043e\u0440","name:km":"\u1791\u17b8\u1798\u17d0\u179a\u1781\u17b6\u1784\u1780\u17be\u178f","name:kn":"\u0caa\u0cc2\u0cb0\u0ccd\u0cb5 \u0c9f\u0cc0\u0cae\u0cca\u0cb0\u0ccd","name:ko":"\ub3d9\ud2f0\ubaa8\ub974","name:ku":"T\u00eemora Rojhilat","name:kw":"Timor Est","name:ky":"\u0411\u0430\u0442\u044b\u0448 \u0422\u0438\u043c\u043e\u0440","name:lad":"Timor Oryentala","name:lb":"Timor-Leste","name:li":"Oos-Timor","name:lij":"Timor Leste","name:lmo":"Timor Est","name:ln":"Timor ya mony\u025bl\u025b","name:lo":"\u0e9b\u0eb0\u0ec0\u0e97\u0e94\u0e95\u0eb4\u0ea1\u0ecd\u0ec1\u0ea5\u0eb1\u0e94\u0eaa\u0eb0\u0ec0\u0e95","name:lt":"Ryt\u0173 Timoras","name:lv":"Austrumtimora","name:lzh":"\u6771\u5e1d\u6c76","name:mai":"\u092a\u0942\u0930\u094d\u0935\u0940 \u091f\u093f\u092e\u094b\u0930","name:mg":"Tim\u00f4ro Atsinanana","name:mhr":"\u042d\u0440\u0432\u0435\u043b \u0422\u0438\u043c\u043e\u0440","name:mi":"T\u012bmoa-ki-te-R\u0101whiti","name:min":"Timor Leste","name:mk":"\u0418\u0441\u0442\u043e\u0447\u0435\u043d \u0422\u0438\u043c\u043e\u0440","name:ml":"\u0d15\u0d3f\u0d34\u0d15\u0d4d\u0d15\u0d7b \u0d1f\u0d3f\u0d2e\u0d4b\u0d7c","name:mn":"\u0417\u04af\u04af\u043d \u0422\u0438\u043c\u043e\u0440","name:mni":"\uabc7\uabe4\uabc3\uabe3\uabd4-\uabc2\uabe6\uabc1\uabed\uabc7\uabe6","name:mnw":"\u1000\u105f\u102d\u1014\u103a\u100d\u102f\u1004\u103a\u101e\u1019\u1039\u1019\u1010\u1012\u1033\u1019\u1036\u1000\u103a\u1000\u101b\u1031\u1007\u103c\u1033 \u1011\u1033\u1019\u101d\u103a\u101c\u1031\u101d\u103a\u101e\u103a\u1010\u1031","name:mr":"\u092a\u0942\u0930\u094d\u0935 \u0924\u093f\u092e\u094b\u0930","name:ms":"Timor Timur","name:mt":"Timor tal-Lvant","name:mwl":"Timor-Leste","name:my":"\u1021\u101b\u103e\u1031\u1037\u1010\u102e\u1019\u1031\u102c\u1014\u102d\u102f\u1004\u103a\u1004\u1036","name:myv":"\u0427\u0438\u043b\u0438\u0441\u0435\u043c\u0430\u043d\u044c \u0422\u0438\u043c\u043e\u0440 \u041c\u0430\u0441\u0442\u043e\u0440","name:mzn":"\u0634\u0631\u0642\u06cc \u062a\u06cc\u0645\u0648\u0631","name:na":"East Timor","name:nah":"Timor Tl\u0101pcopa","name:nan":"Tang Timor","name:nds":"Oosttimor","name:ne":"\u092a\u0942\u0930\u094d\u0935\u0940 \u091f\u093f\u092e\u094b\u0930","name:new":"\u092a\u0942\u0930\u094d\u0935 \u091f\u093f\u092e\u094b\u0930","name:nia":"Timor Leste","name:nl":"Oost-Timor","name:nn":"Aust-Timor","name:no":"\u00d8st-Timor","name:nov":"Timor-Leste","name:oc":"Tim\u00f2r \u00c8st","name:olo":"P\u00e4iv\u00e4nnouzu Timor","name:om":"Tiimor Bahaa","name:or":"\u0b2a\u0b42\u0b30\u0b4d\u0b2c \u0b1f\u0b3f\u0b2e\u0b4b\u0b30","name:os":"\u0421\u043a\u00e6\u0441\u00e6\u043d \u0422\u0438\u043c\u043e\u0440","name:pa":"\u0a2a\u0a42\u0a30\u0a2c\u0a40 \u0a24\u0a3f\u0a2e\u0a4b\u0a30","name:pam":"Aslagang Timor","name:pap":"Ost-Timor","name:pih":"Eist Tiimor","name:pl":"Timor Wschodni","name:pms":"Timor Est","name:pnb":"\u0686\u0691\u06be\u062f\u0627 \u062a\u06cc\u0645\u0648\u0631","name:pt":"Timor-Leste","name:qu":"Anti Timur","name:ro":"Timorul de Est","name:ru":"\u0412\u043e\u0441\u0442\u043e\u0447\u043d\u044b\u0439 \u0422\u0438\u043c\u043e\u0440","name:rw":"Timoro-Lesite","name:sah":"\u0418\u043b\u0438\u043d \u0422\u0438\u043c\u043e\u0440","name:sat":"\u1c65\u1c5f\u1c62\u1c5f\u1c5d \u1c5b\u1c64\u1c62\u1c73\u1c68","name:sc":"Timor Orientale","name:scn":"Timor Est","name:sco":"East Timor","name:sd":"\u0627\u0648\u0680\u0631 \u062a\u064a\u0645\u0648\u0631","name:se":"Nuorta-Timor","name:sg":"Tim\u00f4ro t\u00ee T\u00f6","name:sh":"Isto\u010dni Timor","name:shn":"\u1019\u102d\u1030\u1004\u103a\u1038\u1010\u102e\u1087\u1019\u1031\u1083\u1038\u1015\u103d\u1010\u103a\u1038\u101d\u107c\u103a\u1038\u1022\u103d\u1075\u103a\u1087","name:si":"\u0db1\u0dd0\u0d9c\u0dd9\u0db1\u0dc4\u0dd2\u0dbb \u0da7\u0dd2\u0db8\u0ddd\u0dbb\u0dba","name:sk":"V\u00fdchodn\u00fd Timor","name:sl":"Vzhodni Timor","name:sm":"Sasa\u02bbe Timor","name:smn":"Nuortt\u00e2-Timor","name:sms":"Nu\u00f5rtt-Timor","name:sn":"East Timor","name:so":"Bariga Timor","name:sq":"Timori Lindor","name:sr":"\u0418\u0441\u0442\u043e\u0447\u043d\u0438 \u0422\u0438\u043c\u043e\u0440","name:stq":"Aast-Timor","name:su":"Timor L\u00e9st\u00e9","name:sv":"\u00d6sttimor","name:sw":"Timor ya Mashariki","name:szl":"Weschodni Timor","name:szy":"Timor-leste","name:ta":"\u0b95\u0bbf\u0bb4\u0b95\u0bcd\u0b95\u0bc1\u0ba4\u0bcd \u0ba4\u0bbf\u0bae\u0bcb\u0bb0\u0bcd","name:tay":"Timor-leste","name:te":"\u0c24\u0c42\u0c30\u0c4d\u0c2a\u0c41 \u0c24\u0c3f\u0c2e\u0c4b\u0c30\u0c4d","name:tet":"Tim\u00f3r Lorosa'e","name:tg":"\u0422\u0438\u043c\u0443\u0440\u0438 \u0428\u0430\u0440\u049b\u04e3","name:th":"\u0e1b\u0e23\u0e30\u0e40\u0e17\u0e28\u0e15\u0e34\u0e21\u0e2d\u0e23\u0e4c-\u0e40\u0e25\u0e2a\u0e40\u0e15","name:tk":"G\u00fcndogar Timor","name:tl":"Silangang Timor","name:tpi":"Timor-Leste","name:tr":"Do\u011fu Timor","name:trv":"Timor-Leste","name:tt":"\u041a\u04e9\u043d\u0447\u044b\u0433\u044b\u0448 \u0422\u0438\u043c\u043e\u0440","name:tum":"East Timor","name:udm":"\u0428\u0443\u043d\u0434\u044b \u04dd\u0443\u0436\u0430\u043d \u043f\u0430\u043b \u0422\u0438\u043c\u043e\u0440","name:ug":"\u0634\u06d5\u0631\u0642\u0649\u064a \u062a\u0649\u0645\u0648\u0631","name:uk":"\u0421\u0445\u0456\u0434\u043d\u0438\u0439 \u0422\u0438\u043c\u043e\u0440","name:ur":"\u0645\u0634\u0631\u0642\u06cc \u062a\u06cc\u0645\u0648\u0631","name:uz":"Sharqiy Timor","name:vec":"Timor Est","name:vep":"P\u00e4ivnouzmaine Timor","name:vi":"\u0110\u00f4ng Timor","name:vls":"\u00d4ost-Timor","name:war":"Sinirangan nga Timor","name:wo":"Timoor gu Penku","name:wuu":"\u4e1c\u5e1d\u6c76","name:xal":"\u0417\u044e\u043d\u04bb\u0430\u0440\u0430 \u0422\u0438\u043c\u043e\u0440\u043c\u0443\u0434\u0438\u043d \u0423\u043b\u0441 \u041e\u0440\u043d","name:xmf":"\u10d1\u10df\u10d0\u10d4\u10d8\u10dd\u10da\u10d8 \u10e2\u10d8\u10db\u10dd\u10e0\u10d8","name:yi":"\u05de\u05d6\u05e8\u05d7 \u05d8\u05d9\u05de\u05d0\u05e8","name:yo":"\u00ccl\u00e0\u00f2r\u00f9n Timor","name:yue":"\u6771\u5e1d\u6c76","name:za":"Doeng Timor","name:zea":"O\u00f4st-Timor","name:zh":"\u4e1c\u5e1d\u6c76 \/ \u6771\u5e1d\u6c76","name:zh-Hans":"\u4e1c\u5e1d\u6c76","name:zh-Hant":"\u6771\u5e1d\u6c76","official_name":"Rep\u00fablika Demokr\u00e1tika Timor Lorosa'e","official_name:cs":"Demokratick\u00e1 republika V\u00fdchodn\u00ed Timor","official_name:en":"Democratic Republic of Timor-Leste","official_name:es":"Rep\u00fablica Democr\u00e1tica de Timor Oriental","official_name:fr":"R\u00e9publique d\u00e9mocratique du Timor-Leste","official_name:pt":"Rep\u00fablica Democr\u00e1tica de Timor-Leste","official_name:ru":"\u0414\u0435\u043c\u043e\u043a\u0440\u0430\u0442\u0438\u0447\u0435\u0441\u043a\u0430\u044f \u0420\u0435\u0441\u043f\u0443\u0431\u043b\u0438\u043a\u0430 \u0412\u043e\u0441\u0442\u043e\u0447\u043d\u044b\u0439 \u0422\u0438\u043c\u043e\u0440","timezone":"Asia\/Dili","type":"boundary","wikidata":"Q574","wikipedia":"pt:Timor-Leste"},"timestamp":1716078538,"representative_point":{"type":"Point","coordinates":[126.03472414503122,-8.86310135]}},"geometry":{"type":"MultiPolygon","coordinates":[[[[125.8253324,-8.2538023],[125.6310868,-8.1175638],[124.9972085,-8.5333272],[124.931763,-9.027536],[125.186701,-9.027983],[124.982087,-9.241598],[125.237962,-9.6096854],[127.1065762,-8.8623865],[127.542867,-8.4206449],[127.2146989,-8.2311064],[126.6582089,-8.2152037],[125.8253324,-8.2538023]]],[[[124.0848743,-9.0756929],[124.0417683,-9.3407845],[124.2965943,-9.5030215],[124.493893,-8.9712103],[124.0848743,-9.0756929]]]]}}