{"type":"Feature","properties":{"tags":{"ISO3166-1":"UA","ISO3166-1:alpha2":"UA","ISO3166-1:alpha3":"UKR","ISO3166-1:numeric":"804","according_to:RU":"no","according_to:UA":"yes","admin_level":"2","alt_name:eo":"Ukrainujo","alt_name:vi":"Uy Ki\u00ean","boundary":"administrative","default_language":"uk","flag":"http:\/\/upload.wikimedia.org\/wikipedia\/commons\/4\/49\/Flag_of_Ukraine.svg","int_name":"Ukraine","name":"\u0423\u043a\u0440\u0430\u0457\u043d\u0430","name:ab":"\u0423\u043a\u0440\u0430\u0438\u043d\u0430","name:ace":"Ukraina","name:af":"Oekra\u00efne","name:als":"Ukraine","name:am":"\u12e9\u12ad\u122c\u1295","name:an":"Ucra\u00edna","name:ang":"Ucr\u00e6gna","name:ar":"\u0623\u0648\u0643\u0631\u0627\u0646\u064a\u0627","name:arc":"\u0710\u0718\u0729\u072a\u0710\u071d\u0722\u0710","name:arz":"\u0627\u0648\u0643\u0631\u0627\u0646\u064a\u0627","name:ast":"Ucra\u00edna","name:az":"Ukrayna","name:ba":"\u0423\u043a\u0440\u0430\u0438\u043d\u0430","name:bar":"Ukraine","name:bat-smg":"Okra\u0117na","name:bcl":"Ukranya","name:be":"\u0423\u043a\u0440\u0430\u0456\u043d\u0430","name:be-tarask":"\u0423\u043a\u0440\u0430\u0456\u043d\u0430","name:bg":"\u0423\u043a\u0440\u0430\u0439\u043d\u0430","name:bi":"Ukraine","name:bn":"\u0987\u0989\u0995\u09cd\u09b0\u09c7\u09a8","name:bo":"\u0f68\u0f74\u0f40\u0f0b\u0f62\u0f61\u0f72\u0f0b\u0f53\u0f72\u0f0d","name:bpy":"\u0987\u0989\u0995\u09cd\u09b0\u09c7\u09a8","name:br":"Ukraina","name:bs":"Ukrajina","name:bxr":"\u0423\u043a\u0440\u0430\u0438\u043d\u0430","name:ca":"Ucra\u00efna","name:cbk-zam":"Ukrania","name:cdo":"\u016c-k\u00e1ik-l\u00e0ng","name:ce":"\u0423\u043a\u0440\u0430\u0438\u043d\u0430","name:ceb":"Ukranya","name:chr":"\u13f3\u13a7\u13ea\u13c2","name:chy":"Ukraine","name:ckb":"\u0626\u0648\u06a9\u0631\u0627\u06cc\u0646\u0627","name:crh":"Ukraina","name:cs":"Ukrajina","name:csb":"\u00d9krajina","name:cu":"\u041e\u0443\u043a\u0440\u0430\u0438\u043d\u0430","name:cv":"\u0423\u043a\u0440\u0430\u0438\u043d\u0430","name:cy":"Wcr\u00e1in","name:da":"Ukraine","name:de":"Ukraine","name:diq":"Ukrayna","name:dsb":"Ukraina","name:dv":"\u0794\u07aa\u0786\u07b0\u0783\u07ac\u0787\u07a8\u0782\u07b0","name:ee":"Ukraine","name:el":"\u039f\u03c5\u03ba\u03c1\u03b1\u03bd\u03af\u03b1","name:en":"Ukraine","name:eo":"Ukrainio","name:es":"Ucrania","name:et":"Ukraina","name:eu":"Ukraina","name:ext":"Ucr\u00e1nia","name:fa":"\u0627\u0648\u06a9\u0631\u0627\u06cc\u0646","name:fi":"Ukraina","name:fo":"Ukraina","name:fr":"Ukraine","name:frp":"Ucrayena","name:frr":"Ukraine","name:fy":"Oekra\u00efne","name:ga":"An \u00dacr\u00e1in","name:gag":"Ukrayna","name:gan":"\u70cf\u514b\u862d","name:gd":"An Ucr\u00e0in","name:gl":"Ucra\u00edna","name:gn":"Ukya\u00f1a","name:gu":"\u0aaf\u0ac1\u0a95\u0acd\u0ab0\u0ac7\u0aa8","name:gv":"Yn Ookraan","name:hak":"V\u00fb-khiet-l\u00e0n","name:haw":"\u02bbUkelena","name:he":"\u05d0\u05d5\u05e7\u05e8\u05d0\u05d9\u05e0\u05d4","name:hi":"\u092f\u0941\u0915\u094d\u0930\u0947\u0928","name:hif":"Ukraine","name:hr":"Ukrajina","name:hsb":"Ukraina","name:ht":"Ikr\u00e8n","name:hu":"Ukrajna","name:hy":"\u0548\u0582\u056f\u0580\u0561\u056b\u0576\u0561","name:ia":"Ukraina","name:id":"Ukraina","name:ie":"Ucraina","name:ig":"Yukrain","name:ilo":"Ukrania","name:io":"Ukrainia","name:is":"\u00dakra\u00edna","name:it":"Ucraina","name:ja":"\u30a6\u30af\u30e9\u30a4\u30ca","name:jbo":"vurgu'e","name:jv":"Ukraina","name:ka":"\u10e3\u10d9\u10e0\u10d0\u10d8\u10dc\u10d0","name:kaa":"Ukraina","name:kab":"Ukrayin","name:kbd":"\u0423\u043a\u0440\u0430\u0438\u043d\u044d","name:kg":"Ukrayina","name:kk":"\u0423\u043a\u0440\u0430\u0438\u043d\u0430","name:kl":"Ukraine","name:km":"\u17a2\u17ca\u17bb\u1799\u1780\u17d2\u179a\u17c2\u1793","name:kn":"\u0caf\u0cc1\u0c95\u0ccd\u0cb0\u0cc7\u0ca8\u0ccd","name:ko":"\uc6b0\ud06c\ub77c\uc774\ub098","name:koi":"\u0423\u043a\u0440\u0430\u0438\u043d\u0430","name:krc":"\u0423\u043a\u0440\u0430\u0438\u043d\u0430","name:ku":"\u00dbkrayna","name:kv":"\u0423\u043a\u0440\u0430\u0438\u043d\u0430","name:kw":"Ukrayn","name:ky":"\u0423\u043a\u0440\u0430\u0438\u043d\u0430","name:la":"Ucraina","name:lad":"Ukraina","name:lb":"Ukrain","name:lez":"\u0423\u043a\u0440\u0430\u0438\u043d\u0430","name:li":"Oekra\u00efne","name:lij":"Ucrainn-a","name:lmo":"\u00dccraina","name:ln":"Ukraine","name:lt":"Ukraina","name:ltg":"Ukraina","name:lv":"Ukraina","name:lzh":"\u70cf\u514b\u862d","name:mdf":"\u0423\u043a\u0440\u0430\u0438\u043d","name:mg":"Okraina","name:mhr":"\u0423\u043a\u0440\u0430\u0438\u043d\u0430","name:mi":"\u016akareinga","name:mk":"\u0423\u043a\u0440\u0430\u0438\u043d\u0430","name:ml":"\u0d09\u0d15\u0d4d\u0d30\u0d48\u0d7b","name:mn":"\u0423\u043a\u0440\u0430\u0439\u043d","name:mr":"\u092f\u0941\u0915\u094d\u0930\u0947\u0928","name:ms":"Ukraine","name:mt":"Ukrajna","name:mwl":"Oucr\u00e1nia","name:my":"\u101a\u1030\u1000\u101b\u102d\u1014\u103a\u1038\u1014\u102d\u102f\u1004\u103a\u1004\u1036","name:myv":"\u0423\u043a\u0440\u0430\u0438\u043d\u0430","name:mzn":"\u0627\u0648\u06a9\u0631\u0627\u06cc\u0646","name:na":"Ukraine","name:nah":"Ucrania","name:nan":"Ukrayina","name:nap":"Ucraina","name:nds":"Ukraine","name:nds-nl":"Oekra\u00efne","name:ne":"\u092f\u0941\u0915\u094d\u0930\u0947\u0928","name:new":"\u092f\u0941\u0915\u094d\u0930\u0947\u0928","name:nl":"Oekra\u00efne","name:nn":"Ukraina","name:no":"Ukraina","name:nov":"Ukraina","name:nrm":"Ukra\u00eene","name:nv":"Y\u00f3\u00f3kwein","name:oc":"Ucra\u00efna","name:or":"\u0b5f\u0b41\u0b15\u0b4d\u0b30\u0b47\u0b28","name:os":"\u0423\u043a\u0440\u0430\u0438\u043d\u00e6","name:pa":"\u0a2f\u0a42\u0a15\u0a4d\u0a30\u0a47\u0a28","name:pam":"Ukranya","name:pap":"Ukrania","name:pcd":"Oucrinne","name:pih":"Yukrayn","name:pl":"Ukraina","name:pms":"Ucrain-a","name:pnb":"\u06cc\u0648\u06a9\u0631\u06cc\u0646","name:pnt":"\u039f\u03c5\u03ba\u03c1\u03b1\u03bd\u03af\u03b1","name:ps":"\u0627\u0648\u06a9\u0631\u0627\u06cc\u0646","name:pt":"Ucr\u00e2nia","name:qu":"Ukranya","name:rm":"Ucraina","name:rmy":"Ukraina","name:ro":"Ucraina","name:roa-tara":"Ucraine","name:ru":"\u0423\u043a\u0440\u0430\u0438\u043d\u0430","name:rue":"\u0423\u043a\u0440\u0430\u0457\u043d\u0430","name:rw":"Ikerene","name:sah":"\u0423\u043a\u0440\u0430\u0438\u043d\u0430","name:sc":"Ucraina","name:scn":"Ucraina","name:sco":"Ukraine","name:se":"Ukraina","name:sh":"Ukrajina","name:sk":"Ukrajina","name:sl":"Ukrajina","name:sm":"Ukraine","name:smn":"Ukraina","name:sms":"Ukraina","name:sn":"Ukraine","name:so":"Ukrain","name:sq":"Ukraina","name:sr":"\u0423\u043a\u0440\u0430\u0458\u0438\u043d\u0430","name:ss":"IYukhureni","name:stq":"Ukraine","name:su":"Ukraina","name:sv":"Ukraina","name:sw":"Ukraine","name:szl":"Ukrajina","name:ta":"\u0b89\u0b95\u0bcd\u0bb0\u0bc8\u0ba9\u0bcd","name:te":"\u0c09\u0c15\u0c4d\u0c30\u0c46\u0c2f\u0c3f\u0c28\u0c4d","name:tg":"\u0423\u043a\u0440\u0430\u0439\u0438\u043d\u0430","name:th":"\u0e1b\u0e23\u0e30\u0e40\u0e17\u0e28\u0e22\u0e39\u0e40\u0e04\u0e23\u0e19","name:tk":"Ukraina","name:tl":"Ukranya","name:tok":"ma Ukawina","name:tpi":"Yukren","name:tr":"Ukrayna","name:ts":"Ukraine","name:tt":"\u0423\u043a\u0440\u0430\u0438\u043d\u0430","name:tum":"Ukraine","name:tw":"Ukraine","name:tzl":"Ucra\u00edna","name:udm":"\u0423\u043a\u0440\u0430\u0438\u043d\u0430","name:ug":"\u0626\u06c7\u0643\u0631\u0627\u0626\u0649\u0646\u0627","name:uk":"\u0423\u043a\u0440\u0430\u0457\u043d\u0430","name:ur":"\u06cc\u0648\u06a9\u0631\u06cc\u0646","name:uz":"Ukraina","name:vec":"Ucraina","name:vep":"Ukrain","name:vi":"Ukraina","name:vls":"Oekra\u00efne","name:vo":"Lukray\u00e4n","name:vro":"Ukraina","name:wa":"Oucrinne","name:war":"Ukranya","name:wo":"Ukreen","name:xal":"\u0423\u043a\u0440\u0430\u0438\u043d\u043c\u0443\u0434\u0438\u043d \u041e\u0440\u043d","name:xmf":"\u10e3\u10d9\u10e0\u10d0\u10d8\u10dc\u10d0","name:yi":"\u05d0\u05d5\u05e7\u05e8\u05d0\u05d9\u05e0\u05e2","name:yo":"Ukr\u00e9\u00ecn","name:yue":"\u70cf\u514b\u862d","name:zea":"Oekra\u00efne","name:zh":"\u4e4c\u514b\u5170","name:zh-Hans":"\u4e4c\u514b\u5170","name:zh-Hant":"\u70cf\u514b\u862d","note":"retrieved from v951","official_name":"\u0423\u043a\u0440\u0430\u0457\u043d\u0430","old_name:vi":"\u00d4 Kh\u1eafc Lan","type":"boundary","wikidata":"Q212","wikipedia":"uk:\u0423\u043a\u0440\u0430\u0457\u043d\u0430"},"timestamp":1716078538,"representative_point":{"type":"Point","coordinates":[34.003042503809795,48.2821337]}},"geometry":{"type":"Polygon","coordinates":[[[22.5657103,49.0879954],[22.155256,48.403388],[22.5902764,48.1073415],[22.82417,48.1175352],[22.8977094,47.9540405],[23.176771,48.119768],[23.4936973,47.9678959],[24.577721,47.967503],[25.0397492,47.725341],[25.3111278,47.9142923],[26.1843731,47.9946644],[26.630225,48.2596252],[26.8257178,48.3040343],[26.725152,48.4116791],[27.5966347,48.4914523],[28.3547454,48.2455696],[28.4630751,48.0742285],[28.5773463,48.1824491],[28.9258472,47.9601399],[29.1753154,47.9937782],[29.2815702,47.8879451],[29.1575637,47.4592329],[29.4270454,47.2921482],[29.5740647,47.3704656],[29.557411,46.9580908],[29.9793525,46.8194177],[29.8761222,46.5467361],[30.1637143,46.4135329],[28.981347,46.489047],[28.9789995,46.0034735],[28.5198391,45.7369615],[28.5151856,45.4998842],[28.2138288,45.4672099],[28.7109378,45.2236659],[29.4297317,45.4425841],[30.0454257,45.0866606],[30.451817,45.1544751],[30.430962,45.3784167],[30.0663366,45.5058723],[31.1590964,46.4096818],[31.4593257,46.0764938],[32.7727018,45.8266419],[32.2974057,45.5749258],[32.235686,45.2758033],[33.2951871,44.9405202],[33.1103056,44.5059764],[33.6774746,44.1950417],[34.2375152,44.2321868],[34.735755,44.5848013],[35.1774068,44.5973337],[35.6322493,44.8491155],[36.6097225,44.9406672],[36.530486,45.1992024],[36.6684499,45.6266206],[35.785215,45.643321],[35.5747509,45.4895333],[35.2334204,45.7917299],[35.1509695,45.9315235],[35.8444224,46.409999],[36.1752769,46.3074194],[36.4987834,46.5281547],[36.8291301,46.4657472],[37.097886,46.6898727],[37.4375896,46.7158298],[38.3381215,46.9807515],[38.2847269,47.5443096],[38.7726084,47.6855249],[38.8389444,47.8654938],[39.7949201,47.8703755],[39.7764975,48.0397836],[40.0207043,48.2536483],[39.8408125,48.3096602],[39.9467075,48.3541298],[39.8497724,48.5686954],[39.6606968,48.6094301],[39.8000067,48.8426356],[40.0798362,48.8699514],[39.663949,49.0009298],[40.2218056,49.2511975],[40.0296187,49.4540906],[40.135757,49.6169429],[39.8064088,49.5581257],[39.1799184,49.8887192],[38.9302388,49.7969077],[38.3131483,50.088449],[38.0329353,49.9003948],[37.4906704,50.457335],[36.647948,50.217656],[36.0682619,50.451111],[35.6264889,50.3519808],[35.3904639,50.5800052],[35.4961851,50.6788724],[35.3257629,50.9468253],[35.4088819,51.0433873],[35.1476163,51.0826362],[35.1502664,51.2234198],[34.2304829,51.265097],[34.3075867,51.519417],[34.0803623,51.6662788],[34.4155875,51.8256995],[33.8364718,52.3613887],[32.9009789,52.24527],[32.3765776,52.337586],[32.1993372,52.066086],[31.7817307,52.1119993],[30.9497126,52.0896803],[30.5065153,51.6006183],[30.6556975,51.376181],[30.5386247,51.2626864],[30.1801708,51.5125224],[29.3261982,51.3776741],[29.1175363,51.661638],[28.7529308,51.4145633],[28.2593843,51.6811359],[27.8454039,51.6291106],[27.7590982,51.4740641],[27.7275982,51.6046141],[27.2403601,51.6018071],[27.2023541,51.7732655],[25.2583397,51.9688076],[24.3725574,51.878531],[23.9965063,51.5800932],[23.610097,51.6231704],[23.6178349,51.5081817],[23.6484099,51.2874239],[24.1457369,50.8690143],[23.9574523,50.7945291],[24.0701051,50.5033883],[23.2800844,50.1005448],[22.6408214,49.5299899],[22.8915758,49.0077272],[22.5657103,49.0879954]]]}}