{"type":"Feature","properties":{"tags":{"ISO3166-1":"US","ISO3166-1:alpha2":"US","ISO3166-1:alpha3":"USA","ISO3166-1:numeric":"840","abbr_name:en":"U.S.A","admin_level":"2","alt_name:be":"\u0417\u043b\u0443\u0447\u0430\u043d\u044b\u044f \u0428\u0442\u0430\u0442\u044b;\u0428\u0442\u0430\u0442\u044b","alt_name:en":"America","alt_name:es":"Estados Unidos;EUA","alt_name:fr":"\u00c9tats-Unis","alt_name:ko":"\uc544\uba54\ub9ac\uce74","alt_name:vi":"Hoa K\u00ec;M\u0129;H\u1ee3p ch\u00fang qu\u1ed1c Hoa K\u00ec","alt_official_name:en":"The United States of America","alt_short_name:en":"US","alt_short_name:pl":"St. Zj.","border_type":"national","boundary":"administrative","default_language":"en","flag":"https:\/\/upload.wikimedia.org\/wikipedia\/commons\/a\/a4\/Flag_of_the_United_States.svg","int_name":"United States of America","int_name:ko":"\uc544\uba54\ub9ac\uce74\ud569\uc911\uad6d","name":"United States","name:ab":"\u0410\u043c\u0435\u0440\u0438\u043a\u0430 \u0415\u0438\u0434\u0443 \u0410\u0448\u0442\u0430\u0442\u049b\u04d9\u0430","name:ace":"Amirika Car\u00e9kat","name:af":"Verenigde State van Amerika","name:als":"Vereinigte Schtaate vo Amerika","name:am":"\u12e8\u1270\u1263\u1260\u1229\u1275 \u12e8\u12a0\u121c\u122a\u12ab \u130d\u12db\u1276\u127d","name:an":"Estatos Unitos d'America","name:anc":"\u1f29\u03bd\u03c9\u03bc\u03ad\u03bd\u03b1\u03b9 \u03a0\u03bf\u03bb\u03b9\u03c4\u03b5\u03af\u03b1\u03b9 \u03c4\u1fc6\u03c2 \u039d\u03b5\u03bf\u03b9\u03ba\u03bf\u03c5\u03bc\u03ad\u03bd\u03b7\u03c2","name:ang":"Ge\u0101nl\u01e3tan R\u012bcu American","name:ar":"\u0627\u0644\u0648\u0644\u0627\u064a\u0627\u062a \u0627\u0644\u0645\u062a\u0651\u062d\u062f\u0629 \u0627\u0644\u0623\u0645\u0631\u064a\u0643\u064a\u0651\u0629","name:arc":"\u0710\u0718\u071a\u0715\u0722\u0710 \u0721\u071a\u071d\u0715\u0710","name:arz":"\u0627\u0645\u0631\u064a\u0643\u0627","name:as":"\u09ae\u09be\u09f0\u09cd\u0995\u09bf\u09a8 \u09af\u09c1\u0995\u09cd\u09a4\u09f0\u09be\u09b7\u09cd\u099f\u09cd\u09f0","name:ast":"Estaos Xun\u00edos d'Am\u00e9rica","name:av":"\u0410\u043c\u0435\u0440\u0438\u043a\u0430\u043b\u044a\u0443\u043b \u0426\u043e\u043b\u044a\u0430\u0440\u0430\u043b \u0428\u0442\u0430\u0442\u0430\u043b","name:ay":"Istadus Unidus","name:az":"Amerika Birl\u0259\u015fmi\u015f \u015etatlar\u0131","name:az-Arab":"\u0622\u0645\u0631\u06cc\u06a9\u0627 \u0628\u06cc\u0631\u0644\u0634\u0645\u06cc\u0634 \u0627\u06cc\u0627\u0644\u062a\u0644\u0631\u06cc","name:azb":"\u0622\u0645\u0631\u06cc\u06a9\u0627 \u0628\u06cc\u0631\u0644\u0634\u0645\u06cc\u0634 \u0627\u06cc\u0627\u0644\u062a\u0644\u0631\u06cc","name:ba":"\u0410\u043c\u0435\u0440\u0438\u043a\u0430 \u04a0\u0443\u0448\u043c\u0430 \u0428\u0442\u0430\u0442\u0442\u0430\u0440\u044b","name:bar":"Vaeinigtn Staatn vo Amerika","name:bat-smg":"JAV","name:bcl":"Estados Unidos","name:be":"\u0417\u043b\u0443\u0447\u0430\u043d\u044b\u044f \u0428\u0442\u0430\u0442\u044b \u0410\u043c\u0435\u0440\u044b\u043a\u0456","name:be-tarask":"\u0417\u043b\u0443\u0447\u0430\u043d\u044b\u044f \u0428\u0442\u0430\u0442\u044b \u0410\u043c\u044d\u0440\u044b\u043a\u0456","name:bg":"\u0421\u044a\u0435\u0434\u0438\u043d\u0435\u043d\u0438 \u0430\u043c\u0435\u0440\u0438\u043a\u0430\u043d\u0441\u043a\u0438 \u0449\u0430\u0442\u0438","name:bi":"Yunaeted Stet blong Amerika","name:bm":"Amerika ka Kelenyalen Jamanaw","name:bn":"\u09ae\u09be\u09b0\u09cd\u0995\u09bf\u09a8 \u09af\u09c1\u0995\u09cd\u09a4\u09b0\u09be\u09b7\u09cd\u099f\u09cd\u09b0","name:bo":"\u0f68\u0f0b\u0f58\u0f7a\u0f0b\u0f62\u0f72\u0f0b\u0f41\u0f0b\u0f62\u0f92\u0fb1\u0f63\u0f0b\u0f55\u0fb2\u0f53\u0f0b\u0f58\u0f49\u0f58\u0f0b\u0f60\u0f56\u0fb2\u0f7a\u0f63\u0f0b\u0f62\u0f92\u0fb1\u0f63\u0f0b\u0f41\u0f56\u0f0d","name:bpy":"\u09a4\u09bf\u09b2\u09aa\u09be\u09b0\u09be\u09b7\u09cd\u099f\u09cd\u09b0","name:br":"Stado\u00f9-Unanet Amerika","name:bs":"Sjedinjene Ameri\u010dke Dr\u017eave","name:bxr":"\u0410\u043c\u0435\u0440\u0438\u043a\u0430\u043d \u041d\u044d\u0433\u044d\u0434\u044d\u04bb\u044d\u043d \u0423\u043b\u0430\u0441","name:ca":"Estats Units d'Am\u00e8rica","name:cbk-zam":"Estados Unidos de America","name:cdo":"M\u012b-l\u00e9-gi\u0115ng H\u0103k-c\u00e9\u0324\u1e73ng-gu\u00f3k","name:ce":"I\u0430\u043c\u0435\u0440\u043a\u0430 \u043f\u0430\u0447\u0445\u044c\u0430\u043b\u043a","name:ceb":"Estados Unidos sa Amerika","name:chr":"\u13cc\u13ca \u13a2\u13f3\u13be\u13b5\u13cd\u13d4\u13c5 \u13cd\u13a6\u13da\u13a9","name:chy":"United States","name:ckb":"\u0648\u06cc\u0644\u0627\u06cc\u06d5\u062a\u06d5 \u06cc\u06d5\u06a9\u06af\u0631\u062a\u0648\u0648\u06d5\u06a9\u0627\u0646\u06cc \u0626\u06d5\u0645\u0631\u06cc\u06a9\u0627","name:co":"Stati Uniti d'America","name:crh":"Amerika Qo\u015fma \u015etatlar\u0131","name:cs":"Spojen\u00e9 st\u00e1ty americk\u00e9","name:csb":"Zjedn\u00f3n\u00e9 Kraje Americzi","name:cu":"\u0410\u043c\u0454\u0440\u0438\u043a\u0430\u0301\u043d\u044c\u0441\u043a\ua651 \u0464\u0434\u044c\u043d\u0465\u043d\ua651\u0301 \u0414\u0440\u044c\u0436\u0430\u0301\u0432\ua651","name:cv":"\u0410\u043c\u0435\u0440\u0438\u043a\u0103\u0440\u0438 \u041f\u0115\u0440\u043b\u0435\u0448\u04f3\u043b\u043b\u0115 \u0428\u0442\u0430\u0442\u0441\u0435\u043c","name:cy":"Unol Daleithiau America","name:da":"Amerikas Forenede Stater","name:de":"Vereinigte Staaten von Amerika","name:din":"Amatnhom Pawut","name:diq":"Dewlet\u00ea Amerikay\u00ea Yewbiyayey","name:dsb":"Zjadno\u015bone staty Ameriki","name:dv":"\u0787\u07ac\u0789\u07ac\u0783\u07a8\u0786\u07a7","name:dz":"\u0f61\u0f74\u0f0b\u0f53\u0f60\u0f72\u0f4a\u0f7a\u0f4a\u0f0b\u0f66\u0f72\u0f0b\u0f4a\u0f7a\u0f66","name:ee":"United States","name:el":"\u0397\u03bd\u03c9\u03bc\u03ad\u03bd\u03b5\u03c2 \u03a0\u03bf\u03bb\u03b9\u03c4\u03b5\u03af\u03b5\u03c2 \u03c4\u03b7\u03c2 \u0391\u03bc\u03b5\u03c1\u03b9\u03ba\u03ae\u03c2","name:eml":"Stat Un\u00ee","name:en":"United States","name:eo":"Usono","name:es":"Estados Unidos de Am\u00e9rica","name:et":"Ameerika \u00dchendriigid","name:eu":"Ameriketako Estatu Batuak","name:ext":"Estaus U\u00f1\u00edus d'Am\u00e9rica","name:fa":"\u0627\u06cc\u0627\u0644\u0627\u062a \u0645\u062a\u062d\u062f\u0647 \u0622\u0645\u0631\u06cc\u06a9\u0627","name:ff":"Dowlaaji Dentu\u0257i","name:fi":"Amerikan yhdysvallat","name:fo":"Sambandsr\u00edki\u00f0 Amerika","name:fr":"\u00c9tats-Unis d'Am\u00e9rique","name:frp":"\u00c8tats-Unis d\u2019Am\u00e8rica","name:frr":"Feriind Stoote foon Ameerika","name:fur":"St\u00e2ts Un\u00eets di Americhe","name:fy":"Feriene Steaten fan Amearika","name:ga":"St\u00e1it Aontaithe Mheirice\u00e1","name:gag":"Amerika Birle\u015fik Devletl\u00e4ri","name:gan":"\u7f8e\u570b","name:gd":"Na St\u00e0itean Aonaichte","name:gl":"Estados Unidos de Am\u00e9rica","name:glk":"\u0627\u0645\u0631\u06cc\u06a9\u0627","name:gn":"Tet\u00e3 pete\u0129 reko Am\u00e9rikagua","name:grc":"\u1f29\u03bd\u03c9\u03bc\u03ad\u03bd\u03b1\u03b9 \u03a0\u03bf\u03bb\u03b9\u03c4\u03b5\u1fd6\u03b1\u03b9 \u03c4\u1fc6\u03c2 \u1f08\u03bc\u03b5\u03c1\u03b9\u03ba\u1fc6\u03c2","name:gu":"\u0ab8\u0a82\u0aaf\u0ac1\u0a95\u0acd\u0aa4 \u0ab0\u0abe\u0a9c\u0acd\u0aaf \u0a85\u0aae\u0ac7\u0ab0\u0abf\u0a95\u0abe","name:gv":"Steatyn Unnaneysit America","name:ha":"kunkiyar taraiyar Amurika","name:hak":"M\u00ee-li-ki\u00ean Ha\u030dp-chung-koet","name:haw":"\u02bbAmelika Hui P\u016b \u02bbia","name:he":"\u05d0\u05e8\u05e6\u05d5\u05ea \u05d4\u05d1\u05e8\u05d9\u05ea","name:hi":"\u0938\u0902\u092f\u0941\u0915\u094d\u0924 \u0930\u093e\u091c\u094d\u092f \u0905\u092e\u0947\u0930\u093f\u0915\u093e","name:hif":"United States","name:hr":"Sjedinjene Ameri\u010dke Dr\u017eave","name:hsb":"Zjedno\u0107ene staty Ameriki","name:ht":"Etazini","name:hu":"Amerikai Egyes\u00fclt \u00c1llamok","name:hy":"\u0531\u0574\u0565\u0580\u056b\u056f\u0561\u0575\u056b \u0544\u056b\u0561\u0581\u0575\u0561\u056c \u0546\u0561\u0570\u0561\u0576\u0563\u0576\u0565\u0580","name:ia":"Statos Unite de America","name:id":"Amerika Serikat","name:ie":"Unit States de America","name:ig":"Njikota Obodo Amerika","name:ik":"United States of America","name:ilo":"stados Unidos iti Amerika","name:io":"Unionita Stati di Amerika","name:is":"Bandar\u00edki Nor\u00f0ur-Amer\u00edku","name:it":"Stati Uniti d'America","name:iu":"\u140a\u14a5\u140a\u14d5\u1472","name:ja":"\u30a2\u30e1\u30ea\u30ab\u5408\u8846\u56fd","name:jbo":".iunaited.steits.","name:jv":"Am\u00e9rika Sar\u00e9kat","name:ka":"\u10d0\u10db\u10d4\u10e0\u10d8\u10d9\u10d8\u10e1 \u10e8\u10d4\u10d4\u10e0\u10d7\u10d4\u10d1\u10e3\u10da\u10d8 \u10e8\u10e2\u10d0\u10e2\u10d4\u10d1\u10d8","name:kaa":"Amerika Qurama Shtatlar\u0131","name:kab":"Iwunak Yedduklen","name:kbd":"\u0410\u043c\u0435\u0440\u0438\u043a\u044d \u0428\u0442\u0430\u0442 \u0417\u044d\u0433\u0443\u044d\u0442","name:ki":"United States","name:kk":"\u0410\u043c\u0435\u0440\u0438\u043a\u0430 \u049a\u04b1\u0440\u0430\u043c\u0430 \u0428\u0442\u0430\u0442\u0442\u0430\u0440\u044b","name:kk-Arab":"\u0627\u0645\u06d5\u0631\u0649\u064a\u0643\u0627 \u0642\u06c7\u0631\u0627\u0645\u0627 \u0634\u062a\u0627\u062a\u062a\u0627\u0631\u0649","name:kl":"Naalagaaffeqatigiit","name:km":"\u179f\u17a0\u179a\u178a\u17d2\u178b\u17a2\u17b6\u1798\u17c1\u179a\u17b7\u1780","name:kn":"\u0c85\u0cae\u0cc7\u0cb0\u0cbf\u0c95 \u0cb8\u0c82\u0caf\u0cc1\u0c95\u0ccd\u0ca4 \u0cb8\u0c82\u0cb8\u0ccd\u0ca5\u0cbe\u0ca8","name:ko":"\ubbf8\uad6d","name:koi":"\u0410\u043c\u0435\u0440\u0438\u043a\u0430\u0438\u0441\u044c \u04e6\u0442\u043b\u0430\u0430\u0441\u044c\u04e7\u043c \u0428\u0442\u0430\u0442\u0442\u044d\u0437","name:krc":"\u0410\u043c\u0435\u0440\u0438\u043a\u0430\u043d\u044b \u0411\u0438\u0440\u043b\u0435\u0448\u0433\u0435\u043d \u0428\u0442\u0430\u0442\u043b\u0430\u0440\u044b","name:ks":"\u0631\u06cc\u0627\u0633\u062a \u06c1\u0627\u0626\u06d2 \u0645\u062a\u062d\u062f\u06c1","name:ksh":"Vereenichde Staate van Amerika","name:ku":"Dewlet\u00ean Yekb\u00fby\u00ee y\u00ean Amer\u00eekay\u00ea","name:kv":"\u0410\u043c\u0435\u0440\u0438\u043a\u0430\u0441\u0430 \u04e6\u0442\u0443\u0432\u0442\u04e7\u043c \u0428\u0442\u0430\u0442\u044a\u044f\u0441","name:kw":"Statys Unys Amerika","name:ky":"\u0410\u043c\u0435\u0440\u0438\u043a\u0430 \u041a\u043e\u0448\u043c\u043e \u0428\u0442\u0430\u0442\u0442\u0430\u0440\u044b","name:la":"Civitates Foederatae Americae","name:lad":"Estatos Unitos d'Amerika","name:lb":"Vereenegt Staate vun Amerika","name:lbe":"\u0410\u043c\u0435\u0440\u0438\u043a\u0430\u043d\u0430\u043b \u0426\u0430\u0447\u04c0\u0443\u043d\u0445\u044c\u0443 \u0428\u0442\u0430\u0442\u0440\u0443","name:lez":"\u0410\u043c\u0435\u0440\u0438\u043a\u0430\u0434\u0438\u043d \u0421\u0430\u0434\u0445\u044c\u0430\u043d\u0432\u0430\u0439 \u0428\u0442\u0430\u0442\u0430\u0440","name:lg":"Amereka","name:li":"Vereinegde State van Amerika","name:lij":"Stati Un\u00efi d'America","name:lmo":"Stat \u00dcn\u00ec d'America","name:ln":"Lisang\u00e1 lya Amer\u00edka","name:lo":"\u0eaa\u0eb0\u0eab\u0eb0\u0ea5\u0eb1\u0e94\u0ead\u0eb2\u0ec0\u0ea1\u0ea5\u0eb4\u0e81\u0eb2","name:lt":"Jungtin\u0117s Amerikos Valstijos","name:ltg":"Amerikys Sa\u0161kierstuos Va\u013csteibys","name:lv":"Amerikas Savienot\u0101s Valstis","name:lzh":"\u7f8e\u5229\u5805\u5408\u773e\u570b","name:map-bms":"Amerika Serikat","name:mdf":"\u0410\u043c\u0435\u0440\u0438\u043a\u043e\u043d\u044c \u0410\u0439\u043c\u0430\u043a\u043d\u0435\u043d\u044c \u0421\u043e\u0442\u043a\u0441\u0441\u043d\u0430","name:mg":"Etazonia","name:mhr":"\u0410\u043c\u0435\u0440\u0438\u043a\u044b\u0441\u0435 \u0423\u0448\u044b\u043c\u043e \u0428\u0442\u0430\u0442\u0432\u043b\u0430\u043a","name:mi":"Amerika","name:mia":"mih\u0161i-maalhsonki","name:min":"Amerika Sarikat","name:mk":"\u0421\u043e\u0435\u0434\u0438\u043d\u0435\u0442\u0438 \u0410\u043c\u0435\u0440\u0438\u043a\u0430\u043d\u0441\u043a\u0438 \u0414\u0440\u0436\u0430\u0432\u0438","name:ml":"\u0d05\u0d2e\u0d47\u0d30\u0d3f\u0d15\u0d4d\u0d15\u0d28\u0d4d \u0d10\u0d15\u0d4d\u0d2f\u0d28\u0d3e\u0d1f\u0d41\u0d15\u0d33\u0d4d","name:mn":"\u0410\u043c\u0435\u0440\u0438\u043a\u0438\u0439\u043d \u041d\u044d\u0433\u0434\u0441\u044d\u043d \u0423\u043b\u0441","name:mo":"\u0421\u0442\u0430\u0442\u0435\u043b\u0435 \u0423\u043d\u0438\u0442\u0435 \u0430\u043b\u0435 \u0410\u043c\u0435\u0440\u0438\u0447\u0438\u0439","name:mr":"\u0905\u092e\u0947\u0930\u093f\u0915\u0947\u091a\u0940 \u0938\u0902\u092f\u0941\u0915\u094d\u0924 \u0938\u0902\u0938\u094d\u0925\u093e\u0928\u0947","name:mrj":"\u0410\u043c\u0435\u0440\u0438\u043a\u044b\u043d \u0423\u0448\u044b\u043c\u044b \u0428\u0442\u0430\u0442\u0432\u043b\u04d3\u0436\u04f9","name:ms":"Amerika Syarikat","name:mt":"Stati Uniti tal-Amerika","name:mwl":"Stados Ounidos de la Am\u00e9rica","name:my":"\u1021\u1019\u1031\u101b\u102d\u1000\u1014\u103a\u1015\u103c\u100a\u103a\u1011\u1031\u102c\u1004\u103a\u1005\u102f","name:myv":"\u0410\u043c\u0435\u0440\u0438\u043a\u0430\u043d\u044c \u0412\u0435\u0439\u0442\u044c\u0441\u044d\u043d\u0434\u044f\u0432\u043a\u0441 \u0428\u0442\u0430\u0442\u0442\u043d\u044d","name:mzn":"\u0645\u062a\u062d\u062f\u0647 \u0627\u06cc\u0627\u0644\u0627\u062a \u0622\u0645\u0631\u06cc\u06a9\u0627","name:na":"Eben Merika","name:nah":"Tlacetil\u012blli Tlahtohc\u0101y\u014dtl Ixachitl\u0101n","name:nan":"America Ha\u030dp-chi\u00f2ng-kok","name:nap":"State Aunite d'Amereca","name:nds":"Verenigten Staten vun Amerika","name:nds-nl":"Verienigde Staoten van Amerika","name:ne":"\u0938\u0902\u092f\u0941\u0915\u094d\u0924 \u0930\u093e\u091c\u094d\u092f \u0905\u092e\u0947\u0930\u093f\u0915\u093e","name:new":"\u0938\u0902\u092f\u0941\u0915\u094d\u0924 \u0930\u093e\u091c\u094d\u092f \u0905\u092e\u0947\u0930\u093f\u0915\u093e","name:nl":"Verenigde Staten","name:nn":"USA","name:no":"Amerikas forente stater","name:nov":"Unionati States de Amerika","name:nrm":"\u00catats Unnis d'Am\u00e9thique","name:nso":"United States of America","name:nv":"W\u00e1\u00e1shindoon Bik\u00e9yah A\u0142hidadiidzoo\u00edg\u00ed\u00ed","name:oc":"Estats Units d'America","name:om":"USA","name:or":"\u0b2f\u0b41\u0b15\u0b4d\u0b24\u0b30\u0b3e\u0b37\u0b4d\u0b1f\u0b4d\u0b30 \u0b06\u0b2e\u0b47\u0b30\u0b3f\u0b15\u0b3e","name:os":"\u0410\u043c\u0435\u0440\u0438\u043a\u00e6\u0439\u044b \u0418\u0443\u0433\u043e\u043d\u0434 \u0428\u0442\u0430\u0442\u0442\u00e6","name:pa":"\u0a38\u0a70\u0a2f\u0a41\u0a15\u0a24 \u0a30\u0a3e\u0a1c \u0a05\u0a2e\u0a30\u0a40\u0a15\u0a3e","name:pag":"Estados Unidos","name:pam":"United States ning America","name:pap":"Estadonan Uni di Merka","name:pcd":"\u00c9tats-Unis Anm\u00e9rikes","name:pdc":"Vereenichde Schtaate vun Amerikaa","name:pfl":"Verainischde Schdaade vun Ameriga","name:pih":"Yunitid Staits","name:pl":"Stany Zjednoczone","name:pms":"Stat Un\u00ec d'Am\u00e9rica","name:pnb":"\u0627\u0645\u0631\u06cc\u06a9\u06c1","name:ps":"\u062f \u0627\u0645\u0631\u06cc\u06a9\u0627 \u0645\u062a\u062d\u062f\u0647 \u0622\u06cc\u0627\u0644\u0627\u062a\u0648\u0646\u0647","name:pt":"Estados Unidos da Am\u00e9rica","name:qu":"Hukllachasqa Amirika Suyukuna","name:rm":"Stadis Unids da l'America","name:rn":"Leta Zunze Ubumwe za Amerika","name:ro":"Statele Unite ale Americii","name:roa-tara":"Stat\u00e8re Aun\u00ecte d'Americhe","name:ru":"\u0421\u043e\u0435\u0434\u0438\u043d\u0451\u043d\u043d\u044b\u0435 \u0428\u0442\u0430\u0442\u044b \u0410\u043c\u0435\u0440\u0438\u043a\u0438","name:rue":"\u0421\u043f\u043e\u0454\u043d\u044b \u0428\u0442\u0430\u0442\u044b \u0410\u043c\u0435\u0440\u0438\u0446\u044c\u043a\u044b","name:rw":"Leta Zunze Ubumwe z\u2019Amerika","name:sa":"\u0938\u0902\u092f\u0941\u0915\u094d\u0924\u093e\u0928\u093f \u0930\u093e\u091c\u094d\u092f\u093e\u0928\u093f","name:sah":"\u0410\u043c\u0435\u0440\u0438\u043a\u0430 \u0425\u043e\u043b\u0431\u043e\u04bb\u0443\u043a\u0442\u0430\u0430\u0445 \u0428\u0442\u0430\u0442\u0442\u0430\u0440\u0430","name:sc":"Istados Unidos de America","name:scn":"Stati Uniti","name:sco":"Unitit States o Americae","name:sd":"\u0622\u0645\u0631\u064a\u06aa\u0627","name:se":"Amerihk\u00e1 ovttastuvvan st\u00e1htat","name:sg":"\u00c2K\u00f6d\u00f6r\u00f6-\u00f4ko t\u00ee Amer\u00eeka","name:sh":"Sjedinjene Ameri\u010dke Dr\u017eave","name:si":"\u0d85'\u0db8\u0dd9\u0dbb\u0dd2\u0d9a\u0dcf\u0dc0\u0dda \u0d91\u0d9a\u0dca\u0dc3\u0dad\u0dca \u0dbb\u0dcf\u0da2\u0dca\u0dba\u0dba\u0db1\u0dca","name:sk":"Spojen\u00e9 \u0161t\u00e1ty americk\u00e9","name:sl":"Zdru\u017eene dr\u017eave Amerike","name:sm":"Iunaite Sitete o Amerika","name:smn":"Amerik ovt\u00e2stumstaatah","name:sms":"Ameriikk \u00f5htt\u00f5\u00f5vv\u00e2mv\u00e4\u00e4\u02b9ld","name:sn":"United States of America","name:so":"Mareykanka","name:sq":"Shtetet e Bashkuara t\u00eb Amerik\u00ebs","name:sr":"\u0421\u0458\u0435\u0434\u0438\u045a\u0435\u043d\u0435 \u0410\u043c\u0435\u0440\u0438\u0447\u043a\u0435 \u0414\u0440\u0436\u0430\u0432\u0435","name:sr-Latn":"Sjedinjene Ameri\u010dke Dr\u017eave","name:srn":"Kondre Makandrameki","name:ss":"IMelika","name:stq":"Fereende Stoaten fon Amerikoa","name:su":"Am\u00e9rika Sarikat","name:sv":"USA","name:sw":"Muungano wa Madola ya Amerika","name:syc":"\u0710\u0718\u071a\u0715\u0722\u0710 \u0721\u071a\u071d\u0715\u0710","name:szl":"Zjednocz\u014dne Sztaty Ameryki","name:ta":"\u0b90\u0b95\u0bcd\u0b95\u0bbf\u0baf \u0b85\u0bae\u0bc6\u0bb0\u0bbf\u0b95\u0bcd\u0b95\u0bbe","name:te":"\u0c05\u0c2e\u0c46\u0c30\u0c3f\u0c15\u0c3e \u0c38\u0c02\u0c2f\u0c41\u0c15\u0c4d\u0c24 \u0c30\u0c3e\u0c37\u0c4d\u0c1f\u0c4d\u0c30\u0c3e\u0c32\u0c41","name:tet":"Estadu Naklibur Sira Am\u00e9rika Nian","name:tg":"\u0418\u0451\u043b\u043e\u0442\u0438 \u041c\u0443\u0442\u0442\u0430\u04b3\u0438\u0434\u0430\u0438 \u0410\u043c\u0440\u0438\u043a\u043e","name:th":"\u0e2a\u0e2b\u0e23\u0e31\u0e10\u0e2d\u0e40\u0e21\u0e23\u0e34\u0e01\u0e32","name:tk":"Amerikany\u0148 Birle\u015fen \u015etatlary","name:tl":"Estados Unidos","name:tn":"USA","name:to":"Pule\u02bbanga Fakataha 'o 'Amelika","name:tpi":"Yunaitet Stet bilong Amerika","name:tr":"Amerika Birle\u015fik Devletleri","name:ts":"United States","name:tt":"\u0410\u043c\u0435\u0440\u0438\u043a\u0430 \u041a\u0443\u0448\u043c\u0430 \u0428\u0442\u0430\u0442\u043b\u0430\u0440\u044b","name:tw":"USA","name:ty":"Fenua Marite","name:tzl":"Estats Viensi\u00e7eschti d'America","name:udm":"\u0410\u043c\u0435\u0440\u0438\u043a\u0430\u043b\u044d\u043d \u041e\u0433\u0430\u0437\u0435\u044f\u0441\u044c\u043a\u0435\u043c \u0428\u0442\u0430\u0442\u044a\u0451\u0441\u044b\u0437","name:ug":"\u0626\u0627\u0645\u06d0\u0631\u0649\u0643\u0627 \u0642\u0648\u0634\u0645\u0627 \u0634\u062a\u0627\u062a\u0644\u0649\u0631\u0649","name:uk":"\u0421\u043f\u043e\u043b\u0443\u0447\u0435\u043d\u0456 \u0428\u0442\u0430\u0442\u0438 \u0410\u043c\u0435\u0440\u0438\u043a\u0438","name:ur":"\u0631\u06cc\u0627\u0633\u062a \u06c1\u0627\u0626\u06d2 \u0645\u062a\u062d\u062f\u06c1","name:uz":"Amerika Qo\u02bbshma Shtatlari","name:vec":"Stati Un\u00eci de la M\u00e8rica","name:vep":"Amerikan \u00dchtenzoittud Valdkundad","name:vi":"Hoa K\u1ef3","name:vls":"Ver\u00eanigde Stoaten van Amerika","name:vo":"Lamerik\u00e4n","name:vro":"Ameeriga \u00dctisriigiq","name:wa":"Estats Unis d' Amerike","name:war":"Estados Unidos","name:wo":"Diwaan-yu-Bennoo yu Aamerig","name:wuu":"\u7f8e\u56fd","name:xal":"\u0410\u043c\u0435\u0440\u0438\u043a\u0438\u043d \u041d\u0438\u0438\u0446\u04d9\u0442\u04d9 \u041e\u0440\u043d \u041d\u0443\u0442\u0433\u0443\u0434","name:xh":"IYunayithedi Steyitsi","name:xmf":"\u10d0\u10db\u10d4\u10e0\u10d8\u10d9\u10d0\u10e8 \u10d0\u10d9\u10dd\u10d0\u10e0\u10d7\u10d0\u10e4\u10d8\u10da\u10d8 \u10e8\u10e2\u10d0\u10e2\u10d4\u10e4\u10d8","name:yi":"\u05e4\u05d0\u05e8\u05d0\u05d9\u05d9\u05e0\u05d9\u05e7\u05d8\u05e2 \u05e9\u05d8\u05d0\u05d8\u05df \u05e4\u05d5\u05df \u05d0\u05de\u05e2\u05e8\u05d9\u05e7\u05e2","name:yo":"\u00c0w\u1ecdn \u00ccp\u00ednl\u1eb9\u0300 A\u1e63\u1ecd\u0300kan Am\u1eb9\u0301r\u00edk\u00e0","name:yue":"\u7f8e\u5229\u5805\u5408\u773e\u570b","name:za":"Meijgoz","name:zea":"Vere\u00eanigde Staeten","name:zh":"\u7f8e\u5229\u575a\u5408\u4f17\u56fd\/\u7f8e\u5229\u5805\u5408\u773e\u570b","name:zh-Hans":"\u7f8e\u5229\u575a\u5408\u4f17\u56fd","name:zh-Hant":"\u7f8e\u5229\u5805\u5408\u773e\u570b","name:zu":"IMelika","not:official_name:vi":"H\u1ee3p ch\u1ee7ng qu\u1ed1c Hoa K\u1ef3;H\u1ee3p ch\u00fang qu\u1ed1c Hoa K\u00ec;H\u1ee3p ch\u1ee7ng qu\u1ed1c Hoa K\u1ef3;H\u1ee3p ch\u1ee7ng qu\u1ed1c Hoa K\u00ec","official_name":"United States of America","official_name:ar":"\u0627\u0644\u0648\u0650\u0644\u064e\u0627\u064a\u064e\u0627\u062a \u0627\u0644\u0645\u064f\u062a\u064e\u0651\u062d\u0650\u062f\u064e\u0629 \u0627\u0644\u0623\u064e\u0645\u0631\u0650\u064a\u0643\u0650\u064a\u064e\u0651\u0629","official_name:arc":"\u0710\u072c\u072a\u0718\u072c\u0710 \u0721\u071a\u071d\u0715\u0710 \u0715\u0710\u0721\u072a\u071d\u071f\u0710","official_name:chr":"\u13cc\u13ca\u13a2\u13f3\u13be\u13b5\u13cd\u13d4\u13c5\u13cd\u13a6\u13da\u13a9 \u13be\u13bf \u13a0\u13ba\u13f0\u13df","official_name:cs":"Spojen\u00e9 st\u00e1ty americk\u00e9","official_name:de":"Vereinigte Staaten von Amerika","official_name:din":"Pawuut Matiic ke Amer\u00efka","official_name:en":"United States of America","official_name:eo":"Unui\u011dintaj \u015ctatoj de Ameriko","official_name:es":"Estados Unidos de Am\u00e9rica","official_name:grc":"\u1f29\u03bd\u03c9\u03bc\u03ad\u03bd\u03b1\u03b9 \u03a0\u03bf\u03bb\u03b9\u03c4\u03b5\u1fd6\u03b1\u03b9 \u03c4\u1fc6\u03c2 \u1f08\u03bc\u03b5\u03c1\u03b9\u03ba\u1fc6\u03c2","official_name:kk-Arab":"\u0627\u0645\u06d5\u0631\u0649\u064a\u0643\u0627 \u0642\u06c7\u0631\u0627\u0645\u0627 \u0634\u062a\u0627\u062a\u062a\u0627\u0631\u0649","official_name:ko":"\ubbf8\ud569\uc911\uad6d","official_name:ks":"\u0631\u06cc\u0627\u0633\u062a \u06c1\u0627\u0626\u06d2 \u0645\u062a\u062d\u062f\u06c1","official_name:nl":"Verenigde Staten van Amerika","official_name:pl":"Stany Zjednoczone Ameryki","official_name:ps":"\u062f \u0627\u0645\u0631\u06cc\u06a9\u0627 \u0645\u062a\u062d\u062f\u0647 \u0622\u06cc\u0627\u0644\u0627\u062a\u0648\u0646\u0647","official_name:sv":"Amerikas F\u00f6renta Stater","official_name:syc":"\u0710\u072c\u072a\u0718\u072c\u0710 \u0721\u071a\u071d\u0715\u0710 \u0715\u0710\u0721\u072a\u071d\u071f\u0710","official_name:ug":"\u0626\u0627\u0645\u06d0\u0631\u0649\u0643\u0627 \u0642\u0648\u0634\u0645\u0627 \u0634\u0649\u062a\u0627\u062a\u0644\u0649\u0631\u0649","official_name:ur":"\u0631\u06cc\u0627\u0633\u062a \u06c1\u0627\u0626\u06d2 \u0645\u062a\u062d\u062f\u06c1","official_name:vi":"H\u1ee3p ch\u00fang qu\u1ed1c Hoa K\u1ef3;H\u1ee3p ch\u00fang qu\u1ed1c Hoa K\u00ec;H\u1ee3p ch\u1ee7ng qu\u1ed1c Hoa K\u1ef3;H\u1ee3p ch\u1ee7ng qu\u1ed1c Hoa K\u00ec","old_name:ar":"\u0627\u0644\u0648\u0644\u0627\u064a\u0627\u062a \u0627\u0644\u0645\u062a\u062d\u062f\u0629 \u0627\u0644\u0623\u0645\u0631\u064a\u0643\u064a\u0629 \u0627\u0644\u0634\u0645\u0627\u0644\u064a\u0629","old_name:de":"Vereinigte Staaten von Nordamerika","old_name:en":"United States of North America","old_name:eo":"Unui\u011dintaj \u015ctatoj de Nordameriko","old_name:es":"Estados Unidos de Norteam\u00e9rica","old_name:ko":"\ubd81\uc544\uba54\ub9ac\uce74\ud569\uc911\uad6d","old_name:pl":"Stany Zjednoczone Ameryki P\u00f3\u0142nocnej","old_name:ru":"\u0421\u0435\u0432\u0435\u0440\u043e-\u0410\u043c\u0435\u0440\u0438\u043a\u0430\u043d\u0441\u043a\u0438\u0435 \u0421\u043e\u0435\u0434\u0438\u043d\u0451\u043d\u043d\u044b\u0435 \u0428\u0442\u0430\u0442\u044b","old_name:vi":"M\u1ef9 L\u1ee3i Ki\u00ean;Ma Ly C\u0103n;Nh\u00e3 Di L\u00fd","old_short_name:ru":"\u0421\u0410\u0421\u0428","population":"331449281","population:date":"2020","short_name":"USA","short_name:az":"AB\u015e","short_name:be":"\u0417\u0428\u0410","short_name:bg":"\u0421\u0410\u0429","short_name:chr":"\u13a0\u13b9\u13f0\u13df","short_name:cs":"Spojen\u00e9 st\u00e1ty","short_name:en":"USA","short_name:es":"EE.UU.","short_name:fr":"\u00c9.-U.","short_name:ko":"\ubbf8\uad6d","short_name:mo":"\u0421\u0423\u0410","short_name:nl":"VS","short_name:pl":"USA","short_name:ru":"\u0421\u0428\u0410","short_name:sr":"\u0421\u0410\u0414","short_name:sr-Latn":"SAD","short_name:tr":"ABD","short_name:vi":"M\u1ef9","short_name:zh":"\u7f8e\u56fd\/\u7f8e\u570b","short_name:zh-Hans":"\u7f8e\u56fd","short_name:zh-Hant":"\u7f8e\u570b","source:population":"census.gov","type":"boundary","wikidata":"Q30","wikipedia":"en:United States"},"timestamp":1716078538,"representative_point":{"type":"Point","coordinates":[-99.00970131086018,36.8190952]}},"geometry":{"type":"MultiPolygon","coordinates":[[[[179.168377,51.9762868],[179.5256124,51.6970749],[180,51.7940888],[180,52.1384488],[179.7767065,52.2296285],[179.3149451,52.1656028],[179.168377,51.9762868]]],[[[176.8727663,51.9013035],[177.1853792,51.6303915],[177.753381,51.7382995],[179.1427856,51.1555479],[179.617976,51.1839591],[179.8055669,51.3421269],[179.6946548,51.5199194],[178.8609817,51.8366072],[178.8807094,52.0398392],[178.5912499,52.1844603],[177.2788262,52.3133135],[176.8727663,51.9013035]]],[[[175.5162865,52.4056507],[175.8707273,52.1341236],[176.3051344,52.3503006],[175.8906066,52.5874649],[175.5162865,52.4056507]]],[[[172.1006192,52.9473949],[172.5663104,52.6159877],[173.1530838,52.5777897],[173.0738977,52.2931619],[173.5854548,52.1509481],[173.9649431,52.2210639],[174.1026123,52.5051673],[174.6023476,52.4393798],[174.8506286,52.6188072],[174.6812579,52.8109396],[173.1958731,53.1861888],[172.5127335,53.1907268],[172.1006192,52.9473949]]],[[[166.3841029,19.3305338],[166.6126116,19.0728759],[166.8656515,19.2314872],[166.6599659,19.5201067],[166.3841029,19.3305338]]],[[[145.8449915,16.0274096],[146.0482111,15.8042852],[146.273391,16.0203066],[146.0660444,16.2290858],[145.8449915,16.0274096]]],[[[145.6056615,17.625107],[145.6638508,17.1847699],[145.9735871,17.137632],[146.0152484,17.7311301],[145.7780726,17.8160149],[145.6056615,17.625107]]],[[[145.498729,18.0664318],[145.7759863,17.8528801],[146.0104411,18.2088062],[145.7135079,18.3623115],[145.498729,18.0664318]]],[[[145.32758,14.8587337],[145.4522138,14.6488222],[145.7128626,14.7019667],[145.9882649,15.0802978],[145.9792708,15.4153677],[145.5731183,15.3984379],[145.32758,14.8587337]]],[[[145.425588,16.3888042],[145.554254,16.1509786],[145.8554991,16.1896003],[145.9467306,16.8428076],[145.6292949,16.8619155],[145.425588,16.3888042]]],[[[145.4265904,18.8011103],[145.638413,18.5259432],[145.9095375,18.7374004],[145.6900984,19.0127042],[145.4265904,18.8011103]]],[[[144.9959969,20.0323547],[145.2539209,19.526011],[145.5844584,19.5618508],[145.3702337,20.1847171],[145.1364598,20.2205586],[144.9959969,20.0323547]]],[[[144.9164679,14.141702],[145.2235118,13.9132889],[145.4961147,14.2130117],[145.2174654,14.4008198],[144.9164679,14.141702]]],[[[144.4137024,13.4652086],[144.4894377,13.1021062],[144.7770604,13.0498443],[145.1582236,13.6433914],[144.8092,13.8510723],[144.4137024,13.4652086]]],[[[144.6738139,20.557387],[144.8820503,20.3356709],[145.1158909,20.5390403],[144.9047342,20.7542678],[144.6738139,20.557387]]],[[[-65.1123392,17.7043162],[-65.0209534,17.5094592],[-64.7634738,17.4739757],[-64.3562671,17.7728265],[-64.5189459,17.9710635],[-64.8071302,17.9835609],[-65.1123392,17.7043162]]],[[[-64.9559611,18.6114349],[-67.1189091,18.7168287],[-67.6005285,18.5574271],[-67.700541,18.3696692],[-67.4015792,18.1766069],[-67.4081893,17.8724551],[-67.204491,17.7296516],[-66.0111941,17.7367078],[-64.6401383,18.1063419],[-64.6394444,18.3641667],[-64.8638889,18.3975],[-64.9559611,18.6114349]]],[[[-125.0036167,48.4951793],[-125.0215797,47.9493418],[-124.4935243,47.1559843],[-124.2337755,46.0698835],[-124.4536551,43.7998158],[-124.9068796,42.7821481],[-124.7210961,42.5783875],[-124.6319307,41.7779821],[-124.3609639,41.4861533],[-124.3990281,40.9642243],[-124.7155565,40.3799507],[-124.0977236,39.7232103],[-123.9572037,38.8316457],[-123.2192902,38.1359436],[-123.3282303,37.6735748],[-123.043384,37.4955557],[-122.7766806,37.6030258],[-122.6223675,37.089987],[-122.2326935,36.7817872],[-122.1176507,36.2052193],[-120.8995325,34.9892176],[-120.8823397,34.5141459],[-120.6168989,34.2859719],[-120.7607091,34.1125559],[-120.6424098,33.9043257],[-120.1284187,33.6937198],[-119.1618615,33.8973013],[-118.6596573,33.8305795],[-118.8144496,33.579068],[-119.2046925,33.6351125],[-119.2685883,33.3827049],[-119.8041201,33.5412463],[-119.9201294,33.2934411],[-119.4492114,33.0148142],[-119.2261927,33.1132391],[-119.2029819,33.3094453],[-118.8164461,33.3784316],[-118.6770823,33.2275522],[-118.8234477,32.932857],[-118.3946022,32.599814],[-118.1165549,32.7749448],[-118.3387751,33.0964533],[-118.0821773,33.2361205],[-118.1537434,33.4975867],[-117.5545498,33.0486109],[-117.4648989,32.5903873],[-114.7199073,32.7187133],[-114.8135922,32.4940383],[-111.0749904,31.3323464],[-108.2084835,31.3333744],[-108.2084941,31.7836962],[-106.45068,31.76423],[-104.92263,30.60366],[-104.50828,29.63249],[-103.28593,28.97678],[-102.86766,29.22344],[-102.67399,29.74463],[-102.31557,29.88003],[-101.40112,29.7712],[-100.67459,29.10038],[-100.29199,28.2763],[-99.5137,27.56953],[-99.44583,27.0216],[-99.0845303,26.3979773],[-98.19492,26.05339],[-97.6626,26.03815],[-97.42441,25.84042],[-96.92403,25.9756524],[-97.1522033,27.0952055],[-96.8117768,27.8005677],[-94.4542153,29.3048983],[-93.2235143,29.5728048],[-91.5471998,29.1864072],[-90.9502528,28.8414999],[-89.6350325,29.0437081],[-89.6306869,28.8054608],[-89.4019792,28.705406],[-89.0275989,28.7965194],[-88.7696027,29.0551888],[-88.9048062,29.4031012],[-88.6375626,29.7058914],[-88.6014232,30.0199899],[-86.6355158,30.1958727],[-85.9973746,30.0438163],[-85.4921062,29.5005718],[-85.0830522,29.3879191],[-84.0549877,29.8627705],[-83.2481417,28.9436288],[-82.9899179,28.8742474],[-82.9121331,28.5653466],[-83.0768237,27.8756872],[-82.9546256,27.4607371],[-82.3596161,26.3573174],[-82.0452568,26.2234723],[-81.8564604,25.7079698],[-81.5634742,25.6194748],[-81.3727749,25.3511077],[-81.3353472,25.0616374],[-82.2746049,24.7557948],[-82.3108234,24.3992195],[-81.8894423,24.2523093],[-81.3511958,24.3520095],[-80.2453949,24.85419],[-79.9316201,25.4444943],[-79.8072551,26.8097225],[-80.3535908,28.1662588],[-80.3089464,28.5233408],[-80.841883,29.4003733],[-81.1539496,30.2961338],[-81.1964983,30.8044328],[-80.8883533,31.6219389],[-80.117222,32.344107],[-78.9651524,33.0512757],[-78.6331156,33.6051858],[-77.8433005,33.6433142],[-77.3649981,34.2851796],[-76.7894324,34.4943913],[-76.4305136,34.3812288],[-75.9348173,34.869704],[-75.3257027,35.10289],[-75.2373599,35.7169649],[-75.7392543,36.9233693],[-74.953326,38.0303197],[-74.819825,38.7338388],[-73.8564977,39.6759209],[-73.7108669,40.3824694],[-71.4433526,40.9685297],[-71.1497421,41.2504728],[-70.8552424,41.0518257],[-69.8006099,41.0954111],[-69.6606754,41.6868393],[-69.742916,42.0354493],[-69.9940718,42.2492353],[-70.47579,42.3017948],[-70.2300592,43.2124079],[-69.8038106,43.4957926],[-68.7301189,43.6040046],[-68.3796442,43.8812102],[-67.9984996,43.7906702],[-67.8494702,43.9522062],[-67.9573684,44.1312975],[-67.3012314,44.3596866],[-67.0917113,44.2997672],[-66.922127,44.7586667],[-67.1587805,45.1620022],[-67.4890437,45.2805965],[-67.425527,45.5784457],[-67.8181093,45.6937492],[-67.7901984,47.0672248],[-68.2344711,47.3553012],[-68.9000329,47.1777412],[-69.22447,47.4598397],[-69.9971231,46.6955228],[-70.2926928,46.1914742],[-70.2588044,45.8911686],[-70.6876922,45.5694256],[-70.6212694,45.4027358],[-70.7981056,45.4265078],[-70.8380717,45.23462],[-71.2962422,45.2991442],[-71.5010194,45.0134458],[-74.9928056,44.9775],[-76.3127222,44.1990556],[-76.7966872,43.6311274],[-78.6903889,43.6311389],[-79.2006667,43.4504722],[-78.9353809,42.8283041],[-82.6797222,41.6765556],[-83.1496944,42.041],[-83.0794407,42.3087588],[-82.518938,42.6137932],[-82.1228056,43.5911944],[-82.5186111,45.3386389],[-83.5971667,45.8212778],[-83.4337778,45.9981667],[-83.5719444,46.1057778],[-83.9554722,46.05675],[-84.129,46.5305],[-84.5568333,46.4608056],[-84.8601389,46.8889167],[-88.369862,48.306063],[-89.33755,47.974261],[-90.7515833,48.0909722],[-90.88575,48.2459444],[-91.5675,48.0437778],[-92.0552222,48.3593611],[-92.3699167,48.2202778],[-92.4564444,48.4140833],[-92.7126944,48.4629722],[-92.6348889,48.5425556],[-92.9547778,48.6315556],[-93.788,48.5158611],[-94.5876389,48.7175833],[-94.9573889,49.3701944],[-95.1533889,49.3844722],[-95.1531944,48.9988611],[-123.3222397,49.0020717],[-123.0085,48.8312222],[-123.2678889,48.694],[-123.1151389,48.4228333],[-123.2484444,48.2840278],[-125.0036167,48.4951793]]],[[[-68.1599056,18.1835182],[-67.9586142,17.8602673],[-67.6422088,18.0305455],[-67.8862299,18.3536805],[-68.1599056,18.1835182]]],[[[-75.2377069,18.4312495],[-75.0374985,18.1907252],[-74.7920482,18.3693394],[-74.9832495,18.6098363],[-75.2377069,18.4312495]]],[[[-83.1609565,24.6434435],[-82.8694269,24.4117036],[-82.5850367,24.6535266],[-82.8090425,24.8516582],[-83.1609565,24.6434435]]],[[[-169.0485821,65.4690061],[-167.4191053,65.2022449],[-166.4135473,64.2952605],[-163.7040562,64.3664185],[-162.7832827,64.1252922],[-162.1846045,64.3363911],[-161.7449781,64.203398],[-161.7191261,64.0235357],[-161.2500247,63.8004626],[-162.7272042,63.8217873],[-163.1293839,63.6571296],[-162.9640059,63.3982432],[-163.2385267,63.2869532],[-164.1971566,63.4615626],[-165.4768683,63.1280085],[-165.5550365,62.9674671],[-165.3288462,62.7937611],[-166.3616922,62.1548403],[-166.5951357,61.6128677],[-166.3894841,61.2824865],[-165.4602149,60.7828395],[-165.817074,60.5583171],[-166.2611286,60.6478334],[-167.690971,60.3658642],[-167.8465303,60.1912289],[-167.6460353,59.9378226],[-166.2081837,59.5426663],[-165.3446714,59.7389321],[-165.1296919,59.9989081],[-164.8211656,59.9982773],[-164.0655241,59.4766381],[-162.7155782,59.6425355],[-162.3866485,59.3760412],[-162.4304559,59.213793],[-162.1735026,58.9220435],[-162.551762,58.6862072],[-162.3326095,58.4616649],[-161.0535703,58.3469276],[-159.8832956,58.3973286],[-159.5945543,58.5384778],[-159.1961035,58.2067108],[-158.1969107,58.3825292],[-157.9596914,58.1568894],[-158.2805518,57.5544545],[-160.7852426,56.2286588],[-161.9751391,56.0732173],[-162.8990111,55.5848121],[-163.3983518,55.6308336],[-163.5507158,55.4949809],[-163.4886762,55.2887223],[-164.8136394,55.024589],[-165.2609612,54.6686067],[-165.2533458,54.444371],[-165.7287672,54.4885134],[-166.4241709,54.2108674],[-167.2273131,54.1160116],[-167.4716105,53.9331707],[-167.5379525,53.6527248],[-167.8645626,53.7504802],[-167.6931764,53.901923],[-167.7939352,54.0789593],[-168.2283851,54.1141966],[-168.3881461,53.9386705],[-168.2099583,53.754458],[-169.1953466,53.1130097],[-169.8610903,53.2751113],[-170.4648229,52.8769344],[-171.3288838,52.7580386],[-171.6384562,52.5209349],[-171.4438673,52.2668763],[-170.2854987,52.529442],[-169.1574724,52.57092],[-168.2562798,52.8102857],[-167.9763563,53.0664951],[-166.6033019,53.2622109],[-165.7028426,53.8436378],[-164.7519747,53.9127887],[-164.0090918,54.4244235],[-163.2546041,54.4623536],[-163.136256,54.2013106],[-162.4785604,54.1050246],[-161.0307702,54.9586797],[-160.3534661,54.6782158],[-159.3626887,54.5790327],[-158.8522404,54.8977464],[-159.2483047,55.5328737],[-158.4979327,55.6664992],[-157.4667674,56.1326733],[-157.3664682,56.3150834],[-157.117536,56.3129136],[-157.1676757,56.122468],[-156.9824078,55.8345444],[-156.4330236,55.8471129],[-156.275215,56.0661603],[-156.6735697,56.4223634],[-156.6269933,56.5995659],[-156.2320821,56.7942529],[-155.9401705,57.2366906],[-154.7206868,57.7999071],[-154.4788817,57.8270273],[-155.2047488,57.3331757],[-154.6648771,56.7911413],[-155.074792,56.5702006],[-155.1379099,56.3569756],[-154.7684447,56.1996475],[-153.7926615,56.3253878],[-153.4194026,56.7100242],[-151.9177722,57.2926412],[-151.7559393,57.638979],[-151.9535889,57.9631663],[-151.5395025,58.0432133],[-151.4045618,58.2491247],[-151.4803073,58.4571455],[-151.9354682,58.6844285],[-151.5675323,58.9011731],[-150.2352137,59.1422495],[-149.9111292,59.3787493],[-149.4121437,59.3481253],[-148.9731246,59.7307632],[-147.7388487,59.5705561],[-147.0727581,59.7317039],[-146.9302542,59.9651615],[-145.9885379,60.1761058],[-144.8388185,59.9991376],[-145.0046839,59.7586245],[-144.7187651,59.5723369],[-144.0576024,59.7801924],[-142.3267883,59.8558035],[-140.4386262,59.5029685],[-138.4756513,58.8780484],[-137.944478,58.4756195],[-136.9560831,58.0653615],[-136.9040344,57.8185727],[-136.2495464,57.3269734],[-136.1911369,56.9106422],[-135.3976726,56.4553144],[-134.9029085,56.0058138],[-134.8662749,55.7397889],[-134.1407949,55.6373576],[-134.1698007,55.3958032],[-133.8277764,55.0655857],[-133.8890046,54.7607002],[-133.7421851,54.6006896],[-132.0655648,54.4611829],[-131.080267,54.770779],[-130.6285756,54.7250924],[-129.9741673,55.2819188],[-130.1279045,55.5810345],[-130.003784,55.9074368],[-130.103798,56.1227981],[-131.835327,56.5992028],[-131.8728761,56.805995],[-132.123567,56.8736483],[-132.045191,57.0450592],[-132.3689831,57.0915128],[-132.247921,57.2112533],[-133.377303,58.4305483],[-134.9599053,59.2809264],[-135.2336683,59.6961431],[-135.4791608,59.7980414],[-136.346389,59.600556],[-136.2385042,59.5243264],[-136.477156,59.4658242],[-136.584444,59.1658544],[-137.526114,58.9063722],[-137.607356,59.2438033],[-139.198845,60.0882958],[-139.074818,60.3525047],[-139.981094,60.1819656],[-141.00198,60.3063692],[-141.0006147,69.6465701],[-140.7523256,69.8283004],[-143.0583081,70.3408414],[-144.7750974,70.2022308],[-147.8230849,70.6908113],[-151.0163505,70.6759214],[-152.2794698,71.064178],[-153.8238907,71.0905643],[-156.7142341,71.574265],[-158.1439892,71.0343744],[-159.4511874,71.05271],[-161.254138,70.5202588],[-162.2836346,70.4782142],[-163.5303501,69.8992004],[-163.7335271,69.4120723],[-164.0775356,69.2195668],[-166.5358751,69.0442527],[-166.7669425,68.9196104],[-166.8300453,68.5679455],[-167.3787529,68.3688729],[-167.1888551,68.1847246],[-164.5277395,67.479088],[-164.3158312,67.2844978],[-164.4360351,67.1584632],[-164.3253016,67.0326123],[-163.1453188,66.8297055],[-162.3931679,66.4425317],[-162.8823196,66.3046452],[-163.1723825,66.3672166],[-163.0072961,66.5567836],[-163.3069136,66.7256275],[-164.5365338,66.7750519],[-166.1073199,66.4982024],[-168.4393048,65.8289558],[-168.976944,65.9671796],[-169.0485821,65.4690061]],[[-153.1303409,59.1764959],[-152.9882543,59.4696836],[-152.1322999,60.0079718],[-152.330171,59.1676267],[-152.665024,59.0732108],[-152.8741566,58.7660471],[-153.1303409,59.1764959]],[[-153.180946,58.5372853],[-153.1751501,58.5480609],[-153.1384992,58.5678286],[-153.1470249,58.5552926],[-153.180946,58.5372853]],[[-153.8125943,58.0958144],[-153.5773523,58.3547948],[-153.3559904,58.4231127],[-153.6200524,58.260124],[-153.8125943,58.0958144]]],[[[-146.798977,59.4136281],[-146.3719612,59.1845037],[-145.8515536,59.4346853],[-146.0326443,59.6655482],[-146.3553817,59.7368789],[-146.6575663,59.6516919],[-146.798977,59.4136281]]],[[[-156.2728154,19.7538516],[-156.0952355,18.9879133],[-155.7157087,18.7120498],[-154.8508151,19.1851959],[-154.5968132,19.4910424],[-155.0385687,20.1032395],[-155.8018507,20.4659268],[-156.0672676,20.3618121],[-156.2728154,19.7538516]]],[[[-156.151025,55.8463318],[-155.9973413,55.6397879],[-155.6255752,55.5511422],[-155.1951341,55.8137289],[-155.2828408,56.0275777],[-155.5827062,56.114137],[-156.151025,55.8463318]]],[[[-158.4952583,21.6002037],[-158.2433288,21.1408904],[-157.5218207,21.1376148],[-156.7506223,20.3136336],[-155.9750953,20.4589498],[-155.7716875,20.670134],[-155.8629984,20.949346],[-156.6583349,21.3587093],[-157.4361074,21.3338597],[-157.8917991,21.8996799],[-158.4952583,21.6002037]]],[[[-157.7615809,55.8007591],[-157.4328602,55.5765518],[-157.050897,55.7727803],[-157.3810108,55.9766698],[-157.7615809,55.8007591]]],[[[-160.7587137,21.6765408],[-160.5398128,21.4482644],[-159.8780717,21.8121755],[-159.3767158,21.6776517],[-159.1401567,21.8656613],[-159.0855238,22.200543],[-159.3222984,22.4215395],[-159.6517582,22.4146501],[-159.9571958,22.1854528],[-160.2286332,22.191539],[-160.7587137,21.6765408]]],[[[-160.2128743,-0.3609467],[-160.0225352,-0.5812993],[-159.7851889,-0.3962858],[-159.9819613,-0.1628738],[-160.2128743,-0.3609467]]],[[[-162.1446078,23.0842368],[-161.9463082,22.8560038],[-161.6978553,23.0439413],[-161.9083447,23.2645417],[-162.1446078,23.0842368]]],[[[-162.327577,5.913385],[-162.139743,5.670241],[-161.828738,5.835638],[-162.02095,6.097972],[-162.327577,5.913385]]],[[[-162.5697382,6.5773049],[-162.6222451,6.2453057],[-162.1915136,6.2447385],[-162.2183697,6.5631226],[-162.5697382,6.5773049]]],[[[-164.9223805,23.6006399],[-164.7234853,23.3745881],[-164.4767961,23.5583514],[-164.6790793,23.778646],[-164.9223805,23.6006399]]],[[[-166.5426429,23.8786832],[-166.2387847,23.447811],[-166.0096388,23.4526477],[-165.8496398,23.6582651],[-165.8947679,23.9070304],[-166.1523853,24.0643886],[-166.5426429,23.8786832]]],[[[-168.5655904,64.9907135],[-168.116373,64.7616985],[-167.5783107,64.9604485],[-168.0225515,65.1818847],[-168.5655904,64.9907135]]],[[[-168.2190733,25.0244572],[-168.0243549,24.7981983],[-167.7793493,24.9784215],[-167.9740907,25.1995076],[-168.2190733,25.0244572]]],[[[-168.3781903,-14.5288619],[-168.1728529,-14.760345],[-167.9327794,-14.5626245],[-168.1374322,-14.3296964],[-168.3781903,-14.5288619]]],[[[-172.2929992,63.5108144],[-171.9832742,63.1985806],[-170.7707203,63.1806157],[-169.7016828,62.7384673],[-168.5551131,62.9125118],[-168.2435268,63.2912694],[-168.4808991,63.4739038],[-169.6043976,63.6263087],[-169.8610481,63.830997],[-171.0276152,63.7897328],[-171.6164529,63.983523],[-172.1204361,63.8914025],[-172.2929992,63.5108144]]],[[[-170.1455849,56.6368274],[-169.6085087,56.3331393],[-169.1036822,56.5901381],[-169.4720982,56.8062098],[-169.9331431,56.7960975],[-170.1455849,56.6368274]]],[[[-169.8920123,-14.1402824],[-169.5404279,-14.4683783],[-169.2208682,-14.3000066],[-169.2705057,-14.0792024],[-169.5631901,-13.960393],[-169.8920123,-14.1402824]]],[[[-169.6394833,16.9301038],[-169.7356634,16.5996675],[-169.3487058,16.564287],[-169.2973922,16.907691],[-169.6394833,16.9301038]]],[[[-170.7882258,57.1823085],[-170.7200455,56.9384702],[-170.3952428,56.8431693],[-169.5680938,57.1847376],[-170.1016255,57.4493644],[-170.614858,57.3662412],[-170.7882258,57.1823085]]],[[[-171.0523966,-14.3063764],[-170.7514189,-14.5752181],[-170.3395225,-14.276772],[-170.6785904,-14.0283527],[-171.0523966,-14.3063764]]],[[[-170.8491943,25.530152],[-170.6492172,25.3061983],[-170.4082707,25.4907721],[-170.6062319,25.7065037],[-170.8491943,25.530152]]],[[[-171.2945861,-11.0381735],[-171.0949199,-11.2684756],[-170.861276,-11.0692693],[-171.0583504,-10.8455006],[-171.2945861,-11.0381735]]],[[[-171.9656826,25.8055136],[-171.7585345,25.5561038],[-171.4955939,25.7642909],[-171.7055223,25.9853756],[-171.9656826,25.8055136]]],[[[-173.52092,60.6592668],[-172.9516354,60.0157556],[-172.0807982,60.116343],[-171.8227621,60.2911802],[-172.8944515,60.881531],[-173.3139326,60.8584384],[-173.52092,60.6592668]]],[[[-179.4663127,51.3003501],[-179.3890258,51.083514],[-179.1005092,51.0084856],[-178.5828623,51.342983],[-178.2098349,51.2761973],[-177.3929391,51.4921039],[-176.7329439,51.4138024],[-175.2656357,51.8069461],[-173.0829109,51.8123304],[-172.1116241,52.1621647],[-171.9729293,52.3444972],[-172.4420436,52.5936486],[-172.9625688,52.2995281],[-173.6700332,52.3493433],[-174.1862324,52.6201403],[-174.8519569,52.3318445],[-175.1713497,52.4259535],[-176.9759758,52.1214515],[-178.2165525,52.1126389],[-178.5259431,51.9566762],[-178.9011385,52.0311769],[-179.3563589,51.6804753],[-179.4663127,51.3003501]]],[[[-174.2083429,26.1396222],[-174.0702154,25.8485278],[-173.7455875,26.0051654],[-173.8978253,26.2617644],[-174.2083429,26.1396222]]],[[[-176.2156572,27.8133295],[-176.0727431,27.5823197],[-175.738037,27.5895136],[-175.5019932,27.9617092],[-175.8483843,28.1563427],[-176.2156572,27.8133295]]],[[[-176.6850654,0.2138942],[-176.4975066,-0.0108259],[-176.2709811,0.17359],[-176.4598413,0.402489],[-176.6850654,0.2138942]]],[[[-176.8228334,0.8380639],[-176.6514376,0.5963132],[-176.4144526,0.7663561],[-176.5869046,1.0183445],[-176.8228334,0.8380639]]],[[[-177.6496926,28.2297083],[-177.4076808,27.9912749],[-177.0875609,28.2148386],[-177.3569445,28.4800336],[-177.6496926,28.2297083]]],[[[-178.6004919,28.4404574],[-178.3559371,28.1858589],[-178.0584124,28.3730274],[-178.2916582,28.6550777],[-178.6004919,28.4404574]]],[[[-180,52.138489],[-180,51.7940888],[-179.8836979,51.9764894],[-180,52.138489]]]]}}