{"type":"Feature","properties":{"tags":{"ISO3166-1":"VE","ISO3166-1:alpha2":"VE","ISO3166-1:alpha3":"VEN","ISO3166-1:numeric":"862","admin_level":"2","border_type":"nation","boundary":"administrative","default_language":"es","flag":"http:\/\/upload.wikimedia.org\/wikipedia\/commons\/0\/06\/Flag_of_Venezuela.svg","name":"Venezuela","name:ace":"V\u00e8n\u00e8zu\u00e8la","name:af":"Venezuela","name:als":"Venezuela","name:am":"\u126c\u1294\u12dd\u12cc\u120b","name:an":"Venezuela","name:ang":"Feneswela","name:ar":"\u0641\u0646\u0632\u0648\u064a\u0644\u0627","name:arc":"\u0712\u0722\u0719\u0718\u071d\u0720\u0710","name:arz":"\u0641\u0646\u064a\u0632\u0648\u064a\u0644\u0627","name:ast":"Venezuela","name:av":"\u0412\u0435\u043d\u0435\u0441\u0443\u044d\u043b\u0430","name:ay":"Win\u00efxwila","name:az":"Venesuela","name:ba":"\u0412\u0435\u043d\u0435\u0441\u0443\u044d\u043b\u0430","name:bar":"Venezuela","name:bat-smg":"Venesoela","name:bcl":"Benesuela","name:be":"\u0412\u0435\u043d\u0435\u0441\u0443\u044d\u043b\u0430","name:be-tarask":"\u0412\u044d\u043d\u044d\u0441\u0443\u044d\u043b\u0430","name:bg":"\u0412\u0435\u043d\u0435\u0446\u0443\u0435\u043b\u0430","name:bi":"Venezuela","name:bm":"Venezuela","name:bn":"\u09ad\u09c7\u09a8\u09c7\u099c\u09c1\u09af\u09bc\u09c7\u09b2\u09be","name:bo":"\u0f5d\u0f7a\u0f0b\u0f53\u0f7a\u0f0b\u0f5f\u0f74\u0f60\u0f7a\u0f0b\u0f63\u0f0d","name:bpy":"\u09ad\u09c7\u09a8\u09c7\u099c\u09c1\u09af\u09bc\u09c7\u09b2\u09be","name:br":"Venezuela","name:bs":"Venecuela","name:ca":"Vene\u00e7uela","name:cbk-zam":"Venezuela","name:ce":"\u0412\u0435\u043d\u0435\u0441\u0443\u044d\u043b\u0430","name:ceb":"Venezuela","name:chr":"\u13ea\u13c1\u13d1\u13ea\u13b3","name:ckb":"\u06a4\u06ce\u0646\u06cc\u0632\u0648\u06ce\u0644\u0627","name:co":"Venezuela","name:crh":"Venesuela","name:cs":"Venezuela","name:cv":"\u0412\u0435\u043d\u0435\u0441\u0443\u044d\u043b\u0430","name:cy":"Venezuela","name:da":"Venezuela","name:de":"Venezuela","name:diq":"Venezuela","name:dsb":"Venezuela","name:dv":"\u0788\u07ac\u0782\u07ac\u0792\u07aa\u0787\u07ad\u078d\u07a7","name:ee":"Venezuela","name:el":"\u0392\u03b5\u03bd\u03b5\u03b6\u03bf\u03c5\u03ad\u03bb\u03b1","name:eml":"Venes\u00fcela","name:en":"Venezuela","name:eo":"Venezuelo","name:es":"Venezuela","name:et":"Venezuela","name:eu":"Venezuela","name:ext":"Vene\u00e7uela","name:fa":"\u0648\u0646\u0632\u0648\u0626\u0644\u0627","name:fi":"Venezuela","name:fo":"Venesuela","name:fr":"Venezuela","name:frp":"Venezu\u00e8la","name:frr":"Venezuela","name:fur":"Venezuela","name:fy":"Fenezu\u00ebla","name:ga":"Veinis\u00e9ala","name:gag":"Venesuela","name:gcf":"B\u00e9n\u00e9zw\u00e8l","name:gd":"A' Bheiniseala","name:gl":"Venezuela","name:gn":"Venesu\u00e9la","name:gu":"\u0ab5\u0ac7\u0aa8\u0ac7\u0a9d\u0ac1\u0a8f\u0ab2\u0abe","name:guc":"Wenesueela","name:gv":"Yn Veneswaaley","name:he":"\u05d5\u05e0\u05e6\u05d5\u05d0\u05dc\u05d4","name:hi":"\u0935\u0947\u0928\u0947\u091c\u093c\u0941\u090f\u0932\u093e","name:hif":"Venezuela","name:hr":"Venezuela","name:hsb":"Venezuela","name:ht":"Venezwela","name:hu":"Venezuela","name:hy":"\u054e\u0565\u0576\u0565\u057d\u0578\u0582\u0565\u056c\u0561","name:ia":"Venezuela","name:id":"Venezuela","name:ie":"Venezuela","name:ilo":"Venezuela","name:io":"Venezuela","name:is":"Venes\u00faela","name:it":"Venezuela","name:ja":"\u30d9\u30cd\u30ba\u30a8\u30e9","name:jbo":"benesuel","name:jv":"Venezuela","name:ka":"\u10d5\u10d4\u10dc\u10d4\u10e1\u10e3\u10d4\u10da\u10d0","name:kbd":"\u0412\u0435\u043d\u0435\u0441\u0443\u044d\u043b\u044d","name:kk":"\u0412\u0435\u043d\u0435\u0441\u0443\u044d\u043b\u0430","name:kn":"\u0cb5\u0cc6\u0ca8\u0cc6\u0c9c\u0cc1\u0cb5\u0cc6\u0cb2\u0cbe","name:ko":"\ubca0\ub124\uc218\uc5d8\ub77c","name:krc":"\u0412\u0435\u043d\u0435\u0441\u0443\u044d\u043b\u0430","name:ku":"Venezuela","name:kw":"Veneswela","name:la":"Venetiola","name:lad":"Venezuela","name:lb":"Venezuela","name:lez":"\u0412\u0435\u043d\u0435\u0441\u0443\u044d\u043b\u0430","name:li":"Venezuela","name:lij":"Venezuela","name:lmo":"Venezuela","name:ln":"Venezwela","name:lt":"Venesuela","name:ltg":"Venecuela","name:lv":"Venecu\u0113la","name:lzh":"\u59d4\u5167\u745e\u62c9","name:mdf":"\u0412\u0435\u043d\u0435\u0437\u0443\u0435\u043b\u0430","name:mg":"Venezoela","name:mhr":"\u0412\u0435\u043d\u0435\u0441\u0443\u044d\u043b\u0435","name:mi":"Weneh\u016bera","name:min":"Venezuela","name:mk":"\u0412\u0435\u043d\u0435\u0446\u0443\u0435\u043b\u0430","name:ml":"\u0d35\u0d46\u0d28\u0d3f\u0d38\u0d4d\u0d35\u0d47\u0d32","name:mn":"\u0412\u0435\u043d\u0435\u0441\u0443\u044d\u043b","name:mr":"\u0935\u094d\u0939\u0947\u0928\u0947\u091d\u0941\u090f\u0932\u093e","name:mrj":"\u0412\u0435\u043d\u0435\u0441\u0443\u044d\u043b\u0430","name:ms":"Venezuela","name:mt":"Vene\u017cwela","name:my":"\u1017\u1004\u103a\u1014\u102e\u1007\u103d\u1032\u101c\u102c\u1038\u1014\u102d\u102f\u1004\u103a\u1004\u1036","name:mzn":"\u0648\u0646\u0632\u0648\u0626\u0644\u0627","name:nah":"Venezuela","name:nan":"Venezuela","name:nap":"Venezuela","name:nds":"Venezuela","name:ne":"\u092d\u0947\u0928\u0947\u091c\u0941\u090f\u0932\u093e","name:nl":"Venezuela","name:nn":"Venezuela","name:no":"Venezuela","name:nov":"Venezuela","name:nrm":"V\u00e9n\u00e9zu\u00e9la","name:nv":"T\u00e1\u0142k\u00e1\u00e1\u02bc Bighan Dine\u02bc\u00e9 Bik\u00e9yah","name:oc":"Vene\u00e7u\u00e8la","name:or":"\u0b2d\u0b47\u0b28\u0b47\u0b1c\u0b41\u0b0f\u0b32\u0b3e","name:os":"\u0412\u0435\u043d\u0435\u0441\u0443\u044d\u043b\u00e6","name:pa":"\u0a35\u0a48\u0a28\u0a47\u0a1c\u0a3c\u0a41\u0a0f\u0a32\u0a3e","name:pag":"Venezuela","name:pam":"Beneswela","name:pap":"Venezuela","name:pl":"Wenezuela","name:pms":"Venessuela","name:pnb":"\u0648\u06cc\u0646\u0632\u0648\u06cc\u0644\u0627","name:pt":"Venezuela","name:qu":"Winisuyla","name:rm":"Venezuela","name:rmy":"Venezuela","name:rn":"Venezuela","name:ro":"Venezuela","name:roa-tara":"Venezuela","name:ru":"\u0412\u0435\u043d\u0435\u0441\u0443\u044d\u043b\u0430","name:rue":"\u0412\u0435\u043d\u0435c\u0443\u0435\u043b\u0430","name:rw":"Venezuwela","name:sa":"\u0935\u0947\u0928\u0947\u091c\u094d\u0935\u0947\u0932\u093e","name:sah":"\u0412\u0435\u043d\u0435\u0441\u0443\u044d\u043b\u0430","name:scn":"Venezzuela","name:sco":"Venezuela","name:se":"Venezuela","name:sh":"Venezuela","name:simple":"Venezuela","name:sk":"Venezuela","name:sl":"Venezuela","name:sm":"Venesuela","name:smn":"Venezuela","name:sms":"Venezuela","name:so":"Fanansuwela","name:sq":"Venezuela","name:sr":"\u0412\u0435\u043d\u0435\u0446\u0443\u0435\u043b\u0430","name:srn":"Venswelikondre","name:su":"V\u00e9n\u00e9zu\u00e9la","name:sv":"Venezuela","name:sw":"Venezuela","name:szl":"Wynezuela","name:ta":"\u0bb5\u0bc6\u0ba9\u0bbf\u0b9a\u0bc1\u0bb5\u0bc7\u0bb2\u0bbe","name:tet":"Venezuela","name:tg":"\u0412\u0435\u043d\u0435\u0441\u0443\u044d\u043b\u0430","name:th":"\u0e1b\u0e23\u0e30\u0e40\u0e17\u0e28\u0e40\u0e27\u0e40\u0e19\u0e0b\u0e38\u0e40\u0e2d\u0e25\u0e32","name:tk":"Wenesuela","name:tl":"Venezuela","name:tr":"Venezuela","name:tt":"\u0412\u0435\u043d\u0435\u0441\u0443\u044d\u043b\u0430","name:tzl":"Vene\u00feuela","name:udm":"\u0412\u0435\u043d\u0435\u0441\u0443\u044d\u043b\u0430","name:ug":"\u06cb\u06d0\u0646\u06d0\u0633\u06c7\u0626\u06d0\u0644\u0627","name:uk":"\u0412\u0435\u043d\u0435\u0441\u0443\u0435\u043b\u0430","name:ur":"\u0648\u06cc\u0646\u06cc\u0632\u0648\u06cc\u0644\u0627","name:uz":"Venesuela","name:ve":"Venezuela","name:vec":"Venesue\u0142a","name:vep":"Venesuel","name:vi":"Venezuela","name:vo":"Venesol\u00e4n","name:vro":"Venezuela","name:wa":"Venezwela","name:war":"Venezuela","name:wo":"Benesuwela","name:wuu":"\u59d4\u5185\u745e\u62c9","name:xal":"\u0411\u043e\u043b\u0438\u0432\u0430\u0440\u0430 \u0412\u0435\u043d\u0435\u0441\u0443\u043b\u043c\u0443\u0434\u0438\u043d \u041e\u0440\u043d","name:yi":"\u05d5\u05d5\u05e2\u05e0\u05e2\u05d6\u05d5\u05e2\u05dc\u05e2","name:yo":"Fenesuela","name:yue":"\u59d4\u5167\u745e\u62c9","name:zh":"\u59d4\u5167\u745e\u62c9","name:zh-Hans":"\u59d4\u5185\u745e\u62c9","name:zh-Hant":"\u59d4\u5167\u745e\u62c9","name:zu":"Venezuela","official_name:chr":"\u13c9\u13b5\u13ea\u13b5\u13a0\u13c2 \u13cd\u13a6\u13da\u13a9 \u13be\u13bf \u13ea\u13c1\u13d1\u13ea\u13b3","official_name:cs":"Bol\u00edvarovsk\u00e1 republika Venezuela","official_name:de":"Bolivarische Republik Venezuela","official_name:en":"Bolivarian Republic of Venezuela","official_name:es":"Rep\u00fablica Bolivariana de Venezuela","official_name:fr":"R\u00e9publique bolivarienne du Venezuela","official_name:gcf":"B\u00e9n\u00e9zw\u00e8l","official_name:guc":"Mma Woliwarianakat Wenesueela","official_name:qu":"Wuliwarpi Republika Winisuyla","official_name:ru":"\u0411\u043e\u043b\u0438\u0432\u0430\u0440\u0438\u0430\u043d\u0441\u043a\u0430\u044f \u0420\u0435\u0441\u043f\u0443\u0431\u043b\u0438\u043a\u0430 \u0412\u0435\u043d\u0435\u0441\u0443\u044d\u043b\u0430","timezone":"America\/Caracas","type":"boundary","wikidata":"Q717","wikipedia":"en:Es:Venezuela"},"timestamp":1716078538,"representative_point":{"type":"Point","coordinates":[-65.45636360040922,6.5043023]}},"geometry":{"type":"MultiPolygon","coordinates":[[[[-71.0954504,11.8356959],[-71.9713632,11.6462669],[-72.2494165,11.140186],[-72.4976404,11.0858857],[-72.8907179,10.4530779],[-72.9454359,9.8376266],[-73.3490309,9.1772643],[-73.0106133,9.2912935],[-72.9476973,9.0916512],[-72.7663843,9.1055811],[-72.3537844,8.1656647],[-72.4757686,7.4879603],[-72.1948528,7.3850079],[-72.0500136,7.0397029],[-71.0223949,6.9739897],[-70.6831598,7.1042357],[-70.1173635,6.979971],[-69.4366806,6.1056644],[-68.0254126,6.1945498],[-67.811265,6.3287773],[-67.4578009,6.1905799],[-67.6190901,5.4751562],[-67.8629995,5.2723753],[-67.8568819,4.5295733],[-67.634317,3.7861478],[-67.3104429,3.3765115],[-67.8643234,2.7893579],[-67.6134575,2.8117034],[-67.1850229,2.3482922],[-66.8559186,1.2268774],[-66.3103513,0.7449223],[-65.5584777,0.9921532],[-65.5445945,0.647611],[-65.1061392,1.1557606],[-64.7431827,1.2270597],[-64.3938732,1.5290531],[-64.337579,1.3614684],[-63.9926791,1.9822397],[-63.3959413,2.1575202],[-63.4147275,2.4541571],[-64.060657,2.5007839],[-63.9819181,2.7258336],[-64.2303658,3.1372594],[-64.1178632,3.4690326],[-64.7728694,4.0537446],[-64.7897673,4.2917533],[-64.6302939,4.1148614],[-64.1369176,4.1079163],[-63.9662004,3.8714694],[-63.6791182,4.0200326],[-63.498981,3.8407473],[-63.2539022,3.965748],[-62.9565311,3.6121497],[-62.736783,3.6882128],[-62.7519751,4.0323938],[-62.556442,4.0165543],[-62.4637342,4.178167],[-61.9329572,4.1176544],[-61.5577698,4.2524558],[-61.3235378,4.5339446],[-60.9978426,4.5161689],[-60.5897927,4.930135],[-60.7375541,5.2018977],[-61.3827239,5.9387023],[-61.124137,6.1945285],[-61.2321657,6.5706737],[-61.1380577,6.7220738],[-60.3754467,6.9306178],[-60.293551,7.133533],[-60.546525,7.125722],[-60.720363,7.538838],[-60.540174,7.815728],[-59.8352151,8.2346535],[-59.9968457,8.545298],[-59.7707163,8.6038842],[-60.404206,8.7812616],[-60.6603248,9.48225],[-61.207427,9.874531],[-62.083056,10.046111],[-62.0286149,10.1801059],[-62.3716129,10.3345156],[-61.9218733,10.4426633],[-61.7306278,10.9061804],[-63.6138616,10.83618],[-63.3695354,11.2980663],[-63.5743364,11.5060765],[-64.5069488,11.202099],[-64.6113634,10.9663988],[-64.4412485,10.7742277],[-64.4902186,10.5730563],[-65.1361931,10.287951],[-65.8204274,10.513515],[-66.0545765,11.0152338],[-66.3724599,10.8274919],[-67.8696209,10.6816221],[-68.3415043,11.3938418],[-68.7793994,11.6381288],[-69.5436034,11.7047991],[-69.7355637,12.2578295],[-70.1629258,12.3488522],[-70.4891979,11.9522999],[-70.4201359,11.5057117],[-71.3599675,11.1645328],[-71.6439946,11.2467951],[-71.7554615,11.447327],[-71.330085,11.5493989],[-71.0954504,11.8356959]]],[[[-63.3436324,11.3846049],[-63.1135862,11.1442441],[-62.8398398,11.4304852],[-63.0563399,11.614032],[-63.3436324,11.3846049]]],[[[-63.8569713,15.7032833],[-63.6458273,15.4647372],[-63.3988183,15.6659111],[-63.6073863,15.915248],[-63.8569713,15.7032833]]],[[[-64.8480449,11.8847644],[-64.7847646,11.6801565],[-64.4703775,11.516888],[-64.1925821,11.6938991],[-64.2744801,11.9503971],[-64.5423366,12.086719],[-64.8480449,11.8847644]]],[[[-65.6408646,10.9735821],[-65.3338749,10.6915831],[-64.9960041,10.8830002],[-65.0823894,11.1092531],[-65.3414123,11.1960978],[-65.6408646,10.9735821]]],[[[-67.155724,11.8710419],[-66.8382204,11.469048],[-66.3863266,11.7219999],[-66.0564,11.5786128],[-65.886245,11.8417501],[-66.0750141,12.0691642],[-66.3956885,11.881454],[-66.6457552,12.1691921],[-67.0441955,12.0532682],[-67.155724,11.8710419]]],[[[-67.8891148,12.1022424],[-67.7310409,11.7856409],[-67.3814473,11.7450633],[-67.2182586,11.8883584],[-67.3482951,12.1817098],[-67.7212634,12.260756],[-67.8891148,12.1022424]]],[[[-70.9239125,12.1571535],[-70.6916406,12.2654393],[-70.685,12.5002359],[-70.911749,12.716379],[-71.1468868,12.5234057],[-70.9239125,12.1571535]]]]}}