{"type":"Feature","properties":{"tags":{"ISO3166-1":"VU","ISO3166-1:alpha2":"VU","ISO3166-1:alpha3":"VUT","ISO3166-1:numeric":"548","admin_level":"2","alt_name":"T\u00e2n \u0110\u1ea3o","boundary":"administrative","driving_side":"right","flag":"http:\/\/upload.wikimedia.org\/wikipedia\/commons\/b\/bc\/Flag_of_Vanuatu.svg","maritime":"yes","name":"Vanuatu","name:ab":"\u0412\u0430\u043d\u0443\u0430\u0442\u0443","name:ar":"\u0641\u0627\u0646\u0648\u0627\u062a\u0648","name:be":"\u0412\u0430\u043d\u0443\u0430\u0442\u0443","name:bg":"\u0412\u0430\u043d\u0443\u0430\u0442\u0443","name:bn":"\u09ad\u09be\u09a8\u09c1\u09af\u09bc\u09be\u099f\u09c1","name:bo":"\u0f5d\u0f0b\u0f53\u0f74\u0f60\u0f0b\u0f4f\u0f74\u0f0d","name:ce":"\u0412\u0430\u043d\u0443\u0430\u0442\u0443","name:cs":"Vanuatu","name:de":"Vanuatu","name:dv":"\u0788\u07a6\u0782\u07aa\u0787\u07a7\u0793\u07ab","name:el":"\u0392\u03b1\u03bd\u03bf\u03c5\u03ac\u03c4\u03bf\u03c5","name:en":"Vanuatu","name:eo":"Vanuatuo","name:es":"Vanuatu","name:fa":"\u0648\u0627\u0646\u0648\u0627\u062a\u0648","name:fr":"Vanuatu","name:fy":"Fanuat\u00fb","name:ga":"Vanuat\u00fa","name:gd":"Bhanuatu","name:gn":"Vanu\u00e1tu","name:he":"\u05d5\u05e0\u05d5\u05d0\u05d8\u05d5","name:hi":"\u0935\u093e\u0928\u0942\u0905\u0924\u0941","name:hr":"Vanuatu","name:ht":"Vanwatou","name:hy":"\u054e\u0561\u0576\u0578\u0582\u0561\u057f\u0578\u0582","name:is":"Van\u00faat\u00fa","name:it":"Vanuatu","name:ja":"\u30d0\u30cc\u30a2\u30c4","name:jbo":"vanuatus","name:ka":"\u10d5\u10d0\u10dc\u10e3\u10d0\u10e2\u10e3","name:kk":"\u0412\u0430\u043d\u0443\u0430\u0442\u0443","name:kn":"\u0cb5\u0ca8\u0cc1\u0cb5\u0cbe\u0c9f\u0cc1","name:ko":"\ubc14\ub204\uc544\ud22c","name:ku":"Van\u00fbat\u00fb","name:ky":"\u0412\u0430\u043d\u0443\u0430\u0442\u0443","name:lt":"Vanuatu","name:mk":"\u0412\u0430\u043d\u0443\u0430\u0442\u0443","name:ml":"\u0d35\u0d3e\u0d28\u0d41\u0d35\u0d3e\u0d1f\u0d41","name:mn":"\u0412\u0430\u043d\u0443\u0430\u0442\u0443","name:mr":"\u0935\u094d\u0939\u093e\u0928\u0941\u0906\u0924\u0942","name:mt":"Vanwatu","name:my":"\u1017\u1014\u103d\u102c\u1038\u1010\u1030\u1014\u102d\u102f\u1004\u103a\u1004\u1036","name:na":"Banuatu","name:ne":"\u092d\u093e\u0928\u0941\u0905\u091f\u0941","name:nv":"Bano\u02bc\u00e1\u00e1t\u02bcoo","name:oc":"Vanuatu","name:or":"\u0b2d\u0b3e\u0b28\u0b41\u0b06\u0b1f\u0b41","name:os":"\u0412\u0430\u043d\u0443\u0430\u0442\u0443","name:pa":"\u0a35\u0a28\u0a41\u0a06\u0a24\u0a42","name:pl":"Vanuatu","name:pt":"Vanuatu","name:qu":"Wanwatu","name:ru":"\u0412\u0430\u043d\u0443\u0430\u0442\u0443","name:rw":"Vanuwatu","name:se":"Vanuatu","name:sk":"Vanuatu","name:smn":"Vanuatu","name:sms":"Vanuatu","name:sr":"\u0412\u0430\u043d\u0443\u0430\u0442\u0443","name:sv":"Vanuatu","name:ta":"\u0bb5\u0ba9\u0bc1\u0bb5\u0bbe\u0b9f\u0bcd\u0b9f\u0bc1","name:te":"\u0c35\u0c28\u0c3e\u0c1f\u0c41","name:tg":"\u0412\u0430\u043d\u0443\u0430\u0442\u0443","name:th":"\u0e1b\u0e23\u0e30\u0e40\u0e17\u0e28\u0e27\u0e32\u0e19\u0e39\u0e2d\u0e32\u0e15\u0e39","name:tr":"Vanuatu","name:tt":"\u0412\u0430\u043d\u0443\u0430\u0442\u0443","name:tzl":"Vanuat\u00f9","name:ug":"\u06cb\u0627\u0646\u06c7\u0626\u0627\u062a\u06c7","name:uk":"\u0412\u0430\u043d\u0443\u0430\u0442\u0443","name:ur":"\u0648\u0627\u0646\u0648\u0627\u062a\u0648","name:vo":"Vanuatu\u00e4ns","name:wo":"Wanuatu","name:yo":"Fanuatu","name:zh":"\u74e6\u52aa\u963f\u56fe \/ \u842c\u90a3\u675c","name:zh-Hans":"\u74e6\u52aa\u963f\u56fe","name:zh-Hant":"\u842c\u90a3\u675c","name:zh-Hant-CN":"\u74e6\u52aa\u963f\u5716","official_name:cs":"Republika Vanuatu","official_name:en":"Republic of Vanuatu","official_name:eo":"Respubliko de Vanatuo","official_name:es":"Rep\u00fablica de Vanuatu","official_name:fr":"R\u00e9publique de Vanuatu","official_name:gn":"Tavakuairet\u00e3 Vanu\u00e1tu","official_name:pl":"Republika Vanuatu","official_name:pt":"Rep\u00fablica de Vanuatu","official_name:ru":"\u0420\u0435\u0441\u043f\u0443\u0431\u043b\u0438\u043a\u0430 \u0412\u0430\u043d\u0443\u0430\u0442\u0443","population":"234023","population:date":"2009","source:name:oc":"Lo Congr\u00e8s","timezone":"Pacific\/Efate","type":"boundary","wikidata":"Q686","wikipedia":"bi:Ripablik blong Vanuatu"},"timestamp":1716078538,"representative_point":{"type":"Point","coordinates":[168.0018224390884,-16.65413355]}},"geometry":{"type":"Polygon","coordinates":[[[166.3355255,-14.8608354],[166.5855968,-15.7378736],[168.8027813,-18.9691078],[169.0741305,-19.6363946],[169.6098908,-20.4021507],[169.9926423,-20.412616],[170.4452114,-19.4673536],[169.4652855,-18.5652109],[168.8096923,-17.6352329],[168.8523711,-16.960764],[168.4857385,-15.8768792],[168.2736859,-14.4143126],[167.7746091,-13.1002705],[166.3867,-12.9463086],[166.3355255,-14.8608354]]]}}