{"type":"Feature","properties":{"tags":{"ISO3166-1":"WS","ISO3166-1:alpha2":"WS","ISO3166-1:alpha3":"WSM","ISO3166-1:numeric":"882","admin_level":"2","boundary":"administrative","driving_side":"left","flag":"http:\/\/upload.wikimedia.org\/wikipedia\/commons\/3\/31\/Flag_of_Samoa.svg","name":"S\u0101moa","name:am":"\u1233\u121e\u12a0","name:ar":"\u0633\u0627\u0645\u0648\u0627","name:be":"\u0421\u0430\u043c\u043e\u0430","name:bg":"\u0421\u0430\u043c\u043e\u0430","name:bm":"Samowa","name:bn":"\u09b8\u09be\u09ae\u09cb\u09af\u09bc\u09be","name:bo":"\u0f53\u0f74\u0f0b\u0f56\u0f0b\u0f66\u0f0b\u0f58\u0f7c\u0f0b\u0f60\u0f0d","name:br":"Samoa","name:ca":"Samoa","name:ckb":"\u0633\u0627\u0645\u0648\u0627","name:cs":"Samoa","name:da":"Samoa","name:de":"Samoa","name:dz":"\u0f66\u0f0b\u0f58\u0f7c\u0f0b\u0f68","name:ee":"Samoa nutome","name:el":"\u03a3\u03b1\u03bc\u03cc\u03b1","name:en":"Samoa","name:eo":"Samoo","name:es":"Samoa","name:et":"Samoa","name:fa":"\u0633\u0627\u0645\u0648\u0622","name:ff":"Samowaa","name:fi":"Samoa","name:fo":"S\u00e1moa","name:fr":"Samoa","name:fy":"Samo\u00e4","name:ga":"Sam\u00f3","name:gd":"Samotha","name:gn":"Sam\u00f3a","name:gu":"\u0ab8\u0aae\u0acb\u0a86","name:gv":"Samoa","name:ha":"Samowa","name:he":"\u05e1\u05de\u05d5\u05d0\u05d4","name:hi":"\u0938\u092e\u094b\u0906","name:hr":"Samoa","name:hu":"Szamoa","name:hy":"\u054d\u0561\u0574\u0578\u0561","name:ia":"Samoa","name:io":"Samoa","name:is":"Sam\u00f3a","name:it":"Samoa","name:ja":"\u30b5\u30e2\u30a2","name:jbo":"samoas","name:ka":"\u10e1\u10d0\u10db\u10dd\u10d0","name:kab":"Samwa","name:km":"\u179f\u17b6\u1798\u17bc\u17a2\u17b6","name:kn":"\u0cb8\u0cae\u0ccb\u0cb5\u0cbe","name:ko":"\uc0ac\ubaa8\uc544","name:ks":"\u0633\u06cc\u0645\u0648\u0648\u0627","name:ksh":"Sammoha","name:ku":"Samoa","name:lg":"Samowa","name:li":"Samoa","name:lo":"\u0e8a\u0eb2\u0ea1\u0ebb\u0ea7","name:lv":"Samoa","name:mi":"H\u0101moa","name:mk":"\u0421\u0430\u043c\u043e\u0430","name:ml":"\u0d38\u0d3e\u0d2e\u0d4b\u0d35","name:mn":"\u0421\u0430\u043c\u043e\u0430","name:mr":"\u0938\u093e\u092e\u094b\u0906","name:ne":"\u0938\u093e\u092e\u094b\u0906","name:nl":"Samoa","name:no":"Samoa","name:or":"\u0b38\u0b3e\u0b2e\u0b4b\u0b06","name:pl":"Samoa","name:pt":"Samoa","name:rn":"Samowa","name:ru":"\u0421\u0430\u043c\u043e\u0430","name:se":"Samoa","name:sg":"Samo\u00e4a","name:si":"\u0dc3\u0dd0\u0db8\u0ddd\u0dc0\u0dcf","name:sk":"Samoa","name:sl":"Samoa","name:smn":"Samoa","name:sms":"Samoa","name:sr":"\u0421\u0430\u043c\u043e\u0430","name:sv":"Samoa","name:ta":"\u0b9a\u0bae\u0bcb\u0bb5\u0bbe","name:te":"\u0c38\u0c2e\u0c4b\u0c35\u0c3e","name:th":"\u0e1b\u0e23\u0e30\u0e40\u0e17\u0e28\u0e0b\u0e32\u0e21\u0e31\u0e27","name:ti":"\u1233\u121e\u12a0","name:to":"Ha\u02bbamoa","name:tzl":"Samovia","name:uk":"\u0421\u0430\u043c\u043e\u0430","name:ur":"\u0633\u0627\u0645\u0648\u0622","name:vo":"Samovu\u00e4ns","name:yo":"Or\u00edl\u1eb9\u0301\u00e8de Sam\u1ecd","name:zh":"\u8428\u6469\u4e9a \/ \u85a9\u6469\u4e9e","name:zh-Hans":"\u8428\u6469\u4e9a","name:zh-Hant":"\u85a9\u6469\u4e9e","name:zu":"i-Samoa","official_name":"Malo Sa'oloto Tuto'atasi o S\u0101moa","official_name:be":"\u041d\u0435\u0437\u0430\u043b\u0435\u0436\u043d\u0430\u044f \u0414\u0437\u044f\u0440\u0436\u0430\u0432\u0430 \u0421\u0430\u043c\u043e\u0430","official_name:cs":"Nez\u00e1visl\u00fd st\u00e1t Samoa","official_name:de":"Unabh\u00e4ngiger Staat Samoa","official_name:en":"Independent State of Samoa","official_name:eo":"Sendependa \u015ctato Samoo","official_name:es":"Estado Independiente de Samoa","official_name:fr":"Samoa occidentales","official_name:gn":"Tet\u00e3 Hekos\u00e3s\u00f3va Sam\u00f3a","official_name:hr":"Nezavisna Dr\u017eava Samoa","official_name:ja":"\u30b5\u30e2\u30a2\u72ec\u7acb\u56fd","official_name:ku":"Dewleta Serbixweya Samoa","official_name:lb":"Unabh\u00e4ngiger Stat Samoa","official_name:lt":"Samoa Nepriklausomoji Valstyb\u0117","official_name:no":"Den selvstendige staten Samoa","official_name:pl":"Niezale\u017cne Pa\u0144stwo Samoa","official_name:pt":"Estado Independente de Samoa","official_name:ru":"\u041d\u0435\u0437\u0430\u0432\u0438\u0441\u0438\u043c\u043e\u0435 \u0413\u043e\u0441\u0443\u0434\u0430\u0440\u0441\u0442\u0432\u043e \u0421\u0430\u043c\u043e\u0430","official_name:sv":"Sj\u00e4lvst\u00e4ndiga staten Samoa","official_name:vi":"Nh\u00e0 n\u01b0\u1edbc \u0110\u1ed9c l\u1eadp Samoa","old_name":"Western Samoa;German Samoa","old_name:cs":"Z\u00e1padn\u00ed Samoa;N\u011bmeck\u00e1 Samoa","old_name:de":"Westsamoa","old_name:eo":"Okcidenta Samoo","old_name:hr":"Zapadna Samoa","old_name:sl":"Zahodna Samoa","timezone":"Pacific\/Apia","type":"boundary","wikidata":"Q683","wikipedia":"en:Samoa"},"timestamp":1716078538,"representative_point":{"type":"Point","coordinates":[-172.12820773884118,-13.757514050000001]}},"geometry":{"type":"Polygon","coordinates":[[[-173.0091864,-13.5236873],[-172.6059695,-13.9898289],[-171.7847669,-14.2439044],[-171.3615932,-14.272521],[-171.2106503,-14.1392513],[-171.2698978,-13.8555273],[-171.9783,-13.6098167],[-172.2476831,-13.2605262],[-172.8431383,-13.3002176],[-173.0091864,-13.5236873]]]}}