{"type":"Feature","properties":{"tags":{"ISO3166-1":"XK","ISO3166-1:alpha2":"XK","ISO3166-1:alpha3":"XXK","ISO3166-1:numeric":"926","ISO3166-2":"RS-KO","according_to:CN":"no","according_to:IN":"no","according_to:RS":"no","according_to:RU":"no","according_to:UA":"no","according_to:XK":"yes","admin_level":"2","alt_name:el":"\u039a\u03cc\u03c3\u03bf\u03b2\u03bf","boundary":"administrative","capital_city":"Prishtina","currency":"EUR","flag":"https:\/\/upload.wikimedia.org\/wikipedia\/commons\/1\/1f\/Flag_of_Kosovo.svg","int_name":"Kosovo","name":"Kosova \/ Kosovo","name:af":"Kosovo","name:als":"Kosovo","name:am":"\u12ae\u1236\u126e","name:an":"Kosovo","name:ar":"\u0643\u0648\u0633\u0648\u0641\u0648","name:ast":"Kosovu","name:ay":"Kusuwu","name:az":"Kosovo","name:azb":"\u06a9\u0648\u0632\u0648\u0648\u0648","name:ba":"\u041a\u043e\u0441\u043e\u0432\u043e","name:bar":"Kosovo","name:bat":"Kuosuovs","name:bcl":"Kosobo","name:be":"\u041a\u043e\u0441\u0430\u0432\u0430","name:be-tarask":"\u041a\u043e\u0441\u0430\u0432\u0430","name:bg":"\u041a\u043e\u0441\u043e\u0432\u043e","name:bn":"\u0995\u09b8\u09cb\u09ad\u09cb","name:bo":"\u0f41\u0f7c\u0f0b\u0f66\u0f7c\u0f0b\u0f5d\u0f7c\u0f0d","name:br":"Kosovo","name:bs":"Kosovo","name:ca":"Kosovo","name:cbk":"Kosovo","name:cdo":"Kosovo","name:ce":"\u041a\u043e\u0441\u043e\u0432\u043e","name:ceb":"Kosovo","name:chr":"\u13aa\u13d0\u13c9","name:ckb":"\u06a9\u06c6\u0633\u06c6\u06a4\u06c6","name:crh":"Kosovo","name:cs":"Kosovo","name:cv":"\u041a\u043e\u0441\u043e\u0432\u043e","name:cy":"Cosofo","name:da":"Kosovo","name:de":"Kosovo","name:diq":"Kosova","name:dsw":"Kosowo","name:el":"\u039a\u03bf\u03c3\u03c3\u03c5\u03c6\u03bf\u03c0\u03ad\u03b4\u03b9\u03bf","name:en":"Kosovo","name:eo":"Kosovo","name:es":"Kosovo","name:et":"Kosovo","name:eu":"Kosovo","name:ext":"Cosovu","name:fa":"\u06a9\u0648\u0632\u0648\u0648","name:fi":"Kosovo","name:fo":"Kosovo","name:fr":"Kosovo","name:frp":"Kosovo","name:frr":"Kosovo","name:fy":"Kosovo","name:ga":"An Chosaiv","name:gag":"Kosova","name:gan":"\u79d1\u7d22\u6c83","name:gd":"Cosobho","name:gl":"Kosovo","name:gn":"Kosovo","name:got":"\ud800\udf3a\ud800\udf30\ud800\udf3f\ud800\udf43\ud800\udf49\ud800\udf31\ud800\udf49","name:gv":"Kosovo","name:hak":"Kosovo","name:he":"\u05e7\u05d5\u05e1\u05d5\u05d1\u05d5","name:hi":"\u0915\u094b\u0938\u094b\u0935\u094b \u0917\u0923\u0930\u093e\u091c\u094d\u092f","name:hr":"Kosovo","name:hsb":"Kosowo","name:hu":"Koszov\u00f3","name:hy":"\u053f\u0578\u057d\u0578\u057e\u0578\u0576","name:ia":"Kosovo","name:id":"Kosovo","name:ie":"Kosovo","name:ig":"Kosovo","name:io":"Kosovo","name:is":"Kos\u00f3v\u00f3","name:it":"Kosovo","name:ja":"\u30b3\u30bd\u30dc","name:jbo":"kosovas","name:jv":"Kosovo","name:ka":"\u10d9\u10dd\u10e1\u10dd\u10d5\u10dd","name:kab":"Kosovo","name:kbd":"\u041a\u043e\u0441\u043e\u0432\u043e","name:kk":"\u041a\u043e\u0441\u043e\u0432\u043e","name:kl":"Kosovo","name:kn":"\u0c95\u0cca\u0cb8\u0cca\u0cb5\u0cca","name:ko":"\ucf54\uc18c\ubcf4","name:ksh":"Kosovo","name:ku":"Kosova","name:kv":"\u041a\u043e\u0441\u043e\u0432\u043e","name:kw":"Kosova","name:ky":"\u041a\u043e\u0441\u043e\u0432\u043e","name:la":"Kosovia","name:lad":"Kosovo","name:lb":"Kosovo","name:lbe":"\u041a\u043e\u0441\u043e\u0432\u0430","name:lfn":"Cosovo","name:li":"Kosovo","name:lij":"Kosovo","name:lmo":"Kosovo","name:lo":"\u0e9b\u0eb0\u0ec0\u0e97\u0e94\u0ec2\u0e81\u0ec2\u0e8a\u0ec2\u0ea7","name:lrc":"\u06a9\u0648\u0632\u0648\u06a4\u0648","name:lt":"Kosovas","name:lv":"Kosova","name:mk":"\u041a\u043e\u0441\u043e\u0432\u043e","name:ml":"\u0d15\u0d4a\u0d38\u0d4b\u0d35\u0d4b","name:mn":"\u041a\u043e\u0441\u043e\u0432\u043e","name:mr":"\u0915\u094b\u0938\u094b\u0935\u094d\u0939\u094b","name:ms":"Kosovo","name:mt":"Kosovo","name:my":"\u1000\u102d\u102f\u1006\u102d\u102f\u1017\u102d\u102f","name:mzn":"\u06a9\u0648\u0632\u0648\u0648 \u062c\u0645\u0647\u0648\u0631\u06cc","name:na":"Kosovo","name:nah":"Cosovo","name:nds":"Kosovo","name:nl":"Kosovo","name:nn":"Kosovo","name:no":"Kosovo","name:nov":"Kosovo","name:nrm":"Kosovo","name:ny":"Kosovo","name:oc":"Kosova","name:os":"\u041a\u043e\u0441\u043e\u0432\u043e","name:pa":"\u0a15\u0a4b\u0a38\u0a4b\u0a35\u0a4b \u0a17\u0a23\u0a30\u0a3e\u0a1c","name:pap":"Kosovo","name:pcd":"Kosovo","name:pl":"Kosowo","name:pms":"Kosovo","name:pnb":"\u06a9\u0648\u0633\u0648\u0648","name:pnt":"\u039a\u03cc\u03c3\u03bf\u03b2\u03bf","name:pt":"Kosovo","name:qu":"Kusuwu","name:rm":"Cosovo","name:ro":"Kosovo","name:roa":"Cosova","name:ru":"\u041a\u043e\u0441\u043e\u0432\u043e","name:rue":"\u041a\u043e\u0441\u043e\u0432\u043e","name:rw":"Kosovo","name:sah":"\u041a\u043e\u0441\u043e\u0432\u0430","name:sc":"K\u00f2ssovu","name:scn":"K\u00f2ssuvu","name:sco":"Kosovo","name:sh":"Kosovo","name:si":"\u0d9a\u0ddc\u0dc3\u0ddd\u0dc0\u0ddc","name:sk":"Kosovo","name:sl":"Kosovo","name:sm":"Kosovo","name:sn":"Kosovo","name:so":"Kosofo","name:sq":"Kosovo","name:sr":"\u041a\u043e\u0441\u043e\u0432\u043e","name:sr-Latn":"Kosovo","name:srn":"Kosovokondre","name:stq":"Kosovo","name:su":"Kosovo","name:sv":"Kosovo","name:sw":"Kosovo","name:szl":"Kosowo","name:ta":"\u0b95\u0bca\u0b9a\u0bcb\u0bb5\u0bcb","name:te":"\u0c15\u0c4a\u0c38\u0c3e\u0c35\u0c4b","name:th":"\u0e1b\u0e23\u0e30\u0e40\u0e17\u0e28\u0e04\u0e2d\u0e0b\u0e2d\u0e27\u0e2d","name:tl":"Kosovo","name:tr":"Kosova","name:ts":"Kosovo","name:tzl":"Kosove","name:uk":"\u041a\u043e\u0441\u043e\u0432\u043e","name:ur":"\u06a9\u0648\u0633\u0648\u0648\u06c1","name:uz":"Kosovo","name:vec":"Kosovo","name:vi":"Kosovo","name:vls":"Kosovo","name:vo":"Kosov\u00e4n","name:vro":"Kosovo","name:war":"Kosovo","name:wuu":"\u79d1\u7d22\u6c83","name:xal":"\u041a\u043e\u0441\u043e\u0432\u0438\u043d \u0422\u0430\u04a3\u04bb\u0447","name:xmf":"\u10d9\u10dd\u10e1\u10dd\u10d5\u10dd","name:yo":"K\u00f3s\u00f3f\u00f2","name:yue":"\u79d1\u7d22\u6c83","name:zh":"\u79d1\u7d22\u6c83","name:zh-Hans":"\u79d1\u7d22\u6c83","name:zh-Hant":"\u79d1\u7d22\u6c83","official_name":"Republika e Kosov\u00ebs","official_name:ar":"\u062c\u0645\u0647\u0648\u0631\u064a\u0629 \u0643\u0648\u0633\u0648\u0641\u0648","official_name:cs":"Kosovsk\u00e1 republika","official_name:de":"Republik Kosovo","official_name:el":"\u0394\u03b7\u03bc\u03bf\u03ba\u03c1\u03b1\u03c4\u03af\u03b1 \u03c4\u03bf\u03c5 \u039a\u03bf\u03c3\u03c3\u03c5\u03c6\u03bf\u03c0\u03b5\u03b4\u03af\u03bf\u03c5","official_name:en":"Republic of Kosovo","official_name:eo":"Respubliko Kosovo","official_name:es":"Rep\u00fablica de Kosovo","official_name:fa":"\u062c\u0645\u0647\u0648\u0631\u06cc \u06a9\u0648\u0632\u0648\u0648","official_name:fr":"R\u00e9publique du Kosovo","official_name:ru":"\u0420\u0435\u0441\u043f\u0443\u0431\u043b\u0438\u043a\u0430 \u041a\u043e\u0441\u043e\u0432\u043e","official_name:sq":"Republika e Kosov\u00ebs","official_name:sr":"\u0420\u0435\u043f\u0443\u0431\u043b\u0438\u043a\u0430 \u041a\u043e\u0441\u043e\u0432\u043e","official_name:sr-Latn":"Republika Kosovo","official_name:zh-Hans":"\u79d1\u7d22\u6c83\u5171\u548c\u56fd","official_name:zh-Hant":"\u79d1\u7d22\u6c83\u5171\u548c\u570b","ref:RS:pokrajina":"RS-KO","timezone":"Europe\/Pristina","type":"boundary","wikidata":"Q1246","wikipedia":"en:Kosovo"},"timestamp":1716078538,"representative_point":{"type":"Point","coordinates":[20.913641374540397,42.5653218]}},"geometry":{"type":"Polygon","coordinates":[[[20.3529276,42.8333801],[20.0246529,42.7651386],[20.0762998,42.5558234],[20.5139964,42.2242973],[20.5943749,41.8771924],[21.1037724,42.205887],[21.2568786,42.0927859],[21.5869537,42.2628407],[21.7717342,42.6768953],[21.3929772,42.7451477],[21.4350599,42.8723076],[20.828408,43.2657868],[20.7692886,43.2475776],[20.3529276,42.8333801]]]}}